[
  {
    "v": "Call a Bike",
    "lbl": {"en": "Call a Bike"},
    "countryCodes": ["de"],
    "tags": {
      "amenity": "bicycle_rental",
      "brand": "Call a Bike",
      "brand:wikidata": "Q1060525",
      "brand:wikipedia": "en:Call a Bike",
      "name": "Call a Bike"
    }
  },
  {
    "v": "Explore Bike Share",
    "lbl": {"en": "Explore Bike Share"},
    "tags": {
      "amenity": "bicycle_rental",
      "brand": "Explore Bike Share",
      "name": "Explore Bike Share"
    }
  },
  {
    "v": "Grid",
    "lbl": {"en": "Grid"},
    "countryCodes": ["us"],
    "tags": {
      "amenity": "bicycle_rental",
      "brand": "Grid",
      "brand:wikidata": "Q62104168",
      "name": "Grid"
    }
  },
  {
    "v": "MiBici",
    "lbl": {"en": "MiBici"},
    "countryCodes": ["mx"],
    "tags": {
      "amenity": "bicycle_rental",
      "brand": "MiBici",
      "brand:wikidata": "Q60966987",
      "brand:wikipedia": "es:MiBici",
      "name": "MiBici"
    }
  },
  {
    "v": "Swapfiets",
    "lbl": {"en": "Swapfiets"},
    "countryCodes": ["be", "de", "dk", "nl"],
    "tags": {
      "amenity": "bicycle_rental",
      "brand": "Swapfiets",
      "brand:wikidata": "Q62104374",
      "name": "Swapfiets"
    }
  },
  {
    "v": "metropolradruhr",
    "lbl": {"en": "metropolradruhr"},
    "countryCodes": ["de"],
    "tags": {
      "amenity": "bicycle_rental",
      "brand": "metropolradruhr",
      "brand:wikidata": "Q62104274",
      "name": "metropolradruhr"
    }
  },
  {
    "v": "nextbike",
    "lbl": {"en": "nextbike"},
    "countryCodes": ["at", "de"],
    "tags": {
      "amenity": "bicycle_rental",
      "brand": "nextbike",
      "brand:wikidata": "Q2351279",
      "brand:wikipedia": "de:Nextbike",
      "name": "nextbike"
    }
  }
]