[
  {
    "v": "85°C",
    "lbl": {"en": "85°C"},
    "countryCodes": ["au", "us"],
    "matchNames": [
      "85 cafe",
      "85 degrees",
      "85 degrees c",
      "85 degrees celsius",
      "85c bakery cafe",
      "85c daily cafe",
      "85oc"
    ],
    "tags": {
      "alt_name": "85C",
      "amenity": "cafe",
      "brand": "85°C",
      "brand:wikidata": "Q4644852",
      "brand:wikipedia": "en:85C Bakery Cafe",
      "cuisine": "coffee_shop;chinese",
      "name": "85°C",
      "takeaway": "yes"
    }
  },
  {
    "v": "85度C",
    "lbl": {"en": "85度C"},
    "countryCodes": ["cn", "tw"],
    "tags": {
      "amenity": "cafe",
      "brand": "85度C",
      "brand:en": "85C Bakery Cafe",
      "brand:wikidata": "Q4644852",
      "brand:wikipedia": "en:85C Bakery Cafe",
      "cuisine": "coffee_shop",
      "name": "85度C",
      "name:en": "85C Bakery Cafe",
      "takeaway": "yes"
    }
  },
  {
    "v": "Aroma Espresso Bar",
    "lbl": {"en": "Aroma Espresso Bar"},
    "countryCodes": ["ca", "kz", "ro", "ua", "us"],
    "tags": {
      "amenity": "cafe",
      "brand": "Aroma Espresso Bar",
      "brand:wikidata": "Q2909872",
      "brand:wikipedia": "en:Aroma Espresso Bar",
      "cuisine": "coffee_shop",
      "name": "Aroma Espresso Bar",
      "takeaway": "yes"
    }
  },
  {
    "v": "Barista",
    "lbl": {"en": "Barista"},
    "countryCodes": ["in", "lk", "mv", "np"],
    "tags": {
      "amenity": "cafe",
      "brand": "Barista",
      "brand:wikidata": "Q644735",
      "brand:wikipedia": "en:Barista (company)",
      "cuisine": "coffee_shop",
      "name": "Barista",
      "takeaway": "yes"
    }
  },
  {
    "v": "Beck's Coffee Shop",
    "lbl": {"en": "Beck's Coffee Shop"},
    "countryCodes": ["jp"],
    "matchNames": ["beck's coffe shop"],
    "tags": {
      "alt_name": "ベックス・コーヒーショップ",
      "amenity": "cafe",
      "brand": "Beck's Coffee Shop",
      "brand:wikidata": "Q11191008",
      "brand:wikipedia": "ja:BECK'S COFFEE SHOP",
      "cuisine": "coffee_shop",
      "name": "Beck's Coffee Shop",
      "takeaway": "yes"
    }
  },
  {
    "v": "Biggby Coffee",
    "lbl": {"en": "Biggby Coffee"},
    "countryCodes": ["us"],
    "tags": {
      "amenity": "cafe",
      "brand": "Biggby Coffee",
      "brand:wikidata": "Q4906876",
      "brand:wikipedia": "en:Biggby Coffee",
      "cuisine": "coffee_shop",
      "name": "Biggby Coffee",
      "takeaway": "yes"
    }
  },
  {
    "v": "Black Rock Coffee",
    "lbl": {"en": "Black Rock Coffee"},
    "countryCodes": ["us"],
    "tags": {
      "amenity": "cafe",
      "brand": "Black Rock Coffee",
      "brand:wikidata": "Q64225934",
      "cuisine": "coffee_shop",
      "name": "Black Rock Coffee",
      "takeaway": "yes"
    }
  },
  {
    "v": "Bonafide",
    "lbl": {"en": "Bonafide"},
    "countryCodes": ["ar", "cl"],
    "tags": {
      "amenity": "cafe",
      "brand": "Bonafide",
      "brand:wikidata": "Q62122746",
      "cuisine": "coffee_shop",
      "name": "Bonafide",
      "takeaway": "yes"
    }
  },
  {
    "v": "Bridgehead",
    "lbl": {"en": "Bridgehead"},
    "countryCodes": ["ca"],
    "tags": {
      "amenity": "cafe",
      "brand": "Bridgehead",
      "brand:wikidata": "Q4966509",
      "brand:wikipedia": "en:Bridgehead Coffee",
      "cuisine": "coffee_shop",
      "name": "Bridgehead",
      "takeaway": "yes"
    }
  },
  {
    "v": "Cafe Coffee Day",
    "lbl": {"en": "Cafe Coffee Day"},
    "tags": {
      "amenity": "cafe",
      "brand": "Cafe Coffee Day",
      "brand:wikidata": "Q5017235",
      "brand:wikipedia": "en:Café Coffee Day",
      "cuisine": "coffee_shop",
      "name": "Cafe Coffee Day",
      "takeaway": "yes"
    }
  },
  {
    "v": "Caffè Nero",
    "lbl": {"en": "Caffè Nero"},
    "countryCodes": ["gb", "ie", "tr", "us"],
    "matchNames": ["cafe nero"],
    "tags": {
      "amenity": "cafe",
      "brand": "Caffè Nero",
      "brand:wikidata": "Q675808",
      "brand:wikipedia": "en:Caffè Nero",
      "cuisine": "coffee_shop",
      "name": "Caffè Nero",
      "takeaway": "yes"
    }
  },
  {
    "v": "Café Amazon",
    "lbl": {"en": "Café Amazon"},
    "tags": {
      "amenity": "cafe",
      "brand": "Café Amazon",
      "brand:wikidata": "Q43247503",
      "brand:wikipedia": "en:Café Amazon",
      "cuisine": "coffee_shop",
      "name": "Café Amazon",
      "takeaway": "yes"
    }
  },
  {
    "v": "Café Dépôt",
    "lbl": {"en": "Café Dépôt"},
    "countryCodes": ["ca"],
    "tags": {
      "amenity": "cafe",
      "brand": "Café Dépôt",
      "brand:wikidata": "Q64924449",
      "cuisine": "coffee_shop;cake;bagel;bistro",
      "name": "Café Dépôt",
      "takeaway": "yes"
    }
  },
  {
    "v": "Café Martínez",
    "lbl": {"en": "Café Martínez"},
    "countryCodes": ["ar"],
    "tags": {
      "amenity": "cafe",
      "brand": "Café Martínez",
      "brand:wikidata": "Q16540032",
      "brand:wikipedia": "es:Café Martínez",
      "cuisine": "coffee_shop",
      "name": "Café Martínez",
      "takeaway": "yes"
    }
  },
  {
    "v": "Café de Paris",
    "lbl": {"en": "Café de Paris"},
    "tags": {
      "amenity": "cafe",
      "brand": "Café de Paris",
      "cuisine": "coffee_shop",
      "name": "Café de Paris",
      "takeaway": "yes"
    }
  },
  {
    "v": "Cappuccino",
    "lbl": {"en": "Cappuccino"},
    "countryCodes": ["at", "be", "de", "es", "se"],
    "tags": {
      "amenity": "cafe",
      "brand": "Cappuccino",
      "cuisine": "coffee_shop",
      "name": "Cappuccino",
      "takeaway": "yes"
    }
  },
  {
    "v": "Caribou Coffee",
    "lbl": {"en": "Caribou Coffee"},
    "tags": {
      "amenity": "cafe",
      "brand": "Caribou Coffee",
      "brand:wikidata": "Q5039494",
      "brand:wikipedia": "en:Caribou Coffee",
      "cuisine": "coffee_shop",
      "name": "Caribou Coffee",
      "takeaway": "yes"
    }
  },
  {
    "v": "Chatime",
    "lbl": {"en": "Chatime"},
    "tags": {
      "amenity": "cafe",
      "brand": "Chatime",
      "brand:en": "Chatime",
      "brand:wikidata": "Q16829306",
      "brand:wikipedia": "en:Chatime",
      "brand:zh": "日出茶太",
      "cuisine": "bubble_tea",
      "name": "Chatime",
      "name:en": "Chatime",
      "name:zh": "日出茶太",
      "takeaway": "yes"
    }
  },
  {
    "v": "CoCo",
    "lbl": {"en": "CoCo"},
    "countryCodes": ["au"],
    "tags": {
      "amenity": "cafe",
      "brand": "CoCo",
      "brand:wikidata": "Q64827025",
      "cuisine": "bubble_tea",
      "name": "Coco",
      "takeaway": "yes"
    }
  },
  {
    "v": "Coffee Bean",
    "lbl": {"en": "Coffee Bean"},
    "tags": {
      "amenity": "cafe",
      "brand": "Coffee Bean",
      "cuisine": "coffee_shop",
      "name": "Coffee Bean",
      "takeaway": "yes"
    }
  },
  {
    "v": "Coffee Culture",
    "lbl": {"en": "Coffee Culture~(Canada/USA)"},
    "countryCodes": ["ca", "us"],
    "tags": {
      "amenity": "cafe",
      "brand": "Coffee Culture",
      "cuisine": "coffee_shop",
      "name": "Coffee Culture",
      "takeaway": "yes"
    }
  },
  {
    "v": "Coffee Culture",
    "lbl": {"en": "Coffee Culture~(New Zealand)"},
    "countryCodes": ["nz"],
    "tags": {
      "amenity": "cafe",
      "brand": "Coffee Culture",
      "cuisine": "coffee_shop",
      "name": "Coffee Culture",
      "takeaway": "yes"
    }
  },
  {
    "v": "Coffee Fellows",
    "lbl": {"en": "Coffee Fellows"},
    "countryCodes": ["de", "lu", "nl"],
    "tags": {
      "amenity": "cafe",
      "brand": "Coffee Fellows",
      "brand:wikidata": "Q23461429",
      "brand:wikipedia": "en:Coffee Fellows",
      "cuisine": "coffee_shop",
      "name": "Coffee Fellows",
      "takeaway": "yes"
    }
  },
  {
    "v": "Coffee House",
    "lbl": {"en": "Coffee House~(Finland)"},
    "countryCodes": ["fi"],
    "nomatch": ["amenity/cafe|The Coffee House~(Vietnam)"],
    "tags": {
      "amenity": "cafe",
      "brand": "Coffee House",
      "brand:wikidata": "Q11855430",
      "brand:wikipedia": "fi:Coffee House",
      "cuisine": "coffee_shop",
      "name": "Coffee House",
      "takeaway": "yes"
    }
  },
  {
    "v": "Coffee Island",
    "lbl": {"en": "Coffee Island"},
    "countryCodes": ["cy", "gr"],
    "tags": {
      "amenity": "cafe",
      "brand": "Coffee Island",
      "brand:wikidata": "Q60867333",
      "brand:wikipedia": "en:Coffee Island",
      "cuisine": "coffee_shop",
      "name": "Coffee Island",
      "takeaway": "yes"
    }
  },
  {
    "v": "Coffee Like",
    "lbl": {"en": "Coffee Like"},
    "countryCodes": ["kz", "ru"],
    "tags": {
      "amenity": "cafe",
      "brand": "Coffee Like",
      "cuisine": "coffee_shop",
      "name": "Coffee Like",
      "takeaway": "yes"
    }
  },
  {
    "v": "Coffee Time",
    "lbl": {"en": "Coffee Time"},
    "tags": {
      "amenity": "cafe",
      "brand": "Coffee Time",
      "brand:wikidata": "Q5140932",
      "brand:wikipedia": "en:Coffee Time",
      "cuisine": "coffee_shop",
      "name": "Coffee Time",
      "takeaway": "yes"
    }
  },
  {
    "v": "Cofix",
    "lbl": {"en": "Cofix"},
    "countryCodes": ["il", "ru"],
    "tags": {
      "amenity": "cafe",
      "brand": "Cofix",
      "brand:en": "Cofix",
      "brand:he": "קפויקס",
      "brand:wikidata": "Q16132717",
      "brand:wikipedia": "he:קופיקס",
      "cuisine": "coffee_shop",
      "name": "Cofix",
      "name:en": "Cofix",
      "name:he": "קופיקס",
      "takeaway": "yes"
    }
  },
  {
    "v": "Cofizz",
    "lbl": {"en": "Cofizz"},
    "countryCodes": ["il"],
    "tags": {
      "amenity": "cafe",
      "brand": "Cofizz",
      "brand:en": "Cofizz",
      "brand:he": "קופיז",
      "brand:wikidata": "Q64606270",
      "cuisine": "coffee_shop",
      "name": "Cofizz",
      "name:en": "Cofizz",
      "name:he": "קופיז",
      "takeaway": "yes"
    }
  },
  {
    "v": "Costa",
    "lbl": {"en": "Costa"},
    "matchNames": ["costa coffee"],
    "tags": {
      "amenity": "cafe",
      "brand": "Costa",
      "brand:wikidata": "Q608845",
      "brand:wikipedia": "en:Costa Coffee",
      "cuisine": "coffee_shop",
      "name": "Costa",
      "takeaway": "yes"
    }
  },
  {
    "v": "Country Style",
    "lbl": {"en": "Country Style"},
    "countryCodes": ["ca"],
    "tags": {
      "amenity": "cafe",
      "brand": "Country Style",
      "brand:wikidata": "Q5177435",
      "brand:wikipedia": "en:Country Style",
      "cuisine": "coffee_shop",
      "name": "Country Style",
      "takeaway": "yes"
    }
  },
  {
    "v": "Cộng Cà Phê",
    "lbl": {"en": "Cộng Cà Phê"},
    "countryCodes": ["kr", "vn"],
    "matchNames": ["cong"],
    "tags": {
      "amenity": "cafe",
      "brand": "Cộng Cà Phê",
      "brand:wikidata": "Q63864181",
      "cuisine": "coffee_shop;vietnamese",
      "name": "Cộng Cà Phê",
      "name:vi": "Cộng Cà Phê",
      "takeaway": "yes"
    }
  },
  {
    "v": "Dolce Vita",
    "lbl": {"en": "Dolce Vita"},
    "tags": {
      "amenity": "cafe",
      "brand": "Dolce Vita",
      "cuisine": "coffee_shop",
      "name": "Dolce Vita",
      "takeaway": "yes"
    }
  },
  {
    "v": "Dutch Bros. Coffee",
    "lbl": {"en": "Dutch Bros. Coffee"},
    "countryCodes": ["us"],
    "matchNames": ["dutch bros", "dutch brothers"],
    "tags": {
      "amenity": "cafe",
      "brand": "Dutch Bros. Coffee",
      "brand:wikidata": "Q5317253",
      "brand:wikipedia": "en:Dutch Bros. Coffee",
      "cuisine": "coffee_shop",
      "name": "Dutch Bros. Coffee",
      "takeaway": "only"
    }
  },
  {
    "v": "Espresso House",
    "lbl": {"en": "Espresso House"},
    "countryCodes": ["dk", "fi", "no", "se"],
    "tags": {
      "amenity": "cafe",
      "brand": "Espresso House",
      "brand:wikidata": "Q10489162",
      "brand:wikipedia": "en:Espresso House",
      "cuisine": "coffee_shop",
      "name": "Espresso House",
      "takeaway": "yes"
    }
  },
  {
    "v": "Fran's Café",
    "lbl": {"en": "Fran's Café"},
    "countryCodes": ["br"],
    "tags": {
      "amenity": "cafe",
      "brand": "Fran's Café",
      "brand:wikidata": "Q62075645",
      "cuisine": "coffee_shop",
      "name": "Fran's Café",
      "takeaway": "yes"
    }
  },
  {
    "v": "Gloria Jean's",
    "lbl": {"en": "Gloria Jean's"},
    "tags": {
      "amenity": "cafe",
      "brand": "Gloria Jean's",
      "brand:wikidata": "Q2666365",
      "brand:wikipedia": "en:Gloria Jean's Coffees",
      "cuisine": "coffee_shop",
      "name": "Gloria Jean's",
      "official_name": "Gloria Jean's Coffees",
      "takeaway": "yes"
    }
  },
  {
    "v": "Gong Cha",
    "lbl": {"en": "Gong Cha~(Vietnam)"},
    "countryCodes": ["vn"],
    "tags": {
      "alt_name:vi": "Cống Trà",
      "amenity": "cafe",
      "brand": "Gong Cha",
      "brand:vi": "Gong Cha",
      "brand:wikidata": "Q5581670",
      "brand:wikipedia": "vi:Gong Cha",
      "brand:zh": "貢茶",
      "cuisine": "bubble_tea",
      "name": "Gong Cha",
      "name:vi": "Gong Cha",
      "name:zh": "貢茶",
      "takeaway": "yes"
    }
  },
  {
    "v": "Gong Cha",
    "lbl": {"en": "Gong Cha~(worldwide)"},
    "countryCodes": [
      "au",
      "bn",
      "ca",
      "mm",
      "mo",
      "my",
      "nz",
      "ph",
      "sg",
      "us"
    ],
    "tags": {
      "amenity": "cafe",
      "brand": "Gong Cha",
      "brand:wikidata": "Q5581670",
      "brand:wikipedia": "en:Gong Cha",
      "brand:zh": "貢茶",
      "cuisine": "bubble_tea",
      "int_name": "Gong Cha",
      "name": "Gong Cha",
      "name:zh": "貢茶",
      "takeaway": "yes"
    }
  },
  {
    "v": "Havanna",
    "lbl": {"en": "Havanna"},
    "countryCodes": ["ar", "pe"],
    "tags": {
      "amenity": "cafe",
      "brand": "Havanna",
      "brand:wikidata": "Q2900869",
      "brand:wikipedia": "es:Havanna",
      "cuisine": "coffee_shop",
      "name": "Havanna",
      "takeaway": "yes"
    }
  },
  {
    "v": "Highlands Coffee",
    "lbl": {"en": "Highlands Coffee"},
    "countryCodes": ["vn"],
    "matchNames": ["highlands"],
    "tags": {
      "amenity": "cafe",
      "brand": "Highlands Coffee",
      "brand:wikidata": "Q5759361",
      "brand:wikipedia": "vi:Highlands Coffee",
      "cuisine": "coffee_shop;vietnamese",
      "name": "Highlands Coffee",
      "name:en": "Highlands Coffee",
      "takeaway": "yes"
    }
  },
  {
    "v": "Hudsons Coffee",
    "lbl": {"en": "Hudsons Coffee"},
    "countryCodes": ["au", "sg"],
    "tags": {
      "amenity": "cafe",
      "brand": "Hudsons Coffee",
      "brand:wikidata": "Q5929076",
      "brand:wikipedia": "en:Hudsons Coffee",
      "cuisine": "coffee_shop",
      "name": "Hudsons Coffee",
      "takeaway": "yes"
    }
  },
  {
    "v": "Insomnia",
    "lbl": {"en": "Insomnia"},
    "countryCodes": ["ie"],
    "tags": {
      "amenity": "cafe",
      "brand": "Insomnia",
      "brand:wikidata": "Q6038271",
      "brand:wikipedia": "en:Insomnia Coffee Company",
      "cuisine": "coffee_shop",
      "name": "Insomnia",
      "takeaway": "yes"
    }
  },
  {
    "v": "Jamaica Blue",
    "lbl": {"en": "Jamaica Blue"},
    "countryCodes": ["ae", "au", "cn", "my", "nz", "sg", "uk"],
    "tags": {
      "amenity": "cafe",
      "brand": "Jamaica Blue",
      "brand:wikidata": "Q24965819",
      "brand:wikipedia": "en:Jamaica Blue",
      "cuisine": "coffee_shop",
      "name": "Jamaica Blue",
      "takeaway": "yes"
    }
  },
  {
    "v": "Joe & The Juice",
    "lbl": {"en": "Joe & The Juice"},
    "tags": {
      "amenity": "cafe",
      "brand": "Joe & The Juice",
      "brand:wikidata": "Q26221514",
      "brand:wikipedia": "en:Joe & The Juice",
      "cuisine": "coffee_shop",
      "name": "Joe & The Juice",
      "takeaway": "yes"
    }
  },
  {
    "v": "La Colombe Coffee Roasters",
    "lbl": {"en": "La Colombe Coffee Roasters"},
    "countryCodes": ["us"],
    "tags": {
      "amenity": "cafe",
      "brand": "La Colombe Coffee Roasters",
      "brand:wikidata": "Q23461663",
      "brand:wikipedia": "en:La Colombe Coffee Roasters",
      "cuisine": "coffee_shop",
      "name": "La Colombe Coffee Roasters",
      "short_name": "La Colombe",
      "takeaway": "yes"
    }
  },
  {
    "v": "Le Pain Quotidien",
    "lbl": {"en": "Le Pain Quotidien"},
    "tags": {
      "amenity": "cafe",
      "brand": "Le Pain Quotidien",
      "brand:wikidata": "Q2046903",
      "brand:wikipedia": "en:Le Pain Quotidien",
      "cuisine": "coffee_shop",
      "name": "Le Pain Quotidien",
      "takeaway": "yes"
    }
  },
  {
    "v": "Mado",
    "lbl": {"en": "Mado"},
    "countryCodes": ["tr"],
    "tags": {
      "amenity": "cafe",
      "brand": "Mado",
      "brand:wikidata": "Q17116336",
      "brand:wikipedia": "en:Mado (food company)",
      "cuisine": "coffee_shop",
      "name": "Mado",
      "takeaway": "yes"
    }
  },
  {
    "v": "McCafé",
    "lbl": {"en": "McCafé"},
    "tags": {
      "amenity": "cafe",
      "brand": "McCafé",
      "brand:wikidata": "Q3114287",
      "brand:wikipedia": "en:McCafé",
      "cuisine": "coffee_shop",
      "name": "McCafé",
      "takeaway": "yes"
    }
  },
  {
    "v": "Michel's Patisserie",
    "lbl": {"en": "Michel's Patisserie"},
    "countryCodes": ["au", "cn", "id", "nz"],
    "tags": {
      "amenity": "cafe",
      "brand": "Michel's Patisserie",
      "brand:wikidata": "Q6836235",
      "brand:wikipedia": "en:Michel's Patisserie",
      "cuisine": "coffee_shop",
      "name": "Michel's Patisserie",
      "takeaway": "yes"
    }
  },
  {
    "v": "Mikel",
    "lbl": {"en": "Mikel"},
    "countryCodes": ["ae", "au", "cy", "de", "eg", "gb", "gr", "sa", "us"],
    "tags": {
      "amenity": "cafe",
      "brand": "Mikel",
      "brand:wikidata": "Q16952021",
      "brand:wikipedia": "el:Mikel",
      "cuisine": "coffee_shop",
      "name": "Mikel",
      "takeaway": "yes"
    }
  },
  {
    "v": "Muffin Break",
    "lbl": {"en": "Muffin Break"},
    "countryCodes": ["au", "in", "nz", "uk"],
    "tags": {
      "amenity": "cafe",
      "brand": "Muffin Break",
      "brand:wikidata": "Q16964876",
      "brand:wikipedia": "en:Muffin Break",
      "cuisine": "coffee_shop",
      "name": "Muffin Break",
      "takeaway": "yes"
    }
  },
  {
    "v": "Muzz Buzz",
    "lbl": {"en": "Muzz Buzz"},
    "countryCodes": ["au", "nz"],
    "tags": {
      "amenity": "cafe",
      "brand": "Muzz Buzz",
      "brand:wikidata": "Q6944483",
      "brand:wikipedia": "en:Muzz Buzz",
      "cuisine": "coffee_shop",
      "name": "Muzz Buzz",
      "takeaway": "yes"
    }
  },
  {
    "v": "Patisserie Valerie",
    "lbl": {"en": "Patisserie Valerie"},
    "countryCodes": ["gb"],
    "tags": {
      "amenity": "cafe",
      "brand": "Patisserie Valerie",
      "brand:wikidata": "Q22101966",
      "brand:wikipedia": "en:Patisserie Valerie",
      "cuisine": "coffee_shop",
      "name": "Patisserie Valerie",
      "takeaway": "yes"
    }
  },
  {
    "v": "Peet's Coffee",
    "lbl": {"en": "Peet's Coffee"},
    "countryCodes": ["us"],
    "matchNames": ["peets", "peets coffee & tea"],
    "tags": {
      "amenity": "cafe",
      "brand": "Peet's Coffee",
      "brand:wikidata": "Q1094101",
      "brand:wikipedia": "en:Peet's Coffee",
      "cuisine": "coffee_shop",
      "name": "Peet's Coffee",
      "takeaway": "yes"
    }
  },
  {
    "v": "Pie Face",
    "lbl": {"en": "Pie Face"},
    "countryCodes": ["au"],
    "tags": {
      "amenity": "Pie Face",
      "brand": "Pie Face",
      "brand:wikidata": "Q18166370",
      "brand:wikipedia": "en:Pie Face",
      "cuisine": "coffee_shop",
      "name": "Pie Face",
      "takeaway": "yes"
    }
  },
  {
    "v": "Prime",
    "lbl": {"en": "Prime"},
    "countryCodes": ["ru"],
    "tags": {
      "amenity": "cafe",
      "brand": "Prime",
      "brand:wikidata": "Q62122839",
      "cuisine": "coffee_shop",
      "name": "Prime",
      "takeaway": "yes"
    }
  },
  {
    "v": "Pronto",
    "lbl": {"en": "Pronto"},
    "countryCodes": ["jp"],
    "matchNames": ["プロント"],
    "nomatch": ["shop/convenience|Coop Pronto"],
    "tags": {
      "amenity": "cafe",
      "brand": "Pronto",
      "brand:wikidata": "Q11336224",
      "brand:wikipedia": "ja:プロントコーポレーション",
      "cuisine": "coffee_shop",
      "name": "Pronto",
      "name:ja": "プロント",
      "takeaway": "yes"
    }
  },
  {
    "v": "Pumpkin",
    "lbl": {"en": "Pumpkin"},
    "countryCodes": ["gb"],
    "matchNames": ["pumpkin cafe", "pumpkin cafe shop"],
    "tags": {
      "amenity": "cafe",
      "brand": "Pumpkin",
      "brand:wikidata": "Q27825961",
      "brand:wikipedia": "en:Pumpkin Café Shop",
      "cuisine": "coffee_shop",
      "name": "Pumpkin",
      "takeaway": "yes"
    }
  },
  {
    "v": "Quickly",
    "lbl": {"en": "Quickly"},
    "tags": {
      "amenity": "cafe",
      "brand": "Quickly",
      "brand:en": "Quickly",
      "brand:wikidata": "Q3771463",
      "brand:wikipedia": "en:Quickly",
      "brand:zh": "快可立",
      "cuisine": "bubble_tea",
      "name": "Quickly",
      "name:en": "Quickly",
      "name:zh": "快可立",
      "takeaway": "yes"
    }
  },
  {
    "v": "Second Cup",
    "lbl": {"en": "Second Cup"},
    "tags": {
      "amenity": "cafe",
      "brand": "Second Cup",
      "brand:wikidata": "Q862180",
      "brand:wikipedia": "en:Second Cup",
      "cuisine": "coffee_shop",
      "name": "Second Cup",
      "takeaway": "yes"
    }
  },
  {
    "v": "Segafredo",
    "lbl": {"en": "Segafredo"},
    "tags": {
      "amenity": "cafe",
      "brand": "Segafredo",
      "brand:wikidata": "Q21282762",
      "brand:wikipedia": "it:Segafredo Zanetti",
      "cuisine": "coffee_shop",
      "name": "Segafredo",
      "takeaway": "yes"
    }
  },
  {
    "v": "Sharetea",
    "lbl": {"en": "Sharetea"},
    "countryCodes": ["au", "us"],
    "tags": {
      "amenity": "cafe",
      "brand": "Sharetea",
      "brand:wikidata": "Q64827032",
      "cuisine": "bubble_tea",
      "name": "Sharetea",
      "name:en": "Sharetea",
      "name:zh": "歇腳亭",
      "takeaway": "yes"
    }
  },
  {
    "v": "Starbucks",
    "lbl": {"en": "Starbucks"},
    "tags": {
      "amenity": "cafe",
      "brand": "Starbucks",
      "brand:wikidata": "Q37158",
      "brand:wikipedia": "en:Starbucks",
      "cuisine": "coffee_shop",
      "name": "Starbucks",
      "official_name": "Starbucks Coffee",
      "takeaway": "yes"
    }
  },
  {
    "v": "The Coffee Bean & Tea Leaf",
    "lbl": {"en": "The Coffee Bean & Tea Leaf"},
    "tags": {
      "amenity": "cafe",
      "brand": "The Coffee Bean & Tea Leaf",
      "brand:wikidata": "Q1141384",
      "brand:wikipedia": "en:The Coffee Bean & Tea Leaf",
      "cuisine": "coffee_shop",
      "name": "The Coffee Bean & Tea Leaf",
      "takeaway": "yes"
    }
  },
  {
    "v": "The Coffee Club",
    "lbl": {"en": "The Coffee Club"},
    "tags": {
      "amenity": "cafe",
      "brand": "The Coffee Club",
      "brand:wikidata": "Q7726599",
      "brand:wikipedia": "en:The Coffee Club",
      "cuisine": "coffee_shop",
      "name": "The Coffee Club",
      "takeaway": "yes"
    }
  },
  {
    "v": "The Coffee House",
    "lbl": {"en": "The Coffee House~(Vietnam)"},
    "countryCodes": ["vn"],
    "matchNames": ["coffee house"],
    "nomatch": ["amenity/cafe|Coffee House~(Finland)"],
    "tags": {
      "amenity": "cafe",
      "brand": "The Coffee House",
      "brand:wikidata": "Q60775742",
      "brand:wikipedia": "en:The Coffee House (coffeehouse chain)",
      "cuisine": "coffee_shop;vietnamese",
      "name": "The Coffee House",
      "name:en": "The Coffee House",
      "takeaway": "yes"
    }
  },
  {
    "v": "The Human Bean",
    "lbl": {"en": "The Human Bean"},
    "countryCodes": ["us"],
    "matchNames": ["human bean"],
    "tags": {
      "amenity": "cafe",
      "brand": "The Human Bean",
      "brand:wikidata": "Q7740821",
      "brand:wikipedia": "en:The Human Bean",
      "cuisine": "coffee_shop",
      "name": "The Human Bean",
      "takeaway": "yes"
    }
  },
  {
    "v": "Tim Hortons",
    "lbl": {"en": "Tim Hortons"},
    "tags": {
      "amenity": "cafe",
      "brand": "Tim Hortons",
      "brand:wikidata": "Q175106",
      "brand:wikipedia": "en:Tim Hortons",
      "cuisine": "coffee_shop",
      "name": "Tim Hortons",
      "takeaway": "yes"
    }
  },
  {
    "v": "Timothy's",
    "lbl": {"en": "Timothy's"},
    "countryCodes": ["ca"],
    "tags": {
      "amenity": "cafe",
      "brand": "Timothy's",
      "brand:wikidata": "Q7807011",
      "brand:wikipedia": "en:Timothy's World Coffee",
      "cuisine": "coffee_shop",
      "name": "Timothy's",
      "takeaway": "yes"
    }
  },
  {
    "v": "Toast Box",
    "lbl": {"en": "Toast Box"},
    "tags": {
      "amenity": "cafe",
      "brand": "Toast Box",
      "cuisine": "coffee_shop",
      "name": "Toast Box",
      "takeaway": "yes"
    }
  },
  {
    "v": "Tostao’",
    "lbl": {"en": "Tostao’"},
    "countryCodes": ["co"],
    "tags": {
      "amenity": "cafe",
      "brand": "Tostao’",
      "brand:wikidata": "Q60632476",
      "cuisine": "coffee_shop",
      "name": "Tostao’",
      "name:es": "Tostao’",
      "official_name": "TOSTAO’ Café & Pan",
      "takeaway": "yes"
    }
  },
  {
    "v": "Traveler's Coffee",
    "lbl": {"en": "Traveler's Coffee"},
    "countryCodes": ["ru"],
    "tags": {
      "amenity": "cafe",
      "brand": "Traveler's Coffee",
      "brand:wikidata": "Q4051716",
      "brand:wikipedia": "ru:Traveler’s Coffee",
      "cuisine": "coffee_shop",
      "name": "Traveler's Coffee",
      "takeaway": "yes"
    }
  },
  {
    "v": "Trung Nguyên",
    "lbl": {"en": "Trung Nguyên Coffee"},
    "countryCodes": ["vn"],
    "matchNames": ["trung nguyen"],
    "tags": {
      "amenity": "cafe",
      "brand": "Trung Nguyên",
      "brand:wikidata": "Q3541154",
      "brand:wikipedia": "vi:Trung Nguyên (công ty)",
      "cuisine": "coffee_shop;vietnamese",
      "name": "Trung Nguyên Coffee",
      "name:en": "Trung Nguyen Coffee",
      "name:vi": "Cà phê Trung Nguyên",
      "takeaway": "yes"
    }
  },
  {
    "v": "Wayne's Coffee",
    "lbl": {"en": "Wayne's Coffee"},
    "countryCodes": ["fi", "no", "se"],
    "tags": {
      "amenity": "cafe",
      "brand": "Wayne's Coffee",
      "brand:wikidata": "Q2637272",
      "brand:wikipedia": "en:Wayne's Coffee",
      "cuisine": "coffee_shop",
      "name": "Wayne's Coffee",
      "takeaway": "yes"
    }
  },
  {
    "v": "Wild Bean Cafe",
    "lbl": {"en": "Wild Bean Cafe"},
    "tags": {
      "amenity": "cafe",
      "brand": "Wild Bean Cafe",
      "brand:wikidata": "Q61804826",
      "cuisine": "coffee_shop",
      "name": "Wild Bean Cafe",
      "takeaway": "yes"
    }
  },
  {
    "v": "Ya Kun Kaya Toast",
    "lbl": {"en": "Ya Kun Kaya Toast"},
    "tags": {
      "amenity": "cafe",
      "brand": "Ya Kun Kaya Toast",
      "brand:wikidata": "Q8046237",
      "brand:wikipedia": "en:Ya Kun Kaya Toast",
      "cuisine": "coffee_shop",
      "name": "Ya Kun Kaya Toast",
      "takeaway": "yes"
    }
  },
  {
    "v": "Zarraffa's Coffee ",
    "lbl": {"en": "Zarraffa's Coffee"},
    "countryCodes": ["au"],
    "tags": {
      "amenity": "cafe",
      "brand": "Zarraffa's Coffee ",
      "brand:wikidata": "Q8066878",
      "brand:wikipedia": "en:Zarraffa's Coffee",
      "cuisine": "coffee_shop",
      "name": "Zarraffa's Coffee",
      "takeaway": "yes"
    }
  },
  {
    "v": "Їдальня",
    "lbl": {"en": "Їдальня"},
    "tags": {
      "amenity": "cafe",
      "brand": "Їдальня",
      "cuisine": "coffee_shop",
      "name": "Їдальня",
      "takeaway": "yes"
    }
  },
  {
    "v": "Берёзка",
    "lbl": {"en": "Берёзка"},
    "tags": {
      "amenity": "cafe",
      "brand": "Берёзка",
      "cuisine": "coffee_shop",
      "name": "Берёзка",
      "takeaway": "yes"
    }
  },
  {
    "v": "Виктория",
    "lbl": {"en": "Виктория"},
    "tags": {
      "amenity": "cafe",
      "brand": "Виктория",
      "cuisine": "coffee_shop",
      "name": "Виктория",
      "takeaway": "yes"
    }
  },
  {
    "v": "Гурман",
    "lbl": {"en": "Гурман"},
    "tags": {
      "amenity": "cafe",
      "brand": "Гурман",
      "cuisine": "coffee_shop",
      "name": "Гурман",
      "takeaway": "yes"
    }
  },
  {
    "v": "Даблби",
    "lbl": {"en": "Даблби"},
    "countryCodes": ["ru"],
    "tags": {
      "amenity": "cafe",
      "brand": "Даблби",
      "brand:en": "Double B",
      "brand:wikidata": "Q62501686",
      "cuisine": "coffee_shop",
      "name": "Даблби",
      "name:en": "Double B",
      "takeaway": "yes"
    }
  },
  {
    "v": "Лагуна",
    "lbl": {"en": "Лагуна"},
    "countryCodes": ["ru", "ua"],
    "tags": {
      "amenity": "cafe",
      "brand": "Лагуна",
      "cuisine": "coffee_shop",
      "name": "Лагуна",
      "takeaway": "yes"
    }
  },
  {
    "v": "Лакомка",
    "lbl": {"en": "Лакомка"},
    "tags": {
      "amenity": "cafe",
      "brand": "Лакомка",
      "cuisine": "coffee_shop",
      "name": "Лакомка",
      "takeaway": "yes"
    }
  },
  {
    "v": "Оазис",
    "lbl": {"en": "Оазис"},
    "tags": {
      "amenity": "cafe",
      "brand": "Оазис",
      "brand:en": "Oasis",
      "cuisine": "coffee_shop",
      "name": "Оазис",
      "name:en": "Oasis",
      "takeaway": "yes"
    }
  },
  {
    "v": "Парус",
    "lbl": {"en": "Парус"},
    "tags": {
      "amenity": "cafe",
      "brand": "Парус",
      "cuisine": "coffee_shop",
      "name": "Парус",
      "takeaway": "yes"
    }
  },
  {
    "v": "Сказка",
    "lbl": {"en": "Сказка"},
    "tags": {
      "amenity": "cafe",
      "brand": "Сказка",
      "cuisine": "coffee_shop",
      "name": "Сказка",
      "takeaway": "yes"
    }
  },
  {
    "v": "Смак",
    "lbl": {"en": "Смак"},
    "countryCodes": ["kz", "ru", "ua", "uz"],
    "matchTags": ["shop/convenience"],
    "tags": {
      "amenity": "cafe",
      "brand": "Смак",
      "brand:en": "Taste",
      "cuisine": "coffee_shop",
      "name": "Смак",
      "name:en": "Taste",
      "takeaway": "yes"
    }
  },
  {
    "v": "Старбакс",
    "lbl": {"en": "Старбакс"},
    "countryCodes": ["ru"],
    "tags": {
      "amenity": "cafe",
      "brand": "Старбакс",
      "brand:en": "Starbucks",
      "brand:wikidata": "Q37158",
      "brand:wikipedia": "en:Starbucks",
      "cuisine": "coffee_shop",
      "name": "Старбакс",
      "name:en": "Starbucks",
      "takeaway": "yes"
    }
  },
  {
    "v": "Трактир",
    "lbl": {"en": "Трактир"},
    "tags": {
      "amenity": "cafe",
      "brand": "Трактир",
      "cuisine": "coffee_shop",
      "name": "Трактир",
      "takeaway": "yes"
    }
  },
  {
    "v": "Транзит",
    "lbl": {"en": "Транзит"},
    "countryCodes": ["kz", "ru", "ua"],
    "tags": {
      "amenity": "cafe",
      "brand": "Транзит",
      "cuisine": "coffee_shop",
      "name": "Транзит",
      "takeaway": "yes"
    }
  },
  {
    "v": "Уют",
    "lbl": {"en": "Уют"},
    "tags": {
      "amenity": "cafe",
      "brand": "Уют",
      "cuisine": "coffee_shop",
      "name": "Уют",
      "takeaway": "yes"
    }
  },
  {
    "v": "Фортуна",
    "lbl": {"en": "Фортуна"},
    "tags": {
      "amenity": "cafe",
      "brand": "Фортуна",
      "cuisine": "coffee_shop",
      "name": "Фортуна",
      "takeaway": "yes"
    }
  },
  {
    "v": "Хуторок",
    "lbl": {"en": "Хуторок"},
    "tags": {
      "amenity": "cafe",
      "brand": "Хуторок",
      "cuisine": "coffee_shop",
      "name": "Хуторок",
      "takeaway": "yes"
    }
  },
  {
    "v": "Шоколадница",
    "lbl": {"en": "Шоколадница"},
    "countryCodes": ["ru"],
    "matchNames": ["шоколад"],
    "tags": {
      "amenity": "cafe",
      "brand": "Шоколадница",
      "brand:en": "Chocolate",
      "brand:wikidata": "Q30891188",
      "brand:wikipedia": "ru:Шоколадница (сеть кофеен)",
      "cuisine": "coffee_shop",
      "name": "Шоколадница",
      "name:en": "Shokoladnitsa",
      "takeaway": "yes"
    }
  },
  {
    "v": "Штолле",
    "lbl": {"en": "Штолле"},
    "countryCodes": ["by", "ru", "ua"],
    "tags": {
      "amenity": "cafe",
      "brand": "Штолле",
      "brand:en": "Stolle",
      "brand:wikidata": "Q62502236",
      "cuisine": "coffee_shop",
      "name": "Штолле",
      "name:en": "Stolle",
      "takeaway": "yes"
    }
  },
  {
    "v": "ארומה",
    "lbl": {"en": "ארומה"},
    "countryCodes": ["il"],
    "tags": {
      "amenity": "cafe",
      "brand": "ארומה",
      "brand:en": "Aroma Espresso Bar",
      "brand:he": "ארומה",
      "brand:wikidata": "Q2909872",
      "brand:wikipedia": "en:Aroma Espresso Bar",
      "cuisine": "coffee_shop",
      "name": "ארומה",
      "name:en": "Aroma Espresso Bar",
      "name:he": "ארומה",
      "takeaway": "yes"
    }
  },
  {
    "v": "קפה לנדוור",
    "lbl": {"en": "לנדוור"},
    "countryCodes": ["il"],
    "matchNames": ["קפה לדנוור"],
    "matchTags": ["amenity/restaurant"],
    "tags": {
      "amenity": "cafe",
      "brand": "קפה לנדוור",
      "brand:en": "Landwer Coffee",
      "brand:he": "קפה לנדוור",
      "brand:wikidata": "Q6485288",
      "brand:wikipedia": "he:קפה לנדוור",
      "cuisine": "coffee_shop",
      "name": "לנדוור",
      "name:en": "Landwer",
      "name:he": "לנדוור",
      "takeaway": "yes"
    }
  },
  {
    "v": "סי קפה",
    "lbl": {"en": "סי קפה"},
    "countryCodes": ["il"],
    "matchNames": ["si cafe", "si espresso"],
    "tags": {
      "alt_name": "סי אספרסו",
      "alt_name:en": "Si Espresso",
      "alt_name:he": "סי אספרסו",
      "amenity": "cafe",
      "brand": "סי קפה",
      "brand:en": "Si Cafe",
      "brand:he": "סי קפה",
      "brand:wikidata": "Q64606227",
      "cuisine": "coffee_shop",
      "name": "סי קפה",
      "name:en": "Si Cafe",
      "name:he": "סי קפה",
      "takeaway": "yes"
    }
  },
  {
    "v": "קפה ג'ו",
    "lbl": {"en": "קפה ג'ו"},
    "countryCodes": ["il"],
    "matchNames": ["ג'ו קפה"],
    "tags": {
      "alt_name": "קפה Joe",
      "amenity": "cafe",
      "brand": "קפה ג'ו",
      "brand:en": "Cafe Joe",
      "brand:he": "קפה ג'ו",
      "brand:wikidata": "Q6774425",
      "brand:wikipedia": "he:קפה ג'ו",
      "cuisine": "coffee_shop",
      "name": "קפה ג'ו",
      "name:en": "Cafe Joe",
      "name:he": "קפה ג'ו",
      "takeaway": "yes"
    }
  },
  {
    "v": "קפה גרג",
    "lbl": {"en": "קפה גרג"},
    "countryCodes": ["il"],
    "matchTags": ["amenity/restaurant"],
    "tags": {
      "amenity": "cafe",
      "brand": "קפה גרג",
      "brand:en": "Greg Cafe",
      "brand:he": "קפה גרג",
      "brand:wikidata": "Q43295499",
      "brand:wikipedia": "he:קפה גרג",
      "cuisine": "coffee_shop",
      "name": "קפה גרג",
      "name:en": "Greg Cafe",
      "name:he": "קפה גרג",
      "takeaway": "yes"
    }
  },
  {
    "v": "קפה נמרוד",
    "lbl": {"en": "קפה נמרוד"},
    "countryCodes": ["il"],
    "matchTags": ["amenity/restaurant"],
    "tags": {
      "amenity": "cafe",
      "brand": "קפה נמרוד",
      "brand:en": "Cafe Nimrod",
      "brand:he": "קפה נמרוד",
      "brand:wikidata": "Q64606192",
      "cuisine": "coffee_shop",
      "name": "קפה נמרוד",
      "name:en": "Cafe Nimrod",
      "name:he": "קפה נמרוד",
      "takeaway": "yes"
    }
  },
  {
    "v": "קפה קפה",
    "lbl": {"en": "קפה קפה"},
    "countryCodes": ["il"],
    "matchTags": ["amenity/fast_food", "amenity/restaurant"],
    "tags": {
      "amenity": "cafe",
      "brand": "קפה קפה",
      "brand:en": "Cafe Cafe",
      "brand:he": "קפה קפה",
      "brand:wikidata": "Q5017233",
      "brand:wikipedia": "he:קפה קפה",
      "cuisine": "coffee_shop",
      "name": "קפה קפה",
      "name:en": "Cafe Cafe",
      "name:he": "קפה קפה",
      "takeaway": "yes"
    }
  },
  {
    "v": "רולדין",
    "lbl": {"en": "רולדין"},
    "countryCodes": ["il"],
    "matchTags": ["amenity/restaurant", "shop/bakery", "shop/pastry"],
    "tags": {
      "amenity": "cafe",
      "brand": "רולדין",
      "brand:en": "Roladin",
      "brand:he": "רולדין",
      "brand:wikidata": "Q18390972",
      "brand:wikipedia": "he:רולדין",
      "cuisine": "coffee_shop",
      "name": "רולדין",
      "name:en": "Roladin",
      "name:he": "רולדין",
      "takeaway": "yes"
    }
  },
  {
    "v": "คาเฟ่ อเมซอน",
    "lbl": {"en": "คาเฟ่ อเมซอน"},
    "countryCodes": ["th"],
    "tags": {
      "amenity": "cafe",
      "brand": "คาเฟ่ อเมซอน",
      "brand:en": "Café Amazon",
      "brand:th": "คาเฟ่ อเมซอน",
      "brand:wikidata": "Q43247503",
      "brand:wikipedia": "en:Café Amazon",
      "cuisine": "coffee_shop",
      "name": "คาเฟ่ อเมซอน",
      "name:en": "Café Amazon",
      "name:th": "คาเฟ่ อเมซอน",
      "takeaway": "yes"
    }
  },
  {
    "v": "エクセルシオール カフェ",
    "lbl": {"en": "エクセルシオール カフェ"},
    "countryCodes": ["jp"],
    "tags": {
      "amenity": "cafe",
      "brand": "エクセルシオール カフェ",
      "brand:en": "EXCELSIOR CAFFÉ",
      "brand:ja": "エクセルシオール カフェ",
      "brand:wikidata": "Q11289828",
      "brand:wikipedia": "ja:エクセルシオール カフェ",
      "cuisine": "coffee_shop",
      "name": "エクセルシオール カフェ",
      "name:ja": "エクセルシオール カフェ",
      "takeaway": "yes"
    }
  },
  {
    "v": "カフェ・ド・クリエ",
    "lbl": {"en": "カフェ・ド・クリエ"},
    "countryCodes": ["jp"],
    "tags": {
      "amenity": "cafe",
      "brand": "カフェ・ド・クリエ",
      "brand:en": "Cafe de CRIE",
      "brand:ja": "カフェ・ド・クリエ",
      "brand:wikidata": "Q17219077",
      "brand:wikipedia": "ja:ポッカクリエイト",
      "cuisine": "coffee_shop",
      "name": "カフェ・ド・クリエ",
      "name:en": "Cafe de CRIE",
      "name:ja": "カフェ・ド・クリエ",
      "takeaway": "yes"
    }
  },
  {
    "v": "カフェ・ベローチェ",
    "lbl": {"en": "カフェ・ベローチェ"},
    "countryCodes": ["jp"],
    "tags": {
      "amenity": "cafe",
      "brand": "カフェ・ベローチェ",
      "brand:en": "CAFFÈ VELOCE",
      "brand:ja": "カフェ・ベローチェ",
      "brand:wikidata": "Q11294597",
      "brand:wikipedia": "ja:カフェ・ベローチェ",
      "cuisine": "coffee_shop",
      "name": "カフェ・ベローチェ",
      "name:en": "CAFFÈ VELOCE",
      "name:ja": "カフェ・ベローチェ",
      "takeaway": "yes"
    }
  },
  {
    "v": "コメダ珈琲店",
    "lbl": {"en": "コメダ珈琲店"},
    "countryCodes": ["jp"],
    "tags": {
      "amenity": "cafe",
      "brand": "コメダ珈琲店",
      "brand:en": "Komeda Coffee Shop",
      "brand:ja": "コメダ珈琲店",
      "brand:wikidata": "Q11302679",
      "brand:wikipedia": "ja:コメダ",
      "cuisine": "coffee_shop",
      "name": "コメダ珈琲店",
      "name:en": "Komeda Coffee Shop",
      "name:ja": "コメダ珈琲店",
      "takeaway": "yes"
    }
  },
  {
    "v": "サンマルクカフェ",
    "lbl": {"en": "サンマルクカフェ"},
    "countryCodes": ["jp"],
    "tags": {
      "alt_name:en": "Saint Marc Café",
      "amenity": "cafe",
      "brand": "サンマルクカフェ",
      "brand:en": "ST.MARC CAFÉ",
      "brand:ja": "サンマルクカフェ",
      "brand:wikidata": "Q11305989",
      "brand:wikipedia": "ja:サンマルクホールディングス",
      "cuisine": "coffee_shop",
      "name": "サンマルクカフェ",
      "name:en": "ST.MARC CAFÉ",
      "name:ja": "サンマルクカフェ",
      "takeaway": "yes"
    }
  },
  {
    "v": "スターバックス",
    "lbl": {"en": "スターバックス"},
    "countryCodes": ["jp"],
    "tags": {
      "amenity": "cafe",
      "brand": "スターバックス",
      "brand:en": "Starbucks",
      "brand:ja": "スターバックス",
      "brand:wikidata": "Q37158",
      "brand:wikipedia": "ja:スターバックス",
      "cuisine": "coffee_shop",
      "name": "スターバックス",
      "name:en": "Starbucks",
      "name:ja": "スターバックス",
      "official_name": "スターバックスコーヒー",
      "official_name:en": "Starbucks Coffee",
      "official_name:ja": "スターバックスコーヒー",
      "takeaway": "yes"
    }
  },
  {
    "v": "タリーズコーヒー",
    "lbl": {"en": "タリーズコーヒー"},
    "countryCodes": ["jp"],
    "tags": {
      "amenity": "cafe",
      "brand": "タリーズコーヒー",
      "brand:en": "Tully's Coffee",
      "brand:ja": "タリーズコーヒー",
      "brand:wikidata": "Q3541983",
      "brand:wikipedia": "en:Tully's Coffee",
      "cuisine": "coffee_shop",
      "name": "タリーズコーヒー",
      "name:en": "Tully's Coffee",
      "name:ja": "タリーズコーヒー",
      "takeaway": "yes"
    }
  },
  {
    "v": "ドトールコーヒーショップ",
    "lbl": {"en": "ドトールコーヒーショップ"},
    "countryCodes": ["jp"],
    "matchNames": ["ドトールコーヒー"],
    "tags": {
      "amenity": "cafe",
      "brand": "ドトールコーヒーショップ",
      "brand:en": "Doutor",
      "brand:ja": "ドトールコーヒーショップ",
      "brand:wikidata": "Q11322732",
      "brand:wikipedia": "ja:ドトールコーヒーショップ",
      "cuisine": "coffee_shop",
      "name": "ドトールコーヒーショップ",
      "name:en": "Doutor Coffee Shop",
      "name:ja": "ドトールコーヒーショップ",
      "takeaway": "yes"
    }
  },
  {
    "v": "快可立",
    "lbl": {"en": "快可立"},
    "countryCodes": ["tw"],
    "tags": {
      "amenity": "cafe",
      "brand": "快可立",
      "brand:en": "Quickly",
      "brand:wikidata": "Q3771463",
      "brand:wikipedia": "zh:快可立",
      "brand:zh": "快可立",
      "cuisine": "bubble_tea",
      "name": "快可立",
      "name:en": "Quickly",
      "name:zh": "快可立",
      "takeaway": "yes"
    }
  },
  {
    "v": "日出茶太",
    "lbl": {"en": "日出茶太"},
    "countryCodes": ["tw"],
    "tags": {
      "amenity": "cafe",
      "brand": "日出茶太",
      "brand:en": "Chatime",
      "brand:wikidata": "Q16829306",
      "brand:wikipedia": "zh:日出茶太",
      "brand:zh": "日出茶太",
      "cuisine": "bubble_tea",
      "name": "日出茶太",
      "name:en": "Chatime",
      "name:zh": "日出茶太",
      "takeaway": "yes"
    }
  },
  {
    "v": "星巴克",
    "lbl": {"en": "星巴克"},
    "countryCodes": ["cn", "tw"],
    "tags": {
      "amenity": "cafe",
      "brand": "星巴克",
      "brand:en": "Starbucks",
      "brand:wikidata": "Q37158",
      "brand:wikipedia": "zh:星巴克",
      "brand:zh": "星巴克",
      "cuisine": "coffee_shop",
      "name": "星巴克",
      "name:en": "Starbucks",
      "name:zh": "星巴克",
      "takeaway": "yes"
    }
  },
  {
    "v": "珈琲館",
    "lbl": {"en": "珈琲館"},
    "countryCodes": ["jp"],
    "tags": {
      "amenity": "cafe",
      "brand": "珈琲館",
      "brand:en": "Kohikan",
      "brand:ja": "珈琲館",
      "brand:wikidata": "Q11573290",
      "brand:wikipedia": "ja:珈琲館",
      "cuisine": "coffee_shop",
      "name": "珈琲館",
      "name:en": "Kohikan",
      "name:ja": "珈琲館",
      "takeaway": "yes"
    }
  },
  {
    "v": "貢茶 Gong Cha",
    "lbl": {"en": "貢茶 Gong Cha"},
    "countryCodes": ["hk"],
    "tags": {
      "amenity": "cafe",
      "brand": "貢茶 Gong Cha",
      "brand:en": "Gong Cha",
      "brand:wikidata": "Q5581670",
      "brand:wikipedia": "zh:貢茶 (連鎖店)",
      "brand:zh": "貢茶",
      "cuisine": "bubble_tea",
      "name": "貢茶 Gong Cha",
      "name:en": "Gong Cha",
      "name:zh": "貢茶",
      "takeaway": "yes"
    }
  },
  {
    "v": "貢茶",
    "lbl": {"en": "貢茶~(Japan)"},
    "countryCodes": ["ja"],
    "tags": {
      "amenity": "cafe",
      "brand": "貢茶",
      "brand:ja": "貢茶",
      "brand:wikidata": "Q5581670",
      "brand:wikipedia": "ja:貢茶",
      "brand:zh": "貢茶",
      "cuisine": "bubble_tea",
      "int_name": "Gong Cha",
      "name": "貢茶",
      "name:ja": "貢茶",
      "name:zh": "貢茶",
      "takeaway": "yes"
    }
  },
  {
    "v": "貢茶",
    "lbl": {"en": "貢茶~(Taiwan)"},
    "countryCodes": ["tw"],
    "tags": {
      "amenity": "cafe",
      "brand": "貢茶",
      "brand:wikidata": "Q5581670",
      "brand:wikipedia": "zh:貢茶 (連鎖店)",
      "cuisine": "bubble_tea",
      "int_name": "Gong Cha",
      "name": "貢茶",
      "name:zh": "貢茶",
      "takeaway": "yes"
    }
  },
  {
    "v": "贡茶",
    "lbl": {"en": "贡茶~(China)"},
    "countryCodes": ["cn"],
    "tags": {
      "amenity": "cafe",
      "brand": "贡茶",
      "brand:wikidata": "Q5581670",
      "brand:wikipedia": "zh:贡茶 (连锁店)",
      "brand:zh-Hans": "贡茶",
      "brand:zh-Hant": "貢茶",
      "cuisine": "bubble_tea",
      "int_name": "Gong Cha",
      "name": "贡茶",
      "name:zh-Hans": "贡茶",
      "name:zh-Hant": "貢茶",
      "takeaway": "yes"
    }
  },
  {
    "v": "공차",
    "lbl": {"en": "공차"},
    "countryCodes": ["kr"],
    "tags": {
      "amenity": "cafe",
      "brand": "공차",
      "brand:ko": "공차",
      "brand:wikidata": "Q5581670",
      "brand:wikipedia": "ko:공차",
      "brand:zh": "貢茶",
      "cuisine": "bubble_tea",
      "int_name": "Gong Cha",
      "name": "공차",
      "name:ko": "공차",
      "name:zh": "貢茶",
      "takeaway": "yes"
    }
  },
  {
    "v": "스타벅스",
    "lbl": {"en": "스타벅스"},
    "countryCodes": ["kr"],
    "tags": {
      "amenity": "cafe",
      "brand": "스타벅스",
      "brand:en": "Starbucks",
      "brand:ko": "스타벅스",
      "brand:wikidata": "Q37158",
      "brand:wikipedia": "ko:스타벅스",
      "cuisine": "coffee_shop",
      "name": "스타벅스",
      "name:en": "Starbucks",
      "name:ko": "스타벅스",
      "takeaway": "yes"
    }
  }
]