[
  {
    "v": "Alamo",
    "lbl": {"en": "Alamo"},
    "tags": {
      "amenity": "car_rental",
      "brand": "Alamo",
      "brand:wikidata": "Q1429287",
      "brand:wikipedia": "en:Alamo Rent a Car",
      "name": "Alamo"
    }
  },
  {
    "v": "Avis",
    "lbl": {"en": "Avis"},
    "matchNames": ["avis car rental"],
    "tags": {
      "amenity": "car_rental",
      "brand": "Avis",
      "brand:wikidata": "Q791136",
      "brand:wikipedia": "en:Avis Car Rental",
      "name": "Avis"
    }
  },
  {
    "v": "Budget",
    "lbl": {"en": "Budget"},
    "matchNames": ["budget car rental"],
    "tags": {
      "amenity": "car_rental",
      "brand": "Budget",
      "brand:wikidata": "Q1001437",
      "brand:wikipedia": "en:Budget Rent a Car",
      "name": "Budget",
      "official_name": "Budget Rent a Car"
    }
  },
  {
    "v": "Dollar",
    "lbl": {"en": "Dollar"},
    "countryCodes": ["us"],
    "nomatch": [
      "amenity/bank|Dollar Bank",
      "shop/variety_store|Dollar General",
      "shop/variety_store|Dollar Tree",
      "shop/variety_store|Dollarama",
      "shop/variety_store|Family Dollar"
    ],
    "tags": {
      "amenity": "car_rental",
      "brand": "Dollar",
      "brand:wikidata": "Q1235661",
      "brand:wikipedia": "en:Dollar Rent A Car",
      "name": "Dollar",
      "official_name": "Dollar Rent A Car"
    }
  },
  {
    "v": "Enterprise",
    "lbl": {"en": "Enterprise"},
    "matchNames": ["enterprise car rental"],
    "tags": {
      "amenity": "car_rental",
      "brand": "Enterprise",
      "brand:wikidata": "Q17085454",
      "brand:wikipedia": "en:Enterprise Rent-A-Car",
      "name": "Enterprise",
      "official_name": "Enterprise Rent-A-Car"
    }
  },
  {
    "v": "Europcar",
    "lbl": {"en": "Europcar"},
    "tags": {
      "amenity": "car_rental",
      "brand": "Europcar",
      "brand:wikidata": "Q1376256",
      "brand:wikipedia": "en:Europcar",
      "name": "Europcar"
    }
  },
  {
    "v": "Hertz",
    "lbl": {"en": "Hertz"},
    "matchNames": ["hertz car rental"],
    "tags": {
      "amenity": "car_rental",
      "brand": "Hertz",
      "brand:wikidata": "Q1543874",
      "brand:wikipedia": "en:The Hertz Corporation",
      "name": "Hertz"
    }
  },
  {
    "v": "Localiza",
    "lbl": {"en": "Localiza"},
    "tags": {
      "amenity": "car_rental",
      "brand": "Localiza",
      "brand:wikidata": "Q10319490",
      "brand:wikipedia": "en:Localiza",
      "name": "Localiza"
    }
  },
  {
    "v": "National",
    "lbl": {"en": "National"},
    "countryCodes": ["ca", "gb", "us"],
    "nomatch": ["amenity/bank|National Bank"],
    "tags": {
      "amenity": "car_rental",
      "brand": "National",
      "brand:wikidata": "Q1424142",
      "brand:wikipedia": "en:National Car Rental",
      "name": "National",
      "official_name": "National Car Rental"
    }
  },
  {
    "v": "Sixt",
    "lbl": {"en": "Sixt"},
    "tags": {
      "amenity": "car_rental",
      "brand": "Sixt",
      "brand:wikidata": "Q705664",
      "brand:wikipedia": "en:Sixt",
      "name": "Sixt"
    }
  },
  {
    "v": "Thrifty",
    "lbl": {"en": "Thrifty"},
    "matchNames": ["thrifty car rental"],
    "tags": {
      "amenity": "car_rental",
      "brand": "Thrifty",
      "brand:wikidata": "Q2429546",
      "brand:wikipedia": "en:Thrifty Car Rental",
      "name": "Thrifty"
    }
  },
  {
    "v": "オリックスレンタカー",
    "lbl": {"en": "オリックスレンタカー"},
    "countryCodes": ["jp"],
    "tags": {
      "amenity": "car_rental",
      "brand": "オリックスレンタカー",
      "brand:en": "ORIX Car Rental",
      "brand:ja": "オリックスレンタカー",
      "brand:wikidata": "Q11123021",
      "brand:wikipedia": "ja:オリックスレンタカー",
      "name": "オリックスレンタカー",
      "name:en": "ORIX Car Rental",
      "name:ja": "オリックスレンタカー"
    }
  },
  {
    "v": "トヨタレンタカー",
    "lbl": {"en": "トヨタレンタカー"},
    "countryCodes": ["jp"],
    "matchNames": ["トヨタレンタリース"],
    "tags": {
      "amenity": "car_rental",
      "brand": "トヨタレンタカー",
      "brand:en": "Toyota Rental Car",
      "brand:ja": "トヨタレンタカー",
      "brand:wikidata": "Q11321580",
      "brand:wikipedia": "ja:トヨタレンタリース",
      "name": "トヨタレンタカー",
      "name:en": "Toyota Rental Car",
      "name:ja": "トヨタレンタカー"
    }
  },
  {
    "v": "ニッポンレンタカー",
    "lbl": {"en": "ニッポンレンタカー"},
    "countryCodes": ["jp"],
    "tags": {
      "amenity": "car_rental",
      "brand": "ニッポンレンタカー",
      "brand:en": "Nippon Car Rental",
      "brand:ja": "ニッポンレンタカー",
      "brand:wikidata": "Q11086533",
      "brand:wikipedia": "ja:ニッポンレンタカー",
      "name": "ニッポンレンタカー",
      "name:en": "Nippon Car Rental",
      "name:ja": "ニッポンレンタカー"
    }
  },
  {
    "v": "日産レンタカー",
    "lbl": {"en": "日産レンタカー"},
    "countryCodes": ["jp"],
    "tags": {
      "amenity": "car_rental",
      "brand": "日産レンタカー",
      "brand:en": "Nissan Car Rental",
      "brand:ja": "日産レンタカー",
      "brand:wikidata": "Q11086838",
      "brand:wikipedia": "ja:日産レンタカー",
      "name": "日産レンタカー",
      "name:en": "Nissan Car Rental",
      "name:ja": "日産レンタカー"
    }
  }
]