[
  {
    "v": "Blink",
    "lbl": {"en": "Blink"},
    "countryCodes": ["us"],
    "tags": {
      "amenity": "charging_station",
      "brand": "Blink",
      "brand:wikidata": "Q62065645",
      "name": "Blink"
    }
  },
  {
    "v": "ChargePoint",
    "lbl": {"en": "ChargePoint"},
    "tags": {
      "amenity": "charging_station",
      "brand": "ChargePoint",
      "brand:wikidata": "Q5176149",
      "brand:wikipedia": "en:ChargePoint",
      "name": "ChargePoint"
    }
  },
  {
    "v": "Chargy",
    "lbl": {"en": "Chargy"},
    "countryCodes": ["lu"],
    "tags": {
      "amenity": "charging_station",
      "brand": "Chargy",
      "brand:wikidata": "Q62702950",
      "brand:wikipedia": "lb:Chargy",
      "name": "Chargy"
    }
  },
  {
    "v": "Circuit électrique",
    "lbl": {"en": "Circuit électrique"},
    "countryCodes": ["ca"],
    "tags": {
      "amenity": "charging_station",
      "brand": "Circuit électrique",
      "brand:en": "Electric Circuit",
      "brand:fr": "Circuit électrique",
      "brand:wikidata": "Q24934590",
      "brand:wikipedia": "fr:Le Circuit électrique",
      "name": "Circuit électrique",
      "name:en": "Electric Circuit",
      "name:fr": "Circuit électrique"
    }
  },
  {
    "v": "E-WALD",
    "lbl": {"en": "E-WALD"},
    "countryCodes": ["de"],
    "matchNames": ["e-wald ladestation"],
    "tags": {
      "amenity": "charging_station",
      "brand": "E-WALD",
      "brand:wikidata": "Q61804335",
      "name": "E-WALD"
    }
  },
  {
    "v": "Enel",
    "lbl": {"en": "Enel"},
    "countryCodes": ["it"],
    "matchNames": ["enel - stazione di ricarica"],
    "tags": {
      "amenity": "charging_station",
      "brand": "Enel",
      "brand:wikidata": "Q651222",
      "brand:wikipedia": "en:Enel",
      "name": "Enel"
    }
  },
  {
    "v": "Enel X",
    "lbl": {"en": "Enel X"},
    "tags": {"amenity": "charging_station", "brand": "Enel X", "name": "Enel X"}
  },
  {
    "v": "Enel x Metbus",
    "lbl": {"en": "Enel x Metbus"},
    "tags": {
      "amenity": "charging_station",
      "brand": "Enel x Metbus",
      "name": "Enel x Metbus"
    }
  },
  {
    "v": "FLO",
    "lbl": {"en": "FLO"},
    "countryCodes": ["ca", "us"],
    "nomatch": ["shop/shoes|FLO"],
    "tags": {
      "amenity": "charging_station",
      "brand": "FLO",
      "brand:wikidata": "Q64971203",
      "name": "FLO"
    }
  },
  {
    "v": "InCharge",
    "lbl": {"en": "InCharge"},
    "matchNames": ["Vattenfall"],
    "tags": {
      "amenity": "charging_station",
      "brand": "InCharge",
      "brand:wikidata": "Q71041027",
      "name": "InCharge"
    }
  },
  {
    "v": "Innogy",
    "lbl": {"en": "Innogy"},
    "matchNames": ["RWE"],
    "tags": {
      "amenity": "charging_station",
      "brand": "Innogy",
      "brand:wikidata": "Q2124721",
      "brand:wikipedia": "de:Innogy",
      "name": "Innogy"
    }
  },
  {
    "v": "Source London",
    "lbl": {"en": "Source London"},
    "countryCodes": ["gb"],
    "tags": {
      "amenity": "charging_station",
      "brand": "Source London",
      "brand:wikidata": "Q7565133",
      "brand:wikipedia": "en:Source London",
      "name": "Source London"
    }
  },
  {
    "v": "Tesla Supercharger",
    "lbl": {"en": "Tesla Supercharger"},
    "tags": {
      "amenity": "charging_station",
      "brand": "Tesla Supercharger",
      "brand:wikidata": "Q17089620",
      "brand:wikipedia": "en:Tesla Supercharger",
      "name": "Tesla Supercharger"
    }
  },
  {
    "v": "bike-energy",
    "lbl": {"en": "bike-energy"},
    "countryCodes": ["at", "ch", "de", "fr", "it", "lu"],
    "matchNames": ["bike-energy ladestation"],
    "tags": {
      "amenity": "charging_station",
      "brand": "bike-energy",
      "brand:wikidata": "Q67770877",
      "name": "bike-energy"
    }
  },
  {
    "v": "eVgo",
    "lbl": {"en": "eVgo"},
    "countryCodes": ["us"],
    "tags": {
      "amenity": "charging_station",
      "brand": "eVgo",
      "brand:wikidata": "Q61803820",
      "name": "eVgo"
    }
  }
]