[
  {
    "v": "109シネマズ",
    "lbl": {"en": "109シネマズ"},
    "countryCodes": ["jp"],
    "tags": {
      "amenity": "cinema",
      "brand": "109シネマズ",
      "brand:en": "109 Cinemas",
      "brand:ja": "109シネマズ",
      "brand:wikidata": "Q10854269",
      "brand:wikipedia": "ja:109シネマズ",
      "name": "109シネマズ",
      "name:en": "109 Cinemas",
      "name:ja": "109シネマズ"
    }
  },
  {
    "v": "AMC",
    "lbl": {"en": "AMC"},
    "countryCodes": ["us"],
    "matchNames": [
      "amc cinema",
      "amc cinemas",
      "amc theater",
      "amc theaters",
      "amc theatre",
      "amc theatres"
    ],
    "tags": {
      "amenity": "cinema",
      "brand": "AMC",
      "brand:wikidata": "Q294721",
      "brand:wikipedia": "en:AMC Theatres",
      "name": "AMC"
    }
  },
  {
    "v": "B&B Theatres",
    "lbl": {"en": "B&B Theatres"},
    "countryCodes": ["us"],
    "matchNames": ["b&b theaters"],
    "tags": {
      "amenity": "cinema",
      "brand": "B&B Theatres",
      "brand:wikidata": "Q4833576",
      "brand:wikipedia": "en:B&B Theatres",
      "name": "B&B Theatres",
      "short_name": "B&B"
    }
  },
  {
    "v": "Caribbean Cinemas",
    "lbl": {"en": "Caribbean Cinemas"},
    "countryCodes": [
      "ag",
      "do",
      "fr",
      "gy",
      "kn",
      "lc",
      "nl",
      "pa",
      "tt",
      "us"
    ],
    "tags": {
      "amenity": "cinema",
      "brand": "Caribbean Cinemas",
      "brand:wikidata": "Q5039364",
      "brand:wikipedia": "en:Caribbean Cinemas",
      "name": "Caribbean Cinemas"
    }
  },
  {
    "v": "Century Theatres",
    "lbl": {"en": "Century Theatres"},
    "countryCodes": ["us"],
    "matchNames": ["century theater", "century theaters", "century theatre"],
    "tags": {
      "amenity": "cinema",
      "brand": "Century Theatres",
      "brand:wikidata": "Q2946307",
      "brand:wikipedia": "en:Century Theatres",
      "name": "Century Theatres",
      "short_name": "Century"
    }
  },
  {
    "v": "CineStar",
    "lbl": {"en": "CineStar"},
    "countryCodes": ["de"],
    "tags": {
      "amenity": "cinema",
      "brand": "CineStar",
      "brand:wikidata": "Q321889",
      "brand:wikipedia": "de:Cinestar",
      "name": "CineStar"
    }
  },
  {
    "v": "Cinema City",
    "lbl": {"en": "Cinema City"},
    "countryCodes": ["cz", "hu", "pl", "ro"],
    "tags": {
      "amenity": "cinema",
      "brand": "Cinema City",
      "brand:wikidata": "Q543651",
      "brand:wikipedia": "en:Cinema City International",
      "name": "Cinema City"
    }
  },
  {
    "v": "Cinemas NOS",
    "lbl": {"en": "Cinema NOS"},
    "countryCodes": ["pt"],
    "tags": {
      "amenity": "cinema",
      "brand": "Cinemas NOS",
      "brand:wikidata": "Q8063259",
      "brand:wikipedia": "en:NOS Audiovisuais",
      "name": "Cinema NOS"
    }
  },
  {
    "v": "Cinemark",
    "lbl": {"en": "Cinemark"},
    "tags": {
      "amenity": "cinema",
      "brand": "Cinemark",
      "brand:wikidata": "Q707530",
      "brand:wikipedia": "en:Cinemark Theatres",
      "name": "Cinemark"
    }
  },
  {
    "v": "Cinemaxx",
    "lbl": {"en": "Cinemaxx~(Europe)"},
    "countryCodes": ["de", "dk"],
    "nomatch": ["amenity/cinema|Cinemaxx~(Indonesia)"],
    "tags": {
      "amenity": "cinema",
      "brand": "Cinemaxx",
      "brand:wikidata": "Q881860",
      "brand:wikipedia": "de:Cinemaxx",
      "name": "Cinemaxx"
    }
  },
  {
    "v": "Cinemaxx",
    "lbl": {"en": "Cinemaxx~(Indonesia)"},
    "countryCodes": ["id"],
    "nomatch": ["amenity/cinema|Cinemaxx~(Europe)"],
    "tags": {
      "amenity": "cinema",
      "brand": "Cinemaxx",
      "brand:wikidata": "Q19942740",
      "brand:wikipedia": "id:Cinemaxx",
      "name": "Cinemaxx"
    }
  },
  {
    "v": "Cinemex",
    "lbl": {"en": "Cinemex"},
    "countryCodes": ["mx"],
    "tags": {
      "amenity": "cinema",
      "brand": "Cinemex",
      "brand:wikidata": "Q3333072",
      "brand:wikipedia": "en:Cinemex",
      "name": "Cinemex"
    }
  },
  {
    "v": "Cineplanet",
    "lbl": {"en": "Cineplanet"},
    "countryCodes": ["cl", "pe"],
    "tags": {
      "amenity": "cinema",
      "brand": "Cineplanet",
      "brand:wikidata": "Q5769680",
      "brand:wikipedia": "es:Cineplanet",
      "name": "Cineplanet"
    }
  },
  {
    "v": "Cineplex",
    "lbl": {"en": "Cineplex"},
    "countryCodes": ["ca"],
    "matchNames": [
      "cineplex cinema",
      "cineplex cinemas",
      "cineplex entertainment",
      "cineplex odeon",
      "cineplex theatre",
      "cineplex theatres"
    ],
    "tags": {
      "amenity": "cinema",
      "brand": "Cineplex",
      "brand:wikidata": "Q2972807",
      "brand:wikipedia": "en:Cineplex Entertainment",
      "name": "Cineplex"
    }
  },
  {
    "v": "Cineplexx",
    "lbl": {"en": "Cineplexx"},
    "countryCodes": ["at", "si"],
    "tags": {
      "amenity": "cinema",
      "brand": "Cineplexx",
      "brand:wikidata": "Q873340",
      "brand:wikipedia": "en:Cineplexx Cinemas",
      "name": "Cineplexx"
    }
  },
  {
    "v": "Cinepolis",
    "lbl": {"en": "Cinepolis"},
    "tags": {
      "amenity": "cinema",
      "brand": "Cinepolis",
      "brand:wikidata": "Q5686673",
      "brand:wikipedia": "en:Cinépolis",
      "name": "Cinepolis"
    }
  },
  {
    "v": "Cineworld",
    "lbl": {"en": "Cineworld"},
    "countryCodes": ["gb"],
    "tags": {
      "amenity": "cinema",
      "brand": "Cineworld",
      "brand:wikidata": "Q5120901",
      "brand:wikipedia": "en:Cineworld",
      "name": "Cineworld"
    }
  },
  {
    "v": "Event",
    "lbl": {"en": "Event"},
    "countryCodes": ["au", "nz"],
    "matchNames": ["event cinema"],
    "tags": {
      "amenity": "cinema",
      "brand": "Event",
      "brand:wikidata": "Q5416698",
      "brand:wikipedia": "en:Event Cinemas",
      "name": "Event",
      "official_name": "Event Cinemas"
    }
  },
  {
    "v": "Harkins Theatres",
    "lbl": {"en": "Harkins Theatres"},
    "countryCodes": ["us"],
    "matchNames": ["harkins theater", "harkins theaters", "harkins theatre"],
    "tags": {
      "amenity": "cinema",
      "brand": "Harkins Theatres",
      "brand:wikidata": "Q5658199",
      "brand:wikipedia": "en:Harkins Theatres",
      "name": "Harkins Theatres",
      "short_name": "Harkins"
    }
  },
  {
    "v": "Hoyts",
    "lbl": {"en": "Hoyts"},
    "countryCodes": ["au", "nz"],
    "tags": {
      "amenity": "cinema",
      "brand": "Hoyts",
      "brand:wikidata": "Q5922976",
      "brand:wikipedia": "en:Hoyts",
      "name": "Hoyts"
    }
  },
  {
    "v": "Landmark Theatres",
    "lbl": {"en": "Landmark Theatres"},
    "countryCodes": ["us"],
    "matchNames": ["landmark theater", "landmark theaters", "landmark theatre"],
    "tags": {
      "amenity": "cinema",
      "brand": "Landmark Theatres",
      "brand:wikidata": "Q6484805",
      "brand:wikipedia": "en:Landmark Theatres",
      "name": "Landmark Theatres",
      "short_name": "Landmark"
    }
  },
  {
    "v": "MOVIX",
    "lbl": {"en": "MOVIX"},
    "countryCodes": ["jp"],
    "tags": {
      "amenity": "cinema",
      "brand": "MOVIX",
      "brand:wikidata": "Q11532184",
      "brand:wikipedia": "ja:松竹マルチプレックスシアターズ",
      "name": "MOVIX",
      "official_name": "松竹マルチプレックスシアターズ",
      "official_name:en": "Shochiku Multiplex Theatres"
    }
  },
  {
    "v": "Marcus Cinema",
    "lbl": {"en": "Marcus Cinema"},
    "countryCodes": ["us"],
    "matchNames": [
      "marcus cinemas",
      "marcus theater",
      "marcus theaters",
      "marcus theatre",
      "marcus theatres"
    ],
    "tags": {
      "amenity": "cinema",
      "brand": "Marcus Cinema",
      "brand:wikidata": "Q64083352",
      "name": "Marcus Cinema",
      "short_name": "Marcus"
    }
  },
  {
    "v": "Movie Tavern",
    "lbl": {"en": "Movie Tavern"},
    "countryCodes": ["us"],
    "tags": {
      "amenity": "cinema",
      "brand": "Movie Tavern",
      "brand:wikidata": "Q64083534",
      "name": "Movie Tavern"
    }
  },
  {
    "v": "Multikino",
    "lbl": {"en": "Multikino"},
    "countryCodes": ["lt", "lv", "pl"],
    "tags": {
      "amenity": "cinema",
      "brand": "Multikino",
      "brand:wikidata": "Q1144802",
      "brand:wikipedia": "pl:Multikino",
      "name": "Multikino"
    }
  },
  {
    "v": "Odeon",
    "lbl": {"en": "Odeon"},
    "countryCodes": ["gb", "gr", "ie", "it"],
    "matchNames": ["odeon cinema"],
    "tags": {
      "amenity": "cinema",
      "brand": "Odeon",
      "brand:wikidata": "Q6127470",
      "brand:wikipedia": "en:Odeon Cinemas",
      "name": "Odeon"
    }
  },
  {
    "v": "Pathé Gaumont",
    "lbl": {"en": "Pathé Gaumont"},
    "countryCodes": ["be", "ch", "fr", "nl"],
    "tags": {
      "amenity": "cinema",
      "brand": "Pathé Gaumont",
      "brand:wikidata": "Q3060526",
      "brand:wikipedia": "fr:Les cinémas Gaumont Pathé",
      "name": "Pathé Gaumont"
    }
  },
  {
    "v": "Regal Cinemas",
    "lbl": {"en": "Regal Cinemas"},
    "countryCodes": ["us"],
    "matchNames": ["regal cinema"],
    "tags": {
      "amenity": "cinema",
      "brand": "Regal Cinemas",
      "brand:wikidata": "Q835638",
      "brand:wikipedia": "en:Regal Cinemas",
      "name": "Regal Cinemas",
      "short_name": "Regal"
    }
  },
  {
    "v": "Showcase Cinemas",
    "lbl": {"en": "Showcase Cinemas"},
    "countryCodes": ["ar", "gb", "us"],
    "matchNames": ["showcase cinema"],
    "tags": {
      "amenity": "cinema",
      "brand": "Showcase Cinemas",
      "brand:wikidata": "Q7503170",
      "brand:wikipedia": "en:Showcase Cinemas",
      "name": "Showcase Cinemas",
      "short_name": "Showcase"
    }
  },
  {
    "v": "TOHOシネマズ",
    "lbl": {"en": "TOHOシネマズ"},
    "countryCodes": ["jp"],
    "tags": {
      "amenity": "cinema",
      "brand": "TOHOシネマズ",
      "brand:en": "TOHO CINEMAS",
      "brand:ja": "TOHOシネマズ",
      "brand:wikidata": "Q11235261",
      "brand:wikipedia": "ja:TOHOシネマズ",
      "name": "TOHOシネマズ",
      "name:en": "Toho Cinemas",
      "name:ja": "TOHOシネマズ",
      "short_name": "TOHO"
    }
  },
  {
    "v": "The Space Cinema",
    "lbl": {"en": "The Space Cinema"},
    "countryCodes": ["it"],
    "matchNames": ["the space"],
    "tags": {
      "amenity": "cinema",
      "brand": "The Space Cinema",
      "brand:wikidata": "Q3989406",
      "brand:wikipedia": "it:The Space Cinema",
      "name": "The Space Cinema"
    }
  },
  {
    "v": "UGC",
    "lbl": {"en": "UGC"},
    "countryCodes": ["fr"],
    "tags": {
      "amenity": "cinema",
      "brand": "UGC",
      "brand:wikidata": "Q1643241",
      "brand:wikipedia": "fr:Union générale cinématographique",
      "name": "UGC"
    }
  },
  {
    "v": "Vue",
    "lbl": {"en": "Vue~(IrelandAndUK)"},
    "countryCodes": ["gb", "ie"],
    "matchNames": ["vue cinema", "vue cinemas"],
    "nomatch": ["amenity/cinema|Vue~(Netherlands)"],
    "tags": {
      "amenity": "cinema",
      "brand": "Vue",
      "brand:wikidata": "Q2535134",
      "brand:wikipedia": "en:Vue Cinemas",
      "name": "Vue"
    }
  },
  {
    "v": "Vue",
    "lbl": {"en": "Vue~(Netherlands)"},
    "countryCodes": ["nl"],
    "matchNames": ["vue cinema"],
    "nomatch": ["amenity/cinema|Vue~(IrelandAndUK)"],
    "tags": {
      "amenity": "cinema",
      "brand": "Vue",
      "brand:wikidata": "Q2421690",
      "brand:wikipedia": "nl:Vue (bioscoopketen)",
      "name": "Vue"
    }
  },
  {
    "v": "イオンシネマ",
    "lbl": {"en": "イオンシネマ"},
    "countryCodes": ["jp"],
    "tags": {
      "amenity": "cinema",
      "brand": "イオンシネマ",
      "brand:en": "AEON Cinema",
      "brand:ja": "イオンシネマ",
      "brand:wikidata": "Q17192792",
      "brand:wikipedia": "ja:イオンエンターテイメント",
      "name": "イオンシネマ",
      "name:en": "AEON Cinema",
      "name:ja": "イオンシネマ"
    }
  },
  {
    "v": "ユナイテッド・シネマ",
    "lbl": {"en": "ユナイテッド・シネマ"},
    "countryCodes": ["jp"],
    "tags": {
      "amenity": "cinema",
      "brand": "ユナイテッド・シネマ",
      "brand:en": "United Cinemas",
      "brand:ja": "ユナイテッド・シネマ",
      "brand:wikidata": "Q11345629",
      "brand:wikipedia": "ja:ユナイテッド・シネマ",
      "name": "ユナイテッド・シネマ",
      "name:en": "United Cinemas",
      "name:ja": "ユナイテッド・シネマ"
    }
  }
]