[
  {
    "v": "Aspen Dental",
    "lbl": {"en": "Aspen Dental"},
    "countryCodes": ["us"],
    "matchTags": ["healthcare/dentist"],
    "tags": {
      "amenity": "dentist",
      "brand": "Aspen Dental",
      "brand:wikidata": "Q4807808",
      "brand:wikipedia": "en:Aspen Dental",
      "healthcare": "dentist",
      "name": "Aspen Dental"
    }
  },
  {
    "v": "Comfort Dental",
    "lbl": {"en": "Comfort Dental"},
    "countryCodes": ["us"],
    "matchTags": ["healthcare/dentist"],
    "tags": {
      "amenity": "dentist",
      "brand": "Comfort Dental",
      "brand:wikidata": "Q22079521",
      "brand:wikipedia": "en:Comfort Dental",
      "healthcare": "dentist",
      "name": "Comfort Dental"
    }
  },
  {
    "v": "Dentix",
    "lbl": {"en": "Dentix"},
    "tags": {
      "amenity": "dentist",
      "brand": "Dentix",
      "brand:wikidata": "Q30505320",
      "brand:wikipedia": "es:Dentix",
      "name": "Dentix"
    }
  },
  {
    "v": "Folktandvården",
    "lbl": {"en": "Folktandvården"},
    "countryCodes": ["se"],
    "tags": {
      "amenity": "dentist",
      "brand": "Folktandvården",
      "brand:wikidata": "Q10497476",
      "brand:wikipedia": "sv:Folktandvården",
      "name": "Folktandvården"
    }
  },
  {
    "v": "Gentle Dental",
    "lbl": {"en": "Gentle Dental"},
    "countryCodes": ["us"],
    "tags": {
      "amenity": "dentist",
      "brand": "Gentle Dental",
      "name": "Gentle Dental"
    }
  },
  {
    "v": "Kool Smiles",
    "lbl": {"en": "Kool Smiles"},
    "countryCodes": ["us"],
    "matchTags": ["healthcare/dentist"],
    "tags": {
      "amenity": "dentist",
      "brand": "Kool Smiles",
      "brand:wikidata": "Q6430587",
      "brand:wikipedia": "en:Kool Smiles",
      "healthcare": "dentist",
      "name": "Kool Smiles"
    }
  },
  {
    "v": "Vitaldent",
    "lbl": {"en": "Vitaldent"},
    "countryCodes": ["es", "it"],
    "tags": {
      "amenity": "dentist",
      "brand": "Vitaldent",
      "brand:wikidata": "Q5860599",
      "brand:wikipedia": "es:Vitaldent",
      "name": "Vitaldent"
    }
  },
  {
    "v": "Western Dental",
    "lbl": {"en": "Western Dental"},
    "countryCodes": ["us"],
    "matchTags": ["healthcare/dentist"],
    "tags": {
      "alt_name": "Western Dental & Orthodontics",
      "amenity": "dentist",
      "brand": "Western Dental",
      "brand:wikidata": "Q64211989",
      "brand:wikipedia": "en:Western Dental",
      "healthcare": "dentist",
      "name": "Western Dental"
    }
  }
]