[
  {
    "v": "1-2-3",
    "lbl": {"en": "1-2-3"},
    "countryCodes": ["dk", "pl"],
    "tags": {
      "amenity": "fuel",
      "brand": "1-2-3",
      "brand:wikidata": "Q4545742",
      "brand:wikipedia": "en:1-2-3 (fuel station)",
      "name": "1-2-3"
    }
  },
  {
    "v": "7-Eleven",
    "lbl": {"en": "7-Eleven"},
    "matchNames": ["7-11", "seven eleven"],
    "nomatch": ["shop/convenience|7-Eleven"],
    "tags": {
      "amenity": "fuel",
      "brand": "7-Eleven",
      "brand:wikidata": "Q259340",
      "brand:wikipedia": "en:7-Eleven",
      "name": "7-Eleven"
    }
  },
  {
    "v": "76",
    "lbl": {"en": "76"},
    "nomatch": ["shop/convenience|76"],
    "tags": {
      "amenity": "fuel",
      "brand": "76",
      "brand:wikidata": "Q1658320",
      "brand:wikipedia": "en:76 (gas station)",
      "name": "76"
    }
  },
  {
    "v": "ABC",
    "lbl": {"en": "ABC"},
    "countryCodes": ["fi"],
    "nomatch": ["shop/convenience|ABC"],
    "tags": {
      "amenity": "fuel",
      "brand": "ABC",
      "brand:wikidata": "Q10397504",
      "brand:wikipedia": "fi:ABC-ketju",
      "name": "ABC"
    }
  },
  {
    "v": "ADNOC",
    "lbl": {"en": "ADNOC"},
    "countryCodes": ["ae"],
    "tags": {
      "amenity": "fuel",
      "brand": "ADNOC",
      "brand:wikidata": "Q166729",
      "brand:wikipedia": "en:Abu Dhabi National Oil Company",
      "name": "ADNOC"
    }
  },
  {
    "v": "ANCAP",
    "lbl": {"en": "ANCAP"},
    "countryCodes": ["uy"],
    "tags": {
      "amenity": "fuel",
      "brand": "ANCAP",
      "brand:wikidata": "Q2824522",
      "brand:wikipedia": "es:Administración Nacional de Combustibles, Alcohol y Portland",
      "name": "ANCAP",
      "official_name": "Administración Nacional de Combustibles, Alcoholes y Portland"
    }
  },
  {
    "v": "ANP",
    "lbl": {"en": "ANP"},
    "countryCodes": ["ru", "ua"],
    "tags": {"amenity": "fuel", "brand": "ANP", "name": "ANP"}
  },
  {
    "v": "Aegean",
    "lbl": {"en": "Aegean"},
    "countryCodes": ["gr"],
    "tags": {
      "amenity": "fuel",
      "brand": "Aegean",
      "brand:wikidata": "Q28146598",
      "brand:wikipedia": "el:Aegean Oil",
      "name": "Aegean"
    }
  },
  {
    "v": "Afriquia",
    "lbl": {"en": "Afriquia"},
    "tags": {
      "amenity": "fuel",
      "brand": "Afriquia",
      "brand:wikidata": "Q2829178",
      "brand:wikipedia": "en:Akwa Group",
      "name": "Afriquia"
    }
  },
  {
    "v": "Agil",
    "lbl": {"en": "Agil"},
    "countryCodes": ["tn"],
    "tags": {"amenity": "fuel", "brand": "Agil", "name": "Agil"}
  },
  {
    "v": "Agip",
    "lbl": {"en": "Agip"},
    "tags": {
      "amenity": "fuel",
      "brand": "Agip",
      "brand:wikidata": "Q377915",
      "brand:wikipedia": "en:Agip",
      "name": "Agip"
    }
  },
  {
    "v": "Agrola",
    "lbl": {"en": "Agrola"},
    "countryCodes": ["ch"],
    "tags": {
      "amenity": "fuel",
      "brand": "Agrola",
      "brand:wikidata": "Q397351",
      "brand:wikipedia": "de:Agrola",
      "name": "Agrola"
    }
  },
  {
    "v": "Aloha Petroleum",
    "lbl": {"en": "Aloha Petroleum"},
    "countryCodes": ["us"],
    "tags": {
      "amenity": "fuel",
      "brand": "Aloha Petroleum",
      "brand:wikidata": "Q4734197",
      "brand:wikipedia": "en:Aloha Petroleum",
      "name": "Aloha Petroleum",
      "official_name": "Aloha Petroleum Ltd"
    }
  },
  {
    "v": "Alon",
    "lbl": {"en": "Alon"},
    "countryCodes": ["us"],
    "tags": {
      "amenity": "fuel",
      "brand": "Alon",
      "brand:wikidata": "Q62274304",
      "name": "Alon"
    }
  },
  {
    "v": "Alpet",
    "lbl": {"en": "Alpet"},
    "countryCodes": ["al", "tr"],
    "tags": {
      "amenity": "fuel",
      "brand": "Alpet",
      "brand:wikidata": "Q62131561",
      "name": "Alpet"
    }
  },
  {
    "v": "Amic",
    "lbl": {"en": "Amic"},
    "tags": {"amenity": "fuel", "brand": "Amic", "name": "Amic"}
  },
  {
    "v": "Amoco",
    "lbl": {"en": "Amoco"},
    "countryCodes": ["us"],
    "nomatch": ["shop/convenience|Amoco"],
    "tags": {
      "amenity": "fuel",
      "brand": "Amoco",
      "brand:wikidata": "Q465952",
      "brand:wikipedia": "en:Amoco",
      "name": "Amoco"
    }
  },
  {
    "v": "Ampol",
    "lbl": {"en": "Ampol"},
    "countryCodes": ["au"],
    "tags": {
      "amenity": "fuel",
      "brand": "Ampol",
      "brand:wikidata": "Q4748528",
      "brand:wikipedia": "en:Ampol",
      "name": "Ampol"
    }
  },
  {
    "v": "Api",
    "lbl": {"en": "Api"},
    "countryCodes": ["it"],
    "tags": {
      "amenity": "fuel",
      "brand": "Api",
      "brand:wikidata": "Q466043",
      "brand:wikipedia": "en:American Petroleum Institute",
      "name": "Api"
    }
  },
  {
    "v": "Aral",
    "lbl": {"en": "Aral"},
    "countryCodes": ["de", "lu"],
    "matchNames": ["aral tankstelle"],
    "nomatch": ["shop/convenience|Aral"],
    "tags": {
      "amenity": "fuel",
      "brand": "Aral",
      "brand:wikidata": "Q565734",
      "brand:wikipedia": "en:Aral AG",
      "name": "Aral"
    }
  },
  {
    "v": "Arco",
    "lbl": {"en": "Arco"},
    "countryCodes": ["mx", "us"],
    "tags": {
      "amenity": "fuel",
      "brand": "Arco",
      "brand:wikidata": "Q304769",
      "brand:wikipedia": "en:ARCO",
      "name": "Arco"
    }
  },
  {
    "v": "Asda",
    "lbl": {"en": "Asda"},
    "countryCodes": ["gb"],
    "nomatch": ["shop/supermarket|ASDA", "shop/supermarket|Asda"],
    "tags": {
      "amenity": "fuel",
      "brand": "Asda",
      "brand:wikidata": "Q297410",
      "brand:wikipedia": "en:Asda",
      "name": "Asda"
    }
  },
  {
    "v": "Atem",
    "lbl": {"en": "Atem"},
    "countryCodes": ["br"],
    "matchNames": ["posto atem"],
    "tags": {
      "amenity": "fuel",
      "brand": "Atem",
      "brand:wikidata": "Q62332255",
      "name": "Atem"
    }
  },
  {
    "v": "Auchan",
    "lbl": {"en": "Auchan"},
    "nomatch": ["shop/supermarket|Auchan"],
    "tags": {
      "amenity": "fuel",
      "brand": "Auchan",
      "brand:wikidata": "Q758603",
      "brand:wikipedia": "en:Auchan",
      "name": "Auchan"
    }
  },
  {
    "v": "Avanti",
    "lbl": {"en": "Avanti"},
    "countryCodes": ["at"],
    "tags": {
      "amenity": "fuel",
      "brand": "Avanti",
      "brand:wikidata": "Q168238",
      "brand:wikipedia": "en:OMV",
      "name": "Avanti"
    }
  },
  {
    "v": "Avia",
    "lbl": {"en": "Avia"},
    "matchNames": ["station avia"],
    "tags": {
      "amenity": "fuel",
      "brand": "Avia",
      "brand:wikidata": "Q300147",
      "brand:wikipedia": "de:Avia International",
      "name": "Avia"
    }
  },
  {
    "v": "Avin",
    "lbl": {"en": "Avin"},
    "countryCodes": ["gr"],
    "tags": {
      "amenity": "fuel",
      "brand": "Avin",
      "brand:wikidata": "Q19903165",
      "brand:wikipedia": "en:Avin International",
      "name": "Avin"
    }
  },
  {
    "v": "Axion",
    "lbl": {"en": "Axion"},
    "countryCodes": ["ar", "py", "uy"],
    "tags": {
      "amenity": "fuel",
      "brand": "Axion",
      "brand:wikidata": "Q62131749",
      "name": "Axion"
    }
  },
  {
    "v": "Aytemiz",
    "lbl": {"en": "Aytemiz"},
    "countryCodes": ["tr"],
    "tags": {
      "amenity": "fuel",
      "brand": "Aytemiz",
      "brand:wikidata": "Q62274352",
      "name": "Aytemiz"
    }
  },
  {
    "v": "Azpetrol",
    "lbl": {"en": "Azpetrol"},
    "countryCodes": ["az"],
    "tags": {
      "amenity": "fuel",
      "brand": "Azpetrol",
      "brand:wikidata": "Q4034661",
      "brand:wikipedia": "az:Azpetrol",
      "name": "Azpetrol"
    }
  },
  {
    "v": "BEBECO",
    "lbl": {"en": "BEBECO"},
    "countryCodes": ["ch"],
    "tags": {
      "amenity": "fuel",
      "brand": "BEBECO",
      "brand:wikidata": "Q62274373",
      "name": "BEBECO"
    }
  },
  {
    "v": "BHPetrol",
    "lbl": {"en": "BHPetrol"},
    "countryCodes": ["my"],
    "tags": {
      "amenity": "fuel",
      "brand": "BHPetrol",
      "brand:wikidata": "Q62274381",
      "name": "BHPetrol"
    }
  },
  {
    "v": "BP",
    "lbl": {"en": "BP"},
    "matchNames": ["BP Gas Station"],
    "nomatch": ["shop/convenience|BP Shop"],
    "tags": {
      "amenity": "fuel",
      "brand": "BP",
      "brand:wikidata": "Q152057",
      "brand:wikipedia": "en:BP",
      "name": "BP"
    }
  },
  {
    "v": "BR",
    "lbl": {"en": "BR"},
    "countryCodes": ["br"],
    "matchNames": ["br petrobras", "petrobras", "posto br"],
    "tags": {
      "amenity": "fuel",
      "brand": "BR",
      "brand:wikidata": "Q4836468",
      "brand:wikipedia": "pt:Petrobras Distribuidora",
      "name": "BR"
    }
  },
  {
    "v": "BWOC",
    "lbl": {"en": "BWOC"},
    "countryCodes": ["gb"],
    "tags": {
      "amenity": "fuel",
      "brand": "BWOC",
      "brand:wikidata": "Q4836845",
      "brand:wikipedia": "en:BWOC",
      "name": "BWOC",
      "official_name": "Bob Wayne's Oil Company"
    }
  },
  {
    "v": "Baltic Petroleum",
    "lbl": {"en": "Baltic Petroleum"},
    "tags": {
      "amenity": "fuel",
      "brand": "Baltic Petroleum",
      "name": "Baltic Petroleum"
    }
  },
  {
    "v": "Bangchak",
    "lbl": {"en": "Bangchak"},
    "countryCodes": ["th"],
    "tags": {
      "amenity": "fuel",
      "brand": "Bangchak",
      "brand:wikidata": "Q6579719",
      "brand:wikipedia": "zh:曼差石油股份",
      "name": "Bangchak"
    }
  },
  {
    "v": "Bapco",
    "lbl": {"en": "Bapco"},
    "countryCodes": ["bh"],
    "matchNames": ["bahrain petroleum"],
    "tags": {
      "amenity": "fuel",
      "brand": "Bapco",
      "brand:wikidata": "Q803640",
      "brand:wikipedia": "en:Bahrain Petroleum Company",
      "name": "Bapco",
      "official_name": "Bahrain Petroleum Company"
    }
  },
  {
    "v": "Benzina",
    "lbl": {"en": "Benzina"},
    "countryCodes": ["cz"],
    "tags": {
      "amenity": "fuel",
      "brand": "Benzina",
      "brand:wikidata": "Q11130894",
      "brand:wikipedia": "cs:Benzina",
      "name": "Benzina"
    }
  },
  {
    "v": "Beyfin",
    "lbl": {"en": "Beyfin"},
    "tags": {"amenity": "fuel", "brand": "Beyfin", "name": "Beyfin"}
  },
  {
    "v": "Bharat Petroleum",
    "lbl": {"en": "Bharat Petroleum"},
    "countryCodes": ["in"],
    "tags": {
      "amenity": "fuel",
      "brand": "Bharat Petroleum",
      "brand:wikidata": "Q854826",
      "brand:wikipedia": "en:Bharat Petroleum",
      "name": "Bharat Petroleum"
    }
  },
  {
    "v": "Biomax",
    "lbl": {"en": "Biomax"},
    "countryCodes": ["co"],
    "tags": {
      "amenity": "fuel",
      "brand": "Biomax",
      "brand:wikidata": "Q62274413",
      "name": "Biomax"
    }
  },
  {
    "v": "Bliska",
    "lbl": {"en": "Bliska"},
    "countryCodes": ["pl"],
    "tags": {
      "amenity": "fuel",
      "brand": "Bliska",
      "brand:wikidata": "Q4016378",
      "brand:wikipedia": "pl:Bliska",
      "name": "Bliska"
    }
  },
  {
    "v": "CAMPSA",
    "lbl": {"en": "CAMPSA"},
    "countryCodes": ["es"],
    "tags": {
      "amenity": "fuel",
      "brand": "CAMPSA",
      "brand:wikidata": "Q1031623",
      "brand:wikipedia": "en:Campsa",
      "name": "CAMPSA",
      "official_name": "Compañía Arrendataria del Monopolio del Petróleo, S.A."
    }
  },
  {
    "v": "Caltex",
    "lbl": {"en": "Caltex"},
    "tags": {
      "amenity": "fuel",
      "brand": "Caltex",
      "brand:wikidata": "Q277470",
      "brand:wikipedia": "en:Caltex",
      "name": "Caltex"
    }
  },
  {
    "v": "Canadian Tire",
    "lbl": {"en": "Canadian Tire Gas+"},
    "matchNames": ["canadian tire", "canadian tire gas bar"],
    "nomatch": ["shop/department_store|Canadian Tire"],
    "tags": {
      "amenity": "fuel",
      "brand": "Canadian Tire",
      "brand:wikidata": "Q1032400",
      "brand:wikipedia": "en:Canadian Tire",
      "name": "Canadian Tire"
    }
  },
  {
    "v": "Carrefour",
    "lbl": {"en": "Carrefour"},
    "matchNames": ["carrefour market"],
    "nomatch": [
      "shop/convenience|Carrefour Express",
      "shop/supermarket|Carrefour"
    ],
    "tags": {
      "amenity": "fuel",
      "brand": "Carrefour",
      "brand:wikidata": "Q217599",
      "brand:wikipedia": "fr:Carrefour (enseigne)",
      "name": "Carrefour"
    }
  },
  {
    "v": "Casey's General Store",
    "lbl": {"en": "Casey's General Store"},
    "matchNames": ["caseys"],
    "nomatch": ["shop/convenience|Casey's General Store"],
    "tags": {
      "amenity": "fuel",
      "brand": "Casey's General Store",
      "brand:wikidata": "Q2940968",
      "brand:wikipedia": "en:Casey's General Stores",
      "name": "Casey's General Store"
    }
  },
  {
    "v": "Casino",
    "lbl": {"en": "Casino"},
    "tags": {"amenity": "fuel", "brand": "Casino", "name": "Casino"}
  },
  {
    "v": "Cenex",
    "lbl": {"en": "Cenex"},
    "countryCodes": ["us"],
    "tags": {
      "amenity": "fuel",
      "brand": "Cenex",
      "brand:wikidata": "Q5011381",
      "brand:wikipedia": "en:CHS Inc.",
      "name": "Cenex"
    }
  },
  {
    "v": "Cepsa",
    "lbl": {"en": "Cepsa"},
    "countryCodes": ["es", "pt"],
    "tags": {
      "amenity": "fuel",
      "brand": "Cepsa",
      "brand:wikidata": "Q608819",
      "brand:wikipedia": "en:Cepsa",
      "name": "Cepsa",
      "official_name": "Compañía Española de Petróleos, S.A.U."
    }
  },
  {
    "v": "Ceypetco",
    "lbl": {"en": "Ceypetco"},
    "countryCodes": ["lk"],
    "matchNames": ["lanka filling station"],
    "tags": {
      "amenity": "fuel",
      "brand": "Ceypetco",
      "brand:wikidata": "Q5065795",
      "brand:wikipedia": "en:Ceylon Petroleum Corporation",
      "name": "Ceypetco"
    }
  },
  {
    "v": "Challenge",
    "lbl": {"en": "Challenge"},
    "countryCodes": ["nz"],
    "tags": {
      "amenity": "fuel",
      "brand": "Challenge",
      "brand:wikidata": "Q5068888",
      "brand:wikipedia": "en:Challenge (gasoline)",
      "name": "Challenge"
    }
  },
  {
    "v": "Chevron",
    "lbl": {"en": "Chevron"},
    "nomatch": ["shop/convenience|Chevron"],
    "tags": {
      "amenity": "fuel",
      "brand": "Chevron",
      "brand:wikidata": "Q319642",
      "brand:wikipedia": "en:Chevron Corporation",
      "name": "Chevron"
    }
  },
  {
    "v": "Circle K",
    "lbl": {"en": "Circle K"},
    "nomatch": ["shop/convenience|Circle K"],
    "tags": {
      "amenity": "fuel",
      "brand": "Circle K",
      "brand:wikidata": "Q3268010",
      "brand:wikipedia": "en:Circle K",
      "name": "Circle K"
    }
  },
  {
    "v": "Citgo",
    "lbl": {"en": "Citgo"},
    "nomatch": ["shop/convenience|Citgo"],
    "tags": {
      "amenity": "fuel",
      "brand": "Citgo",
      "brand:wikidata": "Q2974437",
      "brand:wikipedia": "en:Citgo",
      "name": "Citgo"
    }
  },
  {
    "v": "Clark",
    "lbl": {"en": "Clark"},
    "countryCodes": ["us"],
    "tags": {
      "amenity": "fuel",
      "brand": "Clark",
      "brand:wikidata": "Q5127157",
      "brand:wikipedia": "en:Clark Brands",
      "name": "Clark"
    }
  },
  {
    "v": "Classic",
    "lbl": {"en": "Classic"},
    "countryCodes": ["de"],
    "tags": {"amenity": "fuel", "brand": "Classic", "name": "Classic"}
  },
  {
    "v": "Federated Co-operatives",
    "lbl": {"en": "Co-op~(Canada)"},
    "countryCodes": ["ca"],
    "matchNames": ["coop"],
    "nomatch": [
      "shop/convenience|Co-op~(Canada)",
      "shop/convenience|Coop~(Schweiz)",
      "shop/convenience|The Co-operative Food~(UK)",
      "shop/supermarket|Co-op~(Canada)",
      "shop/supermarket|Coop~(Schweiz)",
      "shop/supermarket|The Co-operative Food~(UK)"
    ],
    "tags": {
      "amenity": "fuel",
      "brand": "Federated Co-operatives",
      "brand:wikidata": "Q5440676",
      "brand:wikipedia": "en:Federated Co-operatives",
      "name": "Co-op"
    }
  },
  {
    "v": "Coles Express",
    "lbl": {"en": "Coles Express"},
    "countryCodes": ["au"],
    "nomatch": ["shop/convenience|Coles Express"],
    "tags": {
      "amenity": "fuel",
      "brand": "Coles Express",
      "brand:wikidata": "Q5144653",
      "brand:wikipedia": "en:Coles Express",
      "name": "Coles Express"
    }
  },
  {
    "v": "Conoco",
    "lbl": {"en": "Conoco"},
    "countryCodes": ["us"],
    "tags": {
      "amenity": "fuel",
      "brand": "Conoco",
      "brand:wikidata": "Q1126518",
      "brand:wikipedia": "en:Conoco",
      "name": "Conoco"
    }
  },
  {
    "v": "Copec",
    "lbl": {"en": "Copec"},
    "countryCodes": ["cl"],
    "tags": {
      "amenity": "fuel",
      "brand": "Copec",
      "brand:wikidata": "Q11681461",
      "brand:wikipedia": "en:Empresas Copec",
      "name": "Copec"
    }
  },
  {
    "v": "Copetrol",
    "lbl": {"en": "Copetrol"},
    "countryCodes": ["py"],
    "tags": {
      "amenity": "fuel",
      "brand": "Copetrol",
      "brand:wikidata": "Q62274431",
      "name": "Copetrol"
    }
  },
  {
    "v": "Cosan",
    "lbl": {"en": "Cosan"},
    "countryCodes": ["br"],
    "tags": {
      "amenity": "fuel",
      "brand": "Cosan",
      "brand:wikidata": "Q2998228",
      "brand:wikipedia": "pt:Cosan",
      "name": "Cosan"
    }
  },
  {
    "v": "Cosmo",
    "lbl": {"en": "Cosmo"},
    "countryCodes": ["jp"],
    "nomatch": ["amenity/restaurant|Cosmo"],
    "tags": {
      "amenity": "fuel",
      "brand": "Cosmo",
      "brand:wikidata": "Q2498318",
      "brand:wikipedia": "en:Cosmo Oil Company",
      "name": "Cosmo"
    }
  },
  {
    "v": "Costco Gasoline",
    "lbl": {"en": "Costco Gasoline"},
    "countryCodes": ["au", "ca", "mx", "us"],
    "matchNames": ["costco", "costco gas", "costco wholesale"],
    "nomatch": ["amenity/pharmacy|Costco Pharmacy", "shop/wholesale|Costco"],
    "tags": {
      "amenity": "fuel",
      "brand": "Costco Gasoline",
      "brand:wikidata": "Q715583",
      "brand:wikipedia": "en:Costco",
      "name": "Costco Gasoline"
    }
  },
  {
    "v": "Couche-Tard",
    "lbl": {"en": "Couche-Tard"},
    "countryCodes": ["ca"],
    "nomatch": ["shop/convenience|Couche-Tard"],
    "tags": {
      "amenity": "fuel",
      "brand": "Couche-Tard",
      "brand:wikidata": "Q2836957",
      "brand:wikipedia": "en:Alimentation Couche-Tard",
      "name": "Couche-Tard"
    }
  },
  {
    "v": "Crevier",
    "lbl": {"en": "Crevier"},
    "countryCodes": ["ca"],
    "tags": {
      "amenity": "fuel",
      "brand": "Crevier",
      "brand:wikidata": "Q61743451",
      "name": "Crevier"
    }
  },
  {
    "v": "Crodux",
    "lbl": {"en": "Crodux"},
    "countryCodes": ["hr"],
    "tags": {
      "amenity": "fuel",
      "brand": "Crodux",
      "brand:wikidata": "Q62274622",
      "name": "Crodux"
    }
  },
  {
    "v": "Cumberland Farms",
    "lbl": {"en": "Cumberland Farms"},
    "countryCodes": ["us"],
    "nomatch": ["shop/convenience|Cumberland Farms"],
    "tags": {
      "amenity": "fuel",
      "brand": "Cumberland Farms",
      "brand:wikidata": "Q1143685",
      "brand:wikipedia": "en:Cumberland Farms",
      "name": "Cumberland Farms"
    }
  },
  {
    "v": "Cupet",
    "lbl": {"en": "Cupet"},
    "countryCodes": ["cu"],
    "matchNames": ["cuba oil union", "cuba petróleo union"],
    "tags": {
      "amenity": "fuel",
      "brand": "Cupet",
      "brand:wikidata": "Q3007579",
      "brand:wikipedia": "en:Cuba Petróleo Union",
      "name": "Cupet"
    }
  },
  {
    "v": "Delek",
    "lbl": {"en": "Delek"},
    "countryCodes": ["il"],
    "tags": {
      "amenity": "fuel",
      "brand": "Delek",
      "brand:wikidata": "Q1184087",
      "brand:wikipedia": "en:Delek",
      "name": "Delek"
    }
  },
  {
    "v": "Delta",
    "lbl": {"en": "Delta~(Panama & Costa Rica)"},
    "countryCodes": ["cr", "us"],
    "tags": {
      "amenity": "fuel",
      "brand": "Delta",
      "brand:wikidata": "Q62274638",
      "name": "Delta"
    }
  },
  {
    "v": "Delta",
    "lbl": {"en": "Delta~(USA)"},
    "countryCodes": ["us"],
    "tags": {
      "amenity": "fuel",
      "brand": "Delta",
      "brand:wikidata": "Q62274661",
      "name": "Delta"
    }
  },
  {
    "v": "Depot Tela",
    "lbl": {"en": "Depot Tela"},
    "countryCodes": ["kh"],
    "tags": {"amenity": "fuel", "brand": "Depot Tela", "name": "Depot Tela"}
  },
  {
    "v": "Diamond Shamrock",
    "lbl": {"en": "Diamond Shamrock"},
    "countryCodes": ["us"],
    "tags": {
      "amenity": "fuel",
      "brand": "Diamond Shamrock",
      "brand:wikidata": "Q16973722",
      "brand:wikipedia": "en:Diamond Shamrock",
      "name": "Diamond Shamrock"
    }
  },
  {
    "v": "Domo",
    "lbl": {"en": "Domo"},
    "countryCodes": ["ca"],
    "tags": {
      "amenity": "fuel",
      "brand": "Domo",
      "brand:wikidata": "Q5291326",
      "brand:wikipedia": "en:Domo Gasoline",
      "name": "Domo"
    }
  },
  {
    "v": "EKO",
    "lbl": {"en": "EKO~(Canada)"},
    "countryCodes": ["ca"],
    "nomatch": ["amenity/fuel|EKO~(Greece)", "shop/supermarket|Eko"],
    "tags": {
      "amenity": "fuel",
      "brand": "EKO",
      "brand:wikidata": "Q3045934",
      "brand:wikipedia": "fr:EKO",
      "name": "EKO"
    }
  },
  {
    "v": "EKO",
    "lbl": {"en": "EKO~(Greece)"},
    "countryCodes": ["bg", "cy", "gr", "me", "mk", "rs"],
    "matchNames": ["εκο"],
    "nomatch": ["amenity/fuel|EKO~(Canada)", "shop/supermarket|Eko"],
    "tags": {
      "amenity": "fuel",
      "brand": "EKO",
      "brand:wikidata": "Q903198",
      "brand:wikipedia": "el:Ελληνικά Πετρέλαια",
      "name": "EKO"
    }
  },
  {
    "v": "ENEOS",
    "lbl": {"en": "ENEOS"},
    "countryCodes": ["jp"],
    "tags": {
      "amenity": "fuel",
      "brand": "ENEOS",
      "brand:wikidata": "Q1640290",
      "brand:wikipedia": "en:JXTG Nippon Oil & Energy",
      "name": "ENEOS"
    }
  },
  {
    "v": "Elan",
    "lbl": {"en": "Elan"},
    "countryCodes": ["de", "fr", "nl"],
    "tags": {
      "amenity": "fuel",
      "brand": "Elan",
      "brand:wikidata": "Q57980752",
      "name": "Elan"
    }
  },
  {
    "v": "Engen",
    "lbl": {"en": "Engen"},
    "tags": {
      "amenity": "fuel",
      "brand": "Engen",
      "brand:wikidata": "Q3054251",
      "brand:wikipedia": "en:Engen Petroleum",
      "name": "Engen"
    }
  },
  {
    "v": "Eni",
    "lbl": {"en": "Eni"},
    "countryCodes": ["at", "ch", "fr", "it"],
    "tags": {
      "amenity": "fuel",
      "brand": "Eni",
      "brand:wikidata": "Q565594",
      "brand:wikipedia": "en:Eni",
      "name": "Eni"
    }
  },
  {
    "v": "Erg",
    "lbl": {"en": "Erg"},
    "countryCodes": ["it"],
    "tags": {
      "amenity": "fuel",
      "brand": "Erg",
      "brand:wikidata": "Q739503",
      "brand:wikipedia": "it:ERG (azienda)",
      "name": "Erg"
    }
  },
  {
    "v": "Esso",
    "lbl": {"en": "Esso"},
    "matchNames": ["station esso"],
    "nomatch": ["amenity/fuel|Esso Express", "shop/convenience|Esso"],
    "tags": {
      "amenity": "fuel",
      "brand": "Esso",
      "brand:wikidata": "Q867662",
      "brand:wikipedia": "en:Esso",
      "name": "Esso"
    }
  },
  {
    "v": "Esso Express",
    "lbl": {"en": "Esso Express"},
    "nomatch": ["amenity/fuel|Esso"],
    "tags": {
      "amenity": "fuel",
      "brand": "Esso Express",
      "brand:wikidata": "Q2350336",
      "brand:wikipedia": "nl:Esso Express",
      "name": "Esso Express"
    }
  },
  {
    "v": "Exxon",
    "lbl": {"en": "Exxon"},
    "countryCodes": ["us"],
    "tags": {
      "amenity": "fuel",
      "brand": "Exxon",
      "brand:wikidata": "Q4781944",
      "brand:wikipedia": "en:Exxon",
      "name": "Exxon"
    }
  },
  {
    "v": "F24",
    "lbl": {"en": "F24"},
    "countryCodes": ["dk"],
    "tags": {
      "amenity": "fuel",
      "brand": "F24",
      "brand:wikidata": "Q12310853",
      "brand:wikipedia": "da:F24",
      "name": "F24"
    }
  },
  {
    "v": "Fas Gas",
    "lbl": {"en": "Fas Gas"},
    "countryCodes": ["ca"],
    "matchNames": ["fas gas plus"],
    "tags": {
      "amenity": "fuel",
      "brand": "Fas Gas",
      "brand:wikidata": "Q61743505",
      "brand:wikipedia": "en:Parkland Fuel",
      "name": "Fas Gas"
    }
  },
  {
    "v": "Firezone",
    "lbl": {"en": "Firezone"},
    "countryCodes": ["nl"],
    "tags": {
      "amenity": "fuel",
      "brand": "Firezone",
      "brand:wikidata": "Q14628080",
      "brand:wikipedia": "nl:Firezone",
      "name": "Firezone"
    }
  },
  {
    "v": "Flying J",
    "lbl": {"en": "Flying J"},
    "countryCodes": ["ca", "us"],
    "matchNames": ["flying j travel plaza"],
    "tags": {
      "amenity": "fuel",
      "brand": "Flying J",
      "brand:wikidata": "Q64130592",
      "name": "Flying J"
    }
  },
  {
    "v": "Flying V",
    "lbl": {"en": "Flying V"},
    "countryCodes": ["ph"],
    "tags": {
      "amenity": "fuel",
      "brand": "Flying V",
      "brand:wikidata": "Q62275048",
      "name": "Flying V"
    }
  },
  {
    "v": "Freie Tankstelle",
    "lbl": {"en": "Freie Tankstelle"},
    "countryCodes": ["de"],
    "tags": {
      "amenity": "fuel",
      "brand": "Freie Tankstelle",
      "brand:wikidata": "Q1009104",
      "brand:wikipedia": "de:Bundesverband freier Tankstellen",
      "name": "Freie Tankstelle"
    }
  },
  {
    "v": "GALP",
    "lbl": {"en": "GALP"},
    "tags": {
      "amenity": "fuel",
      "brand": "GALP",
      "brand:wikidata": "Q1492739",
      "brand:wikipedia": "en:Galp Energia",
      "name": "GALP"
    }
  },
  {
    "v": "Gas Plus",
    "lbl": {"en": "Gas Plus"},
    "nomatch": ["shop/mobile_phone|Plus", "shop/supermarket|PLUS"],
    "tags": {"amenity": "fuel", "brand": "Gas Plus", "name": "Gas Plus"}
  },
  {
    "v": "Gazel",
    "lbl": {"en": "Gazel"},
    "countryCodes": ["co", "mx", "pe"],
    "tags": {
      "amenity": "fuel",
      "brand": "Gazel",
      "brand:wikidata": "Q62529885",
      "name": "Gazel"
    }
  },
  {
    "v": "Gazprom",
    "lbl": {"en": "Gazprom"},
    "tags": {
      "amenity": "fuel",
      "brand": "Gazprom",
      "brand:wikidata": "Q102673",
      "brand:wikipedia": "en:Gazprom",
      "name": "Gazprom"
    }
  },
  {
    "v": "GetGo",
    "lbl": {"en": "GetGo"},
    "countryCodes": ["us"],
    "tags": {
      "amenity": "fuel",
      "brand": "GetGo",
      "brand:wikidata": "Q5553766",
      "brand:wikipedia": "en:GetGo",
      "name": "GetGo"
    }
  },
  {
    "v": "Giant",
    "lbl": {"en": "Giant"},
    "nomatch": ["shop/bicycle|Giant"],
    "tags": {"amenity": "fuel", "brand": "Giant", "name": "Giant"}
  },
  {
    "v": "Giant Eagle",
    "lbl": {"en": "Giant Eagle"},
    "countryCodes": ["us"],
    "matchNames": ["giant eagle fuel"],
    "nomatch": ["shop/supermarket|Giant Eagle"],
    "tags": {
      "amenity": "fuel",
      "brand": "Giant Eagle",
      "brand:wikidata": "Q1522721",
      "brand:wikipedia": "en:Giant Eagle",
      "name": "Giant Eagle"
    }
  },
  {
    "v": "Glusco",
    "lbl": {"en": "Glusco"},
    "countryCodes": ["ua"],
    "tags": {
      "amenity": "fuel",
      "brand": "Glusco",
      "brand:wikidata": "Q62284719",
      "name": "Glusco"
    }
  },
  {
    "v": "Goil",
    "lbl": {"en": "Goil"},
    "countryCodes": ["gh"],
    "tags": {
      "amenity": "fuel",
      "brand": "Goil",
      "brand:wikidata": "Q5555383",
      "brand:wikipedia": "en:Ghana Oil Company",
      "name": "Goil"
    }
  },
  {
    "v": "Gulf",
    "lbl": {"en": "Gulf"},
    "tags": {
      "amenity": "fuel",
      "brand": "Gulf",
      "brand:wikidata": "Q1296860",
      "brand:wikipedia": "en:Gulf Oil",
      "name": "Gulf"
    }
  },
  {
    "v": "Gull",
    "lbl": {"en": "Gull"},
    "countryCodes": ["au", "nz"],
    "tags": {
      "amenity": "fuel",
      "brand": "Gull",
      "brand:wikidata": "Q5617739",
      "brand:wikipedia": "en:Gull Petroleum",
      "name": "Gull"
    }
  },
  {
    "v": "H-E-B Fuel",
    "lbl": {"en": "H-E-B Fuel"},
    "countryCodes": ["us"],
    "matchNames": ["h-e-b gas"],
    "nomatch": ["shop/supermarket|H-E-B"],
    "tags": {
      "amenity": "fuel",
      "brand": "H-E-B Fuel",
      "brand:wikidata": "Q830621",
      "brand:wikipedia": "en:H-E-B",
      "name": "H-E-B Fuel"
    }
  },
  {
    "v": "HEM",
    "lbl": {"en": "HEM"},
    "countryCodes": ["de"],
    "tags": {
      "amenity": "fuel",
      "brand": "HEM",
      "brand:wikidata": "Q1563517",
      "brand:wikipedia": "de:Deutsche Tamoil",
      "name": "HEM"
    }
  },
  {
    "v": "Hindustan Petroleum",
    "lbl": {"en": "HP"},
    "countryCodes": ["in"],
    "matchNames": ["hp petrol pump"],
    "tags": {
      "amenity": "fuel",
      "brand": "Hindustan Petroleum",
      "brand:wikidata": "Q1619375",
      "brand:wikipedia": "en:Hindustan Petroleum",
      "name": "HP",
      "official_name": "Hindustan Petroleum"
    }
  },
  {
    "v": "Harnois",
    "lbl": {"en": "Harnois"},
    "countryCodes": ["ca"],
    "tags": {
      "amenity": "fuel",
      "brand": "Harnois",
      "brand:wikidata": "Q61743558",
      "name": "Harnois"
    }
  },
  {
    "v": "Hess",
    "lbl": {"en": "Hess"},
    "countryCodes": ["us"],
    "tags": {
      "amenity": "fuel",
      "brand": "Hess",
      "brand:wikidata": "Q1615684",
      "brand:wikipedia": "en:Hess Corporation",
      "name": "Hess"
    }
  },
  {
    "v": "Hofer",
    "lbl": {"en": "Hofer"},
    "countryCodes": ["at", "si"],
    "nomatch": ["shop/supermarket|Hofer"],
    "tags": {
      "amenity": "fuel",
      "brand": "Hofer",
      "brand:wikidata": "Q15815751",
      "brand:wikipedia": "de:Hofer KG",
      "name": "Hofer"
    }
  },
  {
    "v": "Holiday",
    "lbl": {"en": "Holiday"},
    "countryCodes": ["us"],
    "nomatch": ["shop/convenience|Holiday"],
    "tags": {
      "amenity": "fuel",
      "brand": "Holiday",
      "brand:wikidata": "Q5880490",
      "brand:wikipedia": "en:Holiday Stationstores",
      "name": "Holiday"
    }
  },
  {
    "v": "Huck's Food & Fuel",
    "lbl": {"en": "Huck's Food & Fuel"},
    "countryCodes": ["us"],
    "nomatch": ["shop/convenience|Huck's Food & Fuel"],
    "tags": {
      "amenity": "fuel",
      "brand": "Huck's Food & Fuel",
      "brand:wikidata": "Q56276328",
      "brand:wikipedia": "en:Huck's Food & Fuel",
      "name": "Huck's Food & Fuel",
      "short_name": "Huck's"
    }
  },
  {
    "v": "Husky",
    "lbl": {"en": "Husky"},
    "countryCodes": ["ca"],
    "nomatch": ["amenity/restaurant|Husky House", "shop/convenience|Husky"],
    "tags": {
      "amenity": "fuel",
      "brand": "Husky",
      "brand:wikidata": "Q702049",
      "brand:wikipedia": "en:Husky Energy",
      "name": "Husky"
    }
  },
  {
    "v": "Hy-Vee Gas",
    "lbl": {"en": "Hy-Vee Gas"},
    "countryCodes": ["us"],
    "nomatch": ["shop/supermarket|Hy-Vee"],
    "tags": {
      "amenity": "fuel",
      "brand": "Hy-Vee Gas",
      "brand:wikidata": "Q1639719",
      "brand:wikipedia": "en:Hy-Vee",
      "name": "Hy-Vee Gas"
    }
  },
  {
    "v": "IES",
    "lbl": {"en": "IES"},
    "countryCodes": ["it"],
    "tags": {
      "amenity": "fuel",
      "brand": "IES",
      "brand:wikidata": "Q62287387",
      "name": "IES"
    }
  },
  {
    "v": "IP",
    "lbl": {"en": "IP"},
    "tags": {
      "amenity": "fuel",
      "brand": "IP",
      "brand:wikidata": "Q646807",
      "brand:wikipedia": "en:Anonima Petroli Italiana",
      "name": "IP"
    }
  },
  {
    "v": "Indian Oil",
    "lbl": {"en": "Indian Oil"},
    "tags": {
      "amenity": "fuel",
      "brand": "Indian Oil",
      "brand:wikidata": "Q1289348",
      "brand:wikipedia": "en:Indian Oil Corporation",
      "name": "Indian Oil"
    }
  },
  {
    "v": "Indian Oil Petrol Pump",
    "lbl": {"en": "Indian Oil Petrol Pump"},
    "countryCodes": ["in"],
    "tags": {
      "amenity": "fuel",
      "brand": "Indian Oil Petrol Pump",
      "name": "Indian Oil Petrol Pump"
    }
  },
  {
    "v": "Ingo",
    "lbl": {"en": "Ingo"},
    "countryCodes": ["dk", "se"],
    "tags": {
      "amenity": "fuel",
      "brand": "Ingo",
      "brand:wikidata": "Q17048617",
      "brand:wikipedia": "en:Ingo (brand)",
      "name": "Ingo"
    }
  },
  {
    "v": "Intermarché",
    "lbl": {"en": "Intermarché"},
    "matchNames": ["intermarché super"],
    "nomatch": ["shop/supermarket|Intermarché"],
    "tags": {
      "amenity": "fuel",
      "brand": "Intermarché",
      "brand:wikidata": "Q3153200",
      "brand:wikipedia": "fr:Intermarché",
      "name": "Intermarché"
    }
  },
  {
    "v": "Ipiranga",
    "lbl": {"en": "Ipiranga"},
    "countryCodes": ["br"],
    "matchNames": ["posto ipiranga"],
    "tags": {
      "amenity": "fuel",
      "brand": "Ipiranga",
      "brand:wikidata": "Q2081136",
      "brand:wikipedia": "pt:Ipiranga (empresa)",
      "name": "Ipiranga"
    }
  },
  {
    "v": "Irving",
    "lbl": {"en": "Irving"},
    "nomatch": ["shop/convenience|Irving"],
    "tags": {
      "amenity": "fuel",
      "brand": "Irving",
      "brand:wikidata": "Q1673286",
      "brand:wikipedia": "en:Irving Oil",
      "name": "Irving"
    }
  },
  {
    "v": "JA-SS",
    "lbl": {"en": "JA-SS"},
    "countryCodes": ["jp"],
    "matchNames": ["ja"],
    "tags": {
      "amenity": "fuel",
      "brand": "JA-SS",
      "brand:wikidata": "Q11225213",
      "brand:wikipedia": "ja:JA-SS",
      "name": "JA-SS"
    }
  },
  {
    "v": "Jet",
    "lbl": {"en": "Jet"},
    "nomatch": ["shop/clothes|Jet"],
    "tags": {
      "amenity": "fuel",
      "brand": "Jet",
      "brand:wikidata": "Q568940",
      "brand:wikipedia": "en:Jet (brand)",
      "name": "Jet"
    }
  },
  {
    "v": "Jetti",
    "lbl": {"en": "Jetti"},
    "countryCodes": ["ph"],
    "tags": {
      "amenity": "fuel",
      "brand": "Jetti",
      "brand:wikidata": "Q62288720",
      "name": "Jetti"
    }
  },
  {
    "v": "Kadoil",
    "lbl": {"en": "Kadoil"},
    "tags": {"amenity": "fuel", "brand": "Kadoil", "name": "Kadoil"}
  },
  {
    "v": "Kangaroo Express",
    "lbl": {"en": "Kangaroo Express"},
    "countryCodes": ["us"],
    "nomatch": ["shop/convenience|Kangaroo Express"],
    "tags": {
      "amenity": "fuel",
      "brand": "Kangaroo Express",
      "brand:wikidata": "Q61747408",
      "name": "Kangaroo Express",
      "short_name": "Kangaroo"
    }
  },
  {
    "v": "Kastrati",
    "lbl": {"en": "Kastrati"},
    "tags": {"amenity": "fuel", "brand": "Kastrati", "name": "Kastrati"}
  },
  {
    "v": "Kobil",
    "lbl": {"en": "Kobil"},
    "countryCodes": ["bi", "et", "ke", "rw", "tz", "ug", "zm"],
    "tags": {
      "amenity": "fuel",
      "brand": "Kobil",
      "brand:wikidata": "Q22906119",
      "brand:wikipedia": "en:KenolKobil",
      "name": "Kobil"
    }
  },
  {
    "v": "Kroger",
    "lbl": {"en": "Kroger"},
    "matchNames": ["kroger fuel", "kroger gas"],
    "nomatch": ["shop/supermarket|Kroger"],
    "tags": {
      "amenity": "fuel",
      "brand": "Kroger",
      "brand:wikidata": "Q153417",
      "brand:wikipedia": "en:Kroger",
      "name": "Kroger"
    }
  },
  {
    "v": "Kum & Go",
    "lbl": {"en": "Kum & Go"},
    "countryCodes": ["us"],
    "nomatch": ["shop/convenience|Kum & Go"],
    "tags": {
      "amenity": "fuel",
      "brand": "Kum & Go",
      "brand:wikidata": "Q6443340",
      "brand:wikipedia": "en:Kum & Go",
      "name": "Kum & Go"
    }
  },
  {
    "v": "Kwik Fill",
    "lbl": {"en": "Kwik Fill"},
    "countryCodes": ["us"],
    "tags": {"amenity": "fuel", "brand": "Kwik Fill", "name": "Kwik Fill"}
  },
  {
    "v": "Kwik Trip",
    "lbl": {"en": "Kwik Trip"},
    "countryCodes": ["us"],
    "nomatch": ["shop/convenience|Kwik Trip"],
    "tags": {
      "amenity": "fuel",
      "brand": "Kwik Trip",
      "brand:wikidata": "Q6450420",
      "brand:wikipedia": "en:Kwik Trip",
      "name": "Kwik Trip"
    }
  },
  {
    "v": "Liberty",
    "lbl": {"en": "Liberty"},
    "countryCodes": ["au", "us"],
    "nomatch": ["amenity/bank|Liberty Bank"],
    "tags": {"amenity": "fuel", "brand": "Liberty", "name": "Liberty"}
  },
  {
    "v": "Lotos",
    "lbl": {"en": "Lotos"},
    "countryCodes": ["pl"],
    "nomatch": ["amenity/fuel|Lotos Optima"],
    "tags": {
      "amenity": "fuel",
      "brand": "Lotos",
      "brand:wikidata": "Q1256909",
      "brand:wikipedia": "pl:Grupa Lotos",
      "name": "Lotos"
    }
  },
  {
    "v": "Lotos Optima",
    "lbl": {"en": "Lotos Optima"},
    "countryCodes": ["pl"],
    "nomatch": ["amenity/fuel|Lotos"],
    "tags": {
      "amenity": "fuel",
      "brand": "Lotos Optima",
      "brand:wikidata": "Q1256909",
      "brand:wikipedia": "pl:Grupa Lotos",
      "name": "Lotos Optima"
    }
  },
  {
    "v": "Love's",
    "lbl": {"en": "Love's"},
    "countryCodes": ["us"],
    "tags": {
      "amenity": "fuel",
      "brand": "Love's",
      "brand:wikidata": "Q1872496",
      "brand:wikipedia": "en:Love's Travel Stops & Country Stores",
      "name": "Love's"
    }
  },
  {
    "v": "Lukoil",
    "lbl": {"en": "Lukoil"},
    "tags": {
      "amenity": "fuel",
      "brand": "Lukoil",
      "brand:wikidata": "Q329347",
      "brand:wikipedia": "en:Lukoil",
      "name": "Lukoil"
    }
  },
  {
    "v": "MEROIL",
    "lbl": {"en": "MEROIL"},
    "countryCodes": ["es"],
    "tags": {
      "amenity": "fuel",
      "brand": "MEROIL",
      "brand:wikidata": "Q62292559",
      "name": "MEROIL"
    }
  },
  {
    "v": "MOL",
    "lbl": {"en": "MOL"},
    "tags": {
      "amenity": "fuel",
      "brand": "MOL",
      "brand:wikidata": "Q549181",
      "brand:wikipedia": "en:MOL (company)",
      "name": "MOL"
    }
  },
  {
    "v": "MRS",
    "lbl": {"en": "MRS"},
    "countryCodes": ["ng"],
    "tags": {
      "amenity": "fuel",
      "brand": "MRS",
      "brand:wikidata": "Q56274919",
      "brand:wikipedia": "en:MRS Oil Nigeria Plc",
      "name": "MRS"
    }
  },
  {
    "v": "Mac's",
    "lbl": {"en": "Mac's"},
    "countryCodes": ["ca"],
    "nomatch": ["shop/convenience|Mac's"],
    "tags": {
      "amenity": "fuel",
      "brand": "Mac's",
      "brand:wikidata": "Q4043527",
      "brand:wikipedia": "en:Mac's Convenience Stores",
      "name": "Mac's"
    }
  },
  {
    "v": "MacEwen",
    "lbl": {"en": "MacEwen"},
    "countryCodes": ["ca"],
    "tags": {
      "amenity": "fuel",
      "brand": "MacEwen",
      "brand:wikidata": "Q61740335",
      "name": "MacEwen"
    }
  },
  {
    "v": "Marathon",
    "lbl": {"en": "Marathon"},
    "matchNames": ["Marathon Gas"],
    "nomatch": ["shop/convenience|Marathon"],
    "tags": {
      "amenity": "fuel",
      "brand": "Marathon",
      "brand:wikidata": "Q458363",
      "brand:wikipedia": "en:Marathon Petroleum",
      "name": "Marathon"
    }
  },
  {
    "v": "Maverik",
    "lbl": {"en": "Maverik"},
    "countryCodes": ["us"],
    "nomatch": ["shop/convenience|Maverik"],
    "tags": {
      "amenity": "fuel",
      "brand": "Maverik",
      "brand:wikidata": "Q64149010",
      "brand:wikipedia": "en:Maverik, Inc.",
      "name": "Maverik"
    }
  },
  {
    "v": "Maxol",
    "lbl": {"en": "Maxol"},
    "countryCodes": ["gb", "ie"],
    "tags": {
      "amenity": "fuel",
      "brand": "Maxol",
      "brand:wikidata": "Q3302837",
      "brand:wikipedia": "en:Maxol",
      "name": "Maxol"
    }
  },
  {
    "v": "Meijer",
    "lbl": {"en": "Meijer"},
    "countryCodes": ["us"],
    "nomatch": ["shop/supermarket|Meijer"],
    "tags": {
      "amenity": "fuel",
      "brand": "Meijer",
      "brand:wikidata": "Q1917753",
      "brand:wikipedia": "en:Meijer",
      "name": "Meijer"
    }
  },
  {
    "v": "Metano",
    "lbl": {"en": "Metano"},
    "countryCodes": ["it"],
    "tags": {
      "amenity": "fuel",
      "brand": "Metano",
      "brand:wikidata": "Q62294765",
      "name": "Metano"
    }
  },
  {
    "v": "Migrol",
    "lbl": {"en": "Migrol"},
    "countryCodes": ["ch"],
    "tags": {
      "amenity": "fuel",
      "brand": "Migrol",
      "brand:wikidata": "Q1747771",
      "brand:wikipedia": "de:Migrol",
      "name": "Migrol"
    }
  },
  {
    "v": "Mobil",
    "lbl": {"en": "Mobil"},
    "matchNames": ["mobile"],
    "nomatch": ["shop/convenience|Mobil Mart"],
    "tags": {
      "amenity": "fuel",
      "brand": "Mobil",
      "brand:wikidata": "Q3088656",
      "brand:wikipedia": "en:Mobil",
      "name": "Mobil"
    }
  },
  {
    "v": "Mohawk",
    "lbl": {"en": "Mohawk"},
    "countryCodes": ["ca"],
    "matchNames": ["mohawk oil"],
    "tags": {
      "amenity": "fuel",
      "brand": "Mohawk",
      "brand:wikidata": "Q6893796",
      "brand:wikipedia": "en:Mohawk Oil",
      "name": "Mohawk"
    }
  },
  {
    "v": "Moil",
    "lbl": {"en": "Moil"},
    "countryCodes": ["tr"],
    "tags": {
      "amenity": "fuel",
      "brand": "Moil",
      "brand:wikidata": "Q62296914",
      "name": "Moil"
    }
  },
  {
    "v": "Morrisons",
    "lbl": {"en": "Morrisons"},
    "countryCodes": ["gb"],
    "nomatch": ["shop/supermarket|Morrisons"],
    "tags": {
      "amenity": "fuel",
      "brand": "Morrisons",
      "brand:wikidata": "Q922344",
      "brand:wikipedia": "en:Morrisons",
      "name": "Morrisons"
    }
  },
  {
    "v": "Moya",
    "lbl": {"en": "Moya"},
    "countryCodes": ["pl"],
    "tags": {
      "amenity": "fuel",
      "brand": "Moya",
      "brand:wikidata": "Q62297700",
      "name": "Moya"
    }
  },
  {
    "v": "Murco",
    "lbl": {"en": "Murco"},
    "countryCodes": ["gb"],
    "matchNames": ["murco petroleum"],
    "tags": {
      "amenity": "fuel",
      "brand": "Murco",
      "brand:wikidata": "Q16998281",
      "brand:wikipedia": "en:Murco Petroleum",
      "name": "Murco"
    }
  },
  {
    "v": "Murphy USA",
    "lbl": {"en": "Murphy USA"},
    "countryCodes": ["us"],
    "tags": {
      "amenity": "fuel",
      "brand": "Murphy USA",
      "brand:wikidata": "Q19604459",
      "brand:wikipedia": "en:Murphy USA",
      "name": "Murphy USA"
    }
  },
  {
    "v": "N1",
    "lbl": {"en": "N1"},
    "countryCodes": ["is"],
    "tags": {"amenity": "fuel", "brand": "N1", "name": "N1"}
  },
  {
    "v": "NP",
    "lbl": {"en": "NP"},
    "countryCodes": ["tt"],
    "tags": {
      "amenity": "fuel",
      "brand": "NP",
      "brand:wikidata": "Q7842382",
      "brand:wikipedia": "en:Trinidad & Tobago National Petroleum Marketing Company Limited",
      "name": "NP"
    }
  },
  {
    "v": "Neste",
    "lbl": {"en": "Neste"},
    "tags": {
      "amenity": "fuel",
      "brand": "Neste",
      "brand:wikidata": "Q616376",
      "brand:wikipedia": "en:Neste",
      "name": "Neste"
    }
  },
  {
    "v": "OIL!",
    "lbl": {"en": "OIL!"},
    "tags": {
      "amenity": "fuel",
      "brand": "OIL!",
      "brand:wikidata": "Q2007561",
      "brand:wikipedia": "de:OIL! Tankstellen",
      "name": "OIL!"
    }
  },
  {
    "v": "OK",
    "lbl": {"en": "OK"},
    "countryCodes": ["dk"],
    "tags": {
      "amenity": "fuel",
      "brand": "OK",
      "brand:wikidata": "Q12329785",
      "brand:wikipedia": "da:OK a.m.b.a.",
      "name": "OK"
    }
  },
  {
    "v": "OKQ8",
    "lbl": {"en": "OKQ8"},
    "countryCodes": ["se"],
    "tags": {
      "amenity": "fuel",
      "brand": "OKQ8",
      "brand:wikidata": "Q1634762",
      "brand:wikipedia": "en:Kuwait Petroleum Corporation",
      "name": "OKQ8"
    }
  },
  {
    "v": "OMV",
    "lbl": {"en": "OMV"},
    "tags": {
      "amenity": "fuel",
      "brand": "OMV",
      "brand:wikidata": "Q168238",
      "brand:wikipedia": "en:OMV",
      "name": "OMV"
    }
  },
  {
    "v": "Octa+",
    "lbl": {"en": "Octa+"},
    "tags": {"amenity": "fuel", "brand": "Octa+", "name": "Octa+"}
  },
  {
    "v": "Oilibya",
    "lbl": {"en": "Oilibya"},
    "matchNames": [
      "oilibia",
      "oilibiya",
      "oillibia",
      "oilliby",
      "oillibya",
      "oillybia",
      "oilybia",
      "olibya",
      "olybia"
    ],
    "tags": {
      "amenity": "fuel",
      "brand": "Oilibya",
      "brand:wikidata": "Q7081491",
      "brand:wikipedia": "en:Oilibya",
      "name": "Oilibya",
      "name:ar": "أويليبيا"
    }
  },
  {
    "v": "Olerex",
    "lbl": {"en": "Olerex"},
    "countryCodes": ["ee"],
    "tags": {
      "amenity": "fuel",
      "brand": "Olerex",
      "brand:wikidata": "Q16931205",
      "brand:wikipedia": "et:AS Olerex",
      "name": "Olerex"
    }
  },
  {
    "v": "Opet",
    "lbl": {"en": "Opet"},
    "countryCodes": ["tr"],
    "tags": {
      "amenity": "fuel",
      "brand": "Opet",
      "brand:wikidata": "Q7072824",
      "brand:wikipedia": "en:Opet",
      "name": "Opet"
    }
  },
  {
    "v": "Orlen",
    "lbl": {"en": "Orlen"},
    "nomatch": ["shop/convenience|Orlen"],
    "tags": {
      "amenity": "fuel",
      "brand": "Orlen",
      "brand:wikidata": "Q971649",
      "brand:wikipedia": "en:PKN Orlen",
      "name": "Orlen"
    }
  },
  {
    "v": "Oxxo",
    "lbl": {"en": "Oxxo"},
    "nomatch": ["shop/convenience|Oxxo"],
    "tags": {
      "amenity": "fuel",
      "brand": "Oxxo",
      "brand:wikidata": "Q1342538",
      "brand:wikipedia": "es:Oxxo",
      "name": "Oxxo"
    }
  },
  {
    "v": "PSO",
    "lbl": {"en": "PSO"},
    "countryCodes": ["pk"],
    "matchNames": ["pso petrol pump"],
    "tags": {
      "amenity": "fuel",
      "brand": "PSO",
      "brand:wikidata": "Q2741455",
      "brand:wikipedia": "en:Pakistan State Oil",
      "name": "PSO"
    }
  },
  {
    "v": "PT",
    "lbl": {"en": "PT"},
    "countryCodes": ["th"],
    "tags": {
      "amenity": "fuel",
      "brand": "PT",
      "brand:wikidata": "Q62298612",
      "name": "PT"
    }
  },
  {
    "v": "PTT",
    "lbl": {"en": "PTT"},
    "nomatch": ["amenity/post_office|PTT"],
    "tags": {
      "amenity": "fuel",
      "brand": "PTT",
      "brand:wikidata": "Q1810389",
      "brand:wikipedia": "en:PTT Public Company Limited",
      "name": "PTT"
    }
  },
  {
    "v": "PV Oil",
    "lbl": {"en": "PV Oil"},
    "tags": {
      "amenity": "fuel",
      "brand": "PV Oil",
      "brand:wikidata": "Q2089536",
      "brand:wikipedia": "en:Petrovietnam",
      "name": "PV Oil"
    }
  },
  {
    "v": "Pacific Pride",
    "lbl": {"en": "Pacific Pride"},
    "countryCodes": ["us"],
    "tags": {
      "amenity": "fuel",
      "brand": "Pacific Pride",
      "brand:wikidata": "Q7122637",
      "brand:wikipedia": "en:Pacific Pride",
      "name": "Pacific Pride"
    }
  },
  {
    "v": "Pecsa",
    "lbl": {"en": "Pecsa"},
    "countryCodes": ["pe"],
    "tags": {
      "amenity": "fuel",
      "brand": "Pecsa",
      "brand:wikidata": "Q62299262",
      "name": "Pecsa"
    }
  },
  {
    "v": "Pemex",
    "lbl": {"en": "Pemex"},
    "countryCodes": ["mx"],
    "tags": {
      "amenity": "fuel",
      "brand": "Pemex",
      "brand:wikidata": "Q871308",
      "brand:wikipedia": "en:Pemex",
      "name": "Pemex"
    }
  },
  {
    "v": "Pertamina",
    "lbl": {"en": "Pertamina"},
    "countryCodes": ["id"],
    "tags": {
      "amenity": "fuel",
      "brand": "Pertamina",
      "brand:wikidata": "Q1641044",
      "brand:wikipedia": "en:Pertamina",
      "name": "Pertamina"
    }
  },
  {
    "v": "Petro",
    "lbl": {"en": "Petro"},
    "countryCodes": ["ca", "us"],
    "matchNames": ["petro stopping center"],
    "tags": {
      "alt_name": "Petro Stopping Centers",
      "amenity": "fuel",
      "brand": "Petro",
      "brand:wikidata": "Q64051305",
      "name": "Petro"
    }
  },
  {
    "v": "Petro-Canada",
    "lbl": {"en": "Petro-Canada"},
    "countryCodes": ["ca"],
    "nomatch": ["shop/convenience|Petro-Canada"],
    "tags": {
      "amenity": "fuel",
      "brand": "Petro-Canada",
      "brand:wikidata": "Q1208279",
      "brand:wikipedia": "en:Petro-Canada",
      "name": "Petro-Canada"
    }
  },
  {
    "v": "Petro-T",
    "lbl": {"en": "Petro-T"},
    "countryCodes": ["ca"],
    "tags": {
      "amenity": "fuel",
      "brand": "Petro-T",
      "brand:wikidata": "Q61743540",
      "name": "Petro-T"
    }
  },
  {
    "v": "PetroPerú",
    "lbl": {"en": "PetroPerú"},
    "countryCodes": ["pe"],
    "tags": {
      "amenity": "fuel",
      "brand": "PetroPerú",
      "brand:wikidata": "Q2506390",
      "brand:wikipedia": "es:Petroperú",
      "name": "PetroPerú"
    }
  },
  {
    "v": "Petrochina",
    "lbl": {"en": "Petrochina"},
    "countryCodes": ["cn"],
    "tags": {
      "amenity": "fuel",
      "brand": "Petrochina",
      "brand:wikidata": "Q503182",
      "brand:wikipedia": "en:PetroChina",
      "name": "Petrochina"
    }
  },
  {
    "v": "Petroecuador",
    "lbl": {"en": "Petroecuador"},
    "countryCodes": ["ec"],
    "tags": {
      "amenity": "fuel",
      "brand": "Petroecuador",
      "brand:wikidata": "Q1812822",
      "brand:wikipedia": "en:Petroecuador",
      "name": "Petroecuador"
    }
  },
  {
    "v": "Petrol Ofisi",
    "lbl": {"en": "Petrol Ofisi"},
    "tags": {
      "amenity": "fuel",
      "brand": "Petrol Ofisi",
      "brand:wikidata": "Q1278087",
      "brand:wikipedia": "en:Petrol Ofisi",
      "name": "Petrol Ofisi"
    }
  },
  {
    "v": "Petrolimex",
    "lbl": {"en": "Petrolimex"},
    "tags": {
      "amenity": "fuel",
      "brand": "Petrolimex",
      "brand:wikidata": "Q10831598",
      "brand:wikipedia": "en:Petrolimex",
      "name": "Petrolimex"
    }
  },
  {
    "v": "Petrolina",
    "lbl": {"en": "Petrolina"},
    "countryCodes": ["cy"],
    "tags": {
      "amenity": "fuel",
      "brand": "Petrolina",
      "brand:wikidata": "Q17013948",
      "brand:wikipedia": "en:Petrolina (company)",
      "name": "Petrolina"
    }
  },
  {
    "v": "Petrom",
    "lbl": {"en": "Petrom"},
    "tags": {
      "amenity": "fuel",
      "brand": "Petrom",
      "brand:wikidata": "Q1755034",
      "brand:wikipedia": "en:Petrom",
      "name": "Petrom"
    }
  },
  {
    "v": "Petron",
    "lbl": {"en": "Petron"},
    "countryCodes": ["ph"],
    "tags": {
      "amenity": "fuel",
      "brand": "Petron",
      "brand:wikidata": "Q7179011",
      "brand:wikipedia": "en:Petron Corporation",
      "name": "Petron"
    }
  },
  {
    "v": "Petronas",
    "lbl": {"en": "Petronas"},
    "tags": {
      "amenity": "fuel",
      "brand": "Petronas",
      "brand:wikidata": "Q221692",
      "brand:wikipedia": "en:Petronas",
      "name": "Petronas"
    }
  },
  {
    "v": "Petronor",
    "lbl": {"en": "Petronor"},
    "countryCodes": ["es"],
    "tags": {
      "amenity": "fuel",
      "brand": "Petronor",
      "brand:wikidata": "Q1726547",
      "brand:wikipedia": "es:Petronor",
      "name": "Petronor"
    }
  },
  {
    "v": "Phillips 66",
    "lbl": {"en": "Phillips 66"},
    "countryCodes": ["us"],
    "tags": {
      "amenity": "fuel",
      "brand": "Phillips 66",
      "brand:wikidata": "Q1656230",
      "brand:wikipedia": "en:Phillips 66",
      "name": "Phillips 66"
    }
  },
  {
    "v": "Phoenix",
    "lbl": {"en": "Phoenix"},
    "countryCodes": ["ph"],
    "tags": {
      "amenity": "fuel",
      "brand": "Phoenix",
      "brand:wikidata": "Q7186949",
      "brand:wikipedia": "en:Phoenix Petroleum",
      "name": "Phoenix"
    }
  },
  {
    "v": "Pilot",
    "lbl": {"en": "Pilot"},
    "countryCodes": ["ca", "us"],
    "matchNames": ["pilot travel centers"],
    "tags": {
      "amenity": "fuel",
      "brand": "Pilot",
      "brand:wikidata": "Q64128179",
      "name": "Pilot"
    }
  },
  {
    "v": "Pioneer",
    "lbl": {"en": "Pioneer"},
    "countryCodes": ["ca"],
    "tags": {
      "amenity": "fuel",
      "brand": "Pioneer",
      "brand:wikidata": "Q7196684",
      "brand:wikipedia": "en:Pioneer Energy",
      "name": "Pioneer"
    }
  },
  {
    "v": "Power",
    "lbl": {"en": "Power"},
    "tags": {"amenity": "fuel", "brand": "Power", "name": "Power"}
  },
  {
    "v": "Preem",
    "lbl": {"en": "Preem"},
    "countryCodes": ["pl", "se"],
    "tags": {
      "amenity": "fuel",
      "brand": "Preem",
      "brand:wikidata": "Q598835",
      "brand:wikipedia": "en:Preem",
      "name": "Preem"
    }
  },
  {
    "v": "Primax",
    "lbl": {"en": "Primax~(Ecuador)"},
    "countryCodes": ["ec"],
    "tags": {
      "amenity": "fuel",
      "brand": "Primax",
      "brand:wikidata": "Q62332857",
      "name": "Primax"
    }
  },
  {
    "v": "Primax",
    "lbl": {"en": "Primax~(Peru)"},
    "countryCodes": ["pe"],
    "tags": {
      "amenity": "fuel",
      "brand": "Primax",
      "brand:wikidata": "Q62332638",
      "name": "Primax"
    }
  },
  {
    "v": "Prio",
    "lbl": {"en": "Prio"},
    "countryCodes": ["pt"],
    "tags": {
      "amenity": "fuel",
      "brand": "Prio",
      "brand:wikidata": "Q62530421",
      "name": "Prio"
    }
  },
  {
    "v": "Puma",
    "lbl": {"en": "Puma"},
    "nomatch": ["shop/clothes|Puma"],
    "tags": {
      "amenity": "fuel",
      "brand": "Puma",
      "brand:wikidata": "Q7259769",
      "brand:wikipedia": "en:Puma Energy",
      "name": "Puma"
    }
  },
  {
    "v": "Q1",
    "lbl": {"en": "Q1"},
    "countryCodes": ["de"],
    "tags": {
      "amenity": "fuel",
      "brand": "Q1",
      "brand:wikidata": "Q62086498",
      "name": "Q1"
    }
  },
  {
    "v": "Q8",
    "lbl": {"en": "Q8"},
    "countryCodes": ["be", "dk", "es", "it", "lu", "nl", "pt"],
    "tags": {
      "amenity": "fuel",
      "brand": "Q8",
      "brand:wikidata": "Q1634762",
      "brand:wikipedia": "en:Kuwait Petroleum Corporation",
      "name": "Q8"
    }
  },
  {
    "v": "Q8 Easy",
    "lbl": {"en": "Q8 Easy"},
    "countryCodes": ["be", "it"],
    "tags": {
      "amenity": "fuel",
      "brand": "Q8 Easy",
      "brand:wikidata": "Q1806948",
      "brand:wikipedia": "nl:Q8 Easy",
      "name": "Q8 Easy"
    }
  },
  {
    "v": "Qstar",
    "lbl": {"en": "Qstar"},
    "countryCodes": ["se"],
    "tags": {
      "amenity": "fuel",
      "brand": "Qstar",
      "brand:wikidata": "Q10647961",
      "brand:wikipedia": "sv:Qstar",
      "name": "Qstar"
    }
  },
  {
    "v": "QuickChek",
    "lbl": {"en": "QuickChek"},
    "countryCodes": ["us"],
    "nomatch": ["shop/convenience|QuickChek"],
    "tags": {
      "amenity": "fuel",
      "brand": "QuickChek",
      "brand:wikidata": "Q7271689",
      "brand:wikipedia": "en:QuickChek",
      "name": "QuickChek"
    }
  },
  {
    "v": "QuikTrip",
    "lbl": {"en": "QuikTrip"},
    "matchNames": ["qt"],
    "nomatch": ["shop/convenience|QuikTrip"],
    "tags": {
      "amenity": "fuel",
      "brand": "QuikTrip",
      "brand:wikidata": "Q7271953",
      "brand:wikipedia": "en:QuikTrip",
      "name": "QuikTrip"
    }
  },
  {
    "v": "RaceTrac",
    "lbl": {"en": "RaceTrac"},
    "nomatch": ["shop/convenience|RaceTrac"],
    "tags": {
      "amenity": "fuel",
      "brand": "RaceTrac",
      "brand:wikidata": "Q735942",
      "brand:wikipedia": "en:RaceTrac",
      "name": "RaceTrac"
    }
  },
  {
    "v": "RaceWay",
    "lbl": {"en": "RaceWay"},
    "countryCodes": ["us"],
    "nomatch": ["shop/convenience|RaceWay"],
    "tags": {
      "amenity": "fuel",
      "brand": "RaceWay",
      "brand:wikidata": "Q73039084",
      "name": "RaceWay"
    }
  },
  {
    "v": "Raiffeisen",
    "lbl": {"en": "Raiffeisen"},
    "countryCodes": ["de"],
    "nomatch": [
      "amenity/bank|Raiffeisen Polbank",
      "amenity/bank|Raiffeisenbank~(Albania)",
      "amenity/bank|Raiffeisenbank~(Bulgaria)",
      "amenity/bank|Raiffeisenbank~(Czech Republic)",
      "amenity/bank|Raiffeisenbank~(Romania)",
      "amenity/bank|Raiffeisenbank~(Serbia)",
      "amenity/bank|Райффайзен",
      "amenity/bank|Райффайзен Банк Аваль"
    ],
    "tags": {"amenity": "fuel", "brand": "Raiffeisen", "name": "Raiffeisen"}
  },
  {
    "v": "Repsol",
    "lbl": {"en": "Repsol"},
    "tags": {
      "amenity": "fuel",
      "brand": "Repsol",
      "brand:wikidata": "Q174747",
      "brand:wikipedia": "es:Repsol",
      "name": "Repsol"
    }
  },
  {
    "v": "Revoil",
    "lbl": {"en": "Revoil"},
    "countryCodes": ["gr"],
    "tags": {
      "amenity": "fuel",
      "brand": "Revoil",
      "brand:wikidata": "Q62530755",
      "name": "Revoil"
    }
  },
  {
    "v": "Rompetrol",
    "lbl": {"en": "Rompetrol"},
    "tags": {
      "amenity": "fuel",
      "brand": "Rompetrol",
      "brand:wikidata": "Q1788862",
      "brand:wikipedia": "en:Rompetrol",
      "name": "Rompetrol"
    }
  },
  {
    "v": "Royal Farms",
    "lbl": {"en": "Royal Farms"},
    "countryCodes": ["us"],
    "nomatch": ["shop/convenience|Royal Farms"],
    "tags": {
      "amenity": "fuel",
      "brand": "Royal Farms",
      "brand:wikidata": "Q7374169",
      "brand:wikipedia": "en:Royal Farms",
      "name": "Royal Farms"
    }
  },
  {
    "v": "Rubis",
    "lbl": {"en": "Rubis"},
    "tags": {
      "amenity": "fuel",
      "brand": "Rubis",
      "brand:wikidata": "Q3446514",
      "brand:wikipedia": "en:Rubis (company)",
      "name": "Rubis"
    }
  },
  {
    "v": "Rutter's",
    "lbl": {"en": "Rutter's"},
    "countryCodes": ["us"],
    "nomatch": ["shop/convenience|Rutter's"],
    "tags": {
      "amenity": "fuel",
      "brand": "Rutter's",
      "brand:wikidata": "Q7383544",
      "brand:wikipedia": "en:Rutter's",
      "name": "Rutter's"
    }
  },
  {
    "v": "SK주유소",
    "lbl": {"en": "SK주유소"},
    "countryCodes": ["kr"],
    "tags": {
      "amenity": "fuel",
      "brand": "SK주유소",
      "brand:ko": "SK주유소",
      "name": "SK주유소",
      "name:ko": "SK주유소"
    }
  },
  {
    "v": "SP",
    "lbl": {"en": "SP"},
    "tags": {"amenity": "fuel", "brand": "SP", "name": "SP"}
  },
  {
    "v": "Safeway",
    "lbl": {"en": "Safeway"},
    "nomatch": ["amenity/pharmacy|Safeway", "shop/supermarket|Safeway"],
    "tags": {
      "amenity": "fuel",
      "brand": "Safeway",
      "brand:wikidata": "Q1508234",
      "brand:wikipedia": "en:Safeway Inc.",
      "name": "Safeway"
    }
  },
  {
    "v": "Sainsbury's",
    "lbl": {"en": "Sainsbury's"},
    "countryCodes": ["gb"],
    "nomatch": ["shop/supermarket|Sainsbury's"],
    "tags": {
      "amenity": "fuel",
      "brand": "Sainsbury's",
      "brand:wikidata": "Q152096",
      "brand:wikipedia": "en:Sainsbury's",
      "name": "Sainsbury's"
    }
  },
  {
    "v": "Sam's Club",
    "lbl": {"en": "Sam's Club"},
    "matchNames": ["sams club fuel center", "sams club gas"],
    "nomatch": ["shop/wholesale|Sam's Club"],
    "tags": {
      "amenity": "fuel",
      "brand": "Sam's Club",
      "brand:wikidata": "Q1972120",
      "brand:wikipedia": "en:Sam's Club",
      "name": "Sam's Club"
    }
  },
  {
    "v": "Sasol",
    "lbl": {"en": "Sasol"},
    "countryCodes": ["za"],
    "tags": {
      "amenity": "fuel",
      "brand": "Sasol",
      "brand:wikidata": "Q905998",
      "brand:wikipedia": "en:Sasol",
      "name": "Sasol"
    }
  },
  {
    "v": "Sea Oil",
    "lbl": {"en": "Sea Oil"},
    "countryCodes": ["ph"],
    "tags": {
      "amenity": "fuel",
      "brand": "Sea Oil",
      "brand:wikidata": "Q7389549",
      "brand:wikipedia": "en:Seaoil Philippines",
      "name": "Sea Oil"
    }
  },
  {
    "v": "Sheetz",
    "lbl": {"en": "Sheetz"},
    "nomatch": ["shop/convenience|Sheetz"],
    "tags": {
      "amenity": "fuel",
      "brand": "Sheetz",
      "brand:wikidata": "Q7492551",
      "brand:wikipedia": "en:Sheetz",
      "name": "Sheetz"
    }
  },
  {
    "v": "Shell",
    "lbl": {"en": "Shell"},
    "matchNames": [
      "posto shell",
      "shell gas station",
      "shell petrol station",
      "shell station",
      "station shell"
    ],
    "nomatch": ["amenity/fuel|Shell Express", "shop/convenience|Shell Select"],
    "tags": {
      "amenity": "fuel",
      "brand": "Shell",
      "brand:wikidata": "Q154950",
      "brand:wikipedia": "en:Royal Dutch Shell",
      "name": "Shell"
    }
  },
  {
    "v": "Shell Express",
    "lbl": {"en": "Shell Express"},
    "nomatch": ["amenity/fuel|Shell", "shop/convenience|Shell Select"],
    "tags": {
      "amenity": "fuel",
      "brand": "Shell Express",
      "brand:wikidata": "Q2289188",
      "brand:wikipedia": "nl:Shell Express",
      "name": "Shell Express"
    }
  },
  {
    "v": "Sinclair",
    "lbl": {"en": "Sinclair"},
    "countryCodes": ["us"],
    "tags": {
      "amenity": "fuel",
      "brand": "Sinclair",
      "brand:wikidata": "Q1290900",
      "brand:wikipedia": "en:Sinclair Oil Corporation",
      "name": "Sinclair"
    }
  },
  {
    "v": "Slovnaft",
    "lbl": {"en": "Slovnaft"},
    "countryCodes": ["cz", "pl", "sk"],
    "tags": {
      "amenity": "fuel",
      "brand": "Slovnaft",
      "brand:wikidata": "Q1587563",
      "brand:wikipedia": "en:Slovnaft",
      "name": "Slovnaft"
    }
  },
  {
    "v": "Socar",
    "lbl": {"en": "Socar"},
    "tags": {
      "amenity": "fuel",
      "brand": "Socar",
      "brand:wikidata": "Q1622293",
      "brand:wikipedia": "en:SOCAR",
      "name": "Socar"
    }
  },
  {
    "v": "Sokimex",
    "lbl": {"en": "Sokimex"},
    "countryCodes": ["kh"],
    "tags": {
      "amenity": "fuel",
      "brand": "Sokimex",
      "brand:wikidata": "Q1149575",
      "brand:wikipedia": "en:Sokimex",
      "name": "Sokimex"
    }
  },
  {
    "v": "Sonic",
    "lbl": {"en": "Sonic"},
    "countryCodes": ["ca"],
    "nomatch": ["amenity/fast_food|Sonic"],
    "tags": {"amenity": "fuel", "brand": "Sonic", "name": "Sonic"}
  },
  {
    "v": "Speedway",
    "lbl": {"en": "Speedway"},
    "nomatch": ["shop/convenience|Speedway"],
    "tags": {
      "amenity": "fuel",
      "brand": "Speedway",
      "brand:wikidata": "Q7575683",
      "brand:wikipedia": "en:Speedway LLC",
      "name": "Speedway"
    }
  },
  {
    "v": "Sprint",
    "lbl": {"en": "Sprint"},
    "countryCodes": ["de"],
    "nomatch": ["shop/mobile_phone|Sprint"],
    "tags": {
      "amenity": "fuel",
      "brand": "Sprint",
      "brand:wikidata": "Q57588452",
      "name": "Sprint"
    }
  },
  {
    "v": "St1",
    "lbl": {"en": "St1"},
    "countryCodes": ["fi", "se"],
    "tags": {
      "amenity": "fuel",
      "brand": "St1",
      "brand:wikidata": "Q7592214",
      "brand:wikipedia": "en:St1",
      "name": "St1"
    }
  },
  {
    "v": "Star",
    "lbl": {"en": "Star"},
    "countryCodes": ["de"],
    "tags": {
      "amenity": "fuel",
      "brand": "Star",
      "brand:wikidata": "Q2031095",
      "brand:wikipedia": "de:Orlen Deutschland",
      "name": "Star"
    }
  },
  {
    "v": "Star Oil",
    "lbl": {"en": "Star Oil"},
    "tags": {"amenity": "fuel", "brand": "Star Oil", "name": "Star Oil"}
  },
  {
    "v": "E.Leclerc",
    "lbl": {"en": "Station Service E. Leclerc"},
    "matchNames": ["e. leclerc"],
    "tags": {
      "amenity": "fuel",
      "brand": "E.Leclerc",
      "brand:wikidata": "Q1273376",
      "brand:wikipedia": "fr:E.Leclerc",
      "name": "Station Service E. Leclerc"
    }
  },
  {
    "v": "Statoil",
    "lbl": {"en": "Statoil"},
    "countryCodes": ["dk", "ee", "ie", "pl", "ru", "se"],
    "tags": {
      "amenity": "fuel",
      "brand": "Statoil",
      "brand:wikidata": "Q1776022",
      "brand:wikipedia": "en:Equinor",
      "name": "Statoil"
    }
  },
  {
    "v": "Stewart's",
    "lbl": {"en": "Stewart's"},
    "countryCodes": ["us"],
    "nomatch": ["shop/convenience|Stewart's"],
    "tags": {
      "amenity": "fuel",
      "brand": "Stewart's",
      "brand:wikidata": "Q7615690",
      "brand:wikipedia": "en:Stewart's Shops",
      "name": "Stewart's"
    }
  },
  {
    "v": "Sunoco",
    "lbl": {"en": "Sunoco"},
    "nomatch": ["shop/convenience|Sunoco"],
    "tags": {
      "amenity": "fuel",
      "brand": "Sunoco",
      "brand:wikidata": "Q1423218",
      "brand:wikipedia": "en:Sunoco",
      "name": "Sunoco"
    }
  },
  {
    "v": "Super U",
    "lbl": {"en": "Super U"},
    "countryCodes": ["fr"],
    "nomatch": [
      "shop/convenience|Utile",
      "shop/supermarket|Hyper U",
      "shop/supermarket|Super U",
      "shop/supermarket|U Express"
    ],
    "tags": {
      "amenity": "fuel",
      "brand": "Super U",
      "brand:wikidata": "Q2529029",
      "brand:wikipedia": "en:Système U",
      "name": "Super U"
    }
  },
  {
    "v": "Susco",
    "lbl": {"en": "Susco"},
    "countryCodes": ["th"],
    "tags": {"amenity": "fuel", "brand": "Susco", "name": "Susco"}
  },
  {
    "v": "TA",
    "lbl": {"en": "TA"},
    "countryCodes": ["us"],
    "tags": {
      "amenity": "fuel",
      "brand": "TA",
      "brand:wikidata": "Q7835892",
      "brand:wikipedia": "en:TravelCenters of America",
      "name": "TA"
    }
  },
  {
    "v": "Tamoil",
    "lbl": {"en": "Tamoil"},
    "countryCodes": ["ch", "de", "es", "fr", "it", "nl"],
    "tags": {
      "amenity": "fuel",
      "brand": "Tamoil",
      "brand:wikidata": "Q706793",
      "brand:wikipedia": "en:Tamoil",
      "name": "Tamoil"
    }
  },
  {
    "v": "Tango",
    "lbl": {"en": "Tango"},
    "countryCodes": ["nl"],
    "tags": {
      "amenity": "fuel",
      "brand": "Tango",
      "brand:wikidata": "Q2423920",
      "brand:wikipedia": "nl:Tango CV",
      "name": "Tango"
    }
  },
  {
    "v": "Tanka",
    "lbl": {"en": "Tanka"},
    "countryCodes": ["se"],
    "tags": {
      "amenity": "fuel",
      "brand": "Tanka",
      "brand:wikidata": "Q10690640",
      "brand:wikipedia": "sv:Tanka (bensinstationskedja)",
      "name": "Tanka"
    }
  },
  {
    "v": "Teboil",
    "lbl": {"en": "Teboil"},
    "countryCodes": ["fi"],
    "tags": {
      "amenity": "fuel",
      "brand": "Teboil",
      "brand:wikidata": "Q7692079",
      "brand:wikipedia": "en:Teboil",
      "name": "Teboil"
    }
  },
  {
    "v": "Tela",
    "lbl": {"en": "Tela"},
    "countryCodes": ["kh"],
    "tags": {
      "amenity": "fuel",
      "brand": "Tela",
      "brand:wikidata": "Q62534875",
      "name": "Tela"
    }
  },
  {
    "v": "Tempo",
    "lbl": {"en": "Tempo"},
    "countryCodes": ["ca"],
    "tags": {
      "amenity": "fuel",
      "brand": "Tempo",
      "brand:wikidata": "Q62535175",
      "name": "Tempo"
    }
  },
  {
    "v": "Terpel",
    "lbl": {"en": "Terpel"},
    "tags": {
      "amenity": "fuel",
      "brand": "Terpel",
      "brand:wikidata": "Q7703003",
      "brand:wikipedia": "en:Terpel",
      "name": "Terpel"
    }
  },
  {
    "v": "Terrible's",
    "lbl": {"en": "Terrible's"},
    "countryCodes": ["us"],
    "tags": {
      "amenity": "fuel",
      "brand": "Terrible's",
      "brand:wikidata": "Q7703648",
      "brand:wikipedia": "en:Terrible Herbst",
      "name": "Terrible's"
    }
  },
  {
    "v": "Tesco",
    "lbl": {"en": "Tesco"},
    "nomatch": ["shop/convenience|Tesco"],
    "tags": {
      "amenity": "fuel",
      "brand": "Tesco",
      "brand:wikidata": "Q17145596",
      "brand:wikipedia": "en:Tesco Corporation",
      "name": "Tesco"
    }
  },
  {
    "v": "Tesoro",
    "lbl": {"en": "Tesoro"},
    "countryCodes": ["us"],
    "tags": {"amenity": "fuel", "brand": "Tesoro", "name": "Tesoro"}
  },
  {
    "v": "Texaco",
    "lbl": {"en": "Texaco"},
    "nomatch": ["shop/convenience|Texaco"],
    "tags": {
      "amenity": "fuel",
      "brand": "Texaco",
      "brand:wikidata": "Q775060",
      "brand:wikipedia": "en:Texaco",
      "name": "Texaco"
    }
  },
  {
    "v": "Thorntons",
    "lbl": {"en": "Thorntons"},
    "countryCodes": ["us"],
    "nomatch": ["shop/confectionery|Thorntons", "shop/convenience|Thorntons"],
    "tags": {
      "amenity": "fuel",
      "brand": "Thorntons",
      "brand:wikidata": "Q7796584",
      "brand:wikipedia": "en:Thorntons LLC",
      "name": "Thorntons"
    }
  },
  {
    "v": "Tinq",
    "lbl": {"en": "Tinq"},
    "countryCodes": ["nl"],
    "tags": {
      "amenity": "fuel",
      "brand": "Tinq",
      "brand:wikidata": "Q2132028",
      "brand:wikipedia": "nl:Tinq",
      "name": "Tinq"
    }
  },
  {
    "v": "Top",
    "lbl": {"en": "Top"},
    "countryCodes": ["ie"],
    "matchNames": ["top oil"],
    "tags": {
      "amenity": "fuel",
      "brand": "Top",
      "brand:wikidata": "Q7693933",
      "brand:wikipedia": "en:Tedcastles Oil Products",
      "name": "Top",
      "official_name": "Tedcastles Oil Products"
    }
  },
  {
    "v": "Topaz",
    "lbl": {"en": "Topaz"},
    "countryCodes": ["ie"],
    "tags": {
      "amenity": "fuel",
      "brand": "Topaz",
      "brand:wikidata": "Q7824764",
      "brand:wikipedia": "en:Topaz Energy",
      "name": "Topaz"
    }
  },
  {
    "v": "Total",
    "lbl": {"en": "Total"},
    "matchNames": ["station total"],
    "nomatch": ["shop/convenience|Total"],
    "tags": {
      "amenity": "fuel",
      "brand": "Total",
      "brand:wikidata": "Q154037",
      "brand:wikipedia": "fr:Total (entreprise)",
      "name": "Total"
    }
  },
  {
    "v": "Total Access",
    "lbl": {"en": "Total Access"},
    "countryCodes": ["fr"],
    "tags": {
      "amenity": "fuel",
      "brand": "Total Access",
      "brand:wikidata": "Q154037",
      "brand:wikipedia": "fr:Total (entreprise)",
      "name": "Total Access"
    }
  },
  {
    "v": "TotalErg",
    "lbl": {"en": "TotalErg"},
    "countryCodes": ["it"],
    "tags": {
      "amenity": "fuel",
      "brand": "TotalErg",
      "brand:wikidata": "Q3995933",
      "brand:wikipedia": "it:TotalErg",
      "name": "TotalErg"
    }
  },
  {
    "v": "Turkey Hill",
    "lbl": {"en": "Turkey Hill"},
    "countryCodes": ["us"],
    "nomatch": ["shop/convenience|Turkey Hill"],
    "tags": {
      "amenity": "fuel",
      "brand": "Turkey Hill",
      "brand:wikidata": "Q42376970",
      "brand:wikipedia": "en:Turkey Hill Minit Markets",
      "name": "Turkey Hill"
    }
  },
  {
    "v": "Turmöl",
    "lbl": {"en": "Turmöl"},
    "countryCodes": ["at"],
    "tags": {
      "amenity": "fuel",
      "brand": "Turmöl",
      "brand:wikidata": "Q1473279",
      "brand:wikipedia": "de:Turmöl",
      "name": "Turmöl"
    }
  },
  {
    "v": "United Dairy Farmers",
    "lbl": {"en": "UDF Fuel"},
    "countryCodes": ["us"],
    "matchNames": ["udf fuels", "united dairy farmers"],
    "nomatch": ["shop/convenience|United Dairy Farmers"],
    "tags": {
      "amenity": "fuel",
      "brand": "United Dairy Farmers",
      "brand:wikidata": "Q7887677",
      "brand:wikipedia": "en:United Dairy Farmers",
      "name": "UDF Fuel",
      "short_name": "UDF"
    }
  },
  {
    "v": "USA Gasoline",
    "lbl": {"en": "USA Gasoline"},
    "countryCodes": ["us"],
    "tags": {
      "amenity": "fuel",
      "brand": "USA Gasoline",
      "brand:wikidata": "Q17126373",
      "brand:wikipedia": "en:USA Gasoline",
      "name": "USA Gasoline"
    }
  },
  {
    "v": "Ultramar",
    "lbl": {"en": "Ultramar"},
    "nomatch": ["shop/convenience|Ultramar"],
    "tags": {
      "amenity": "fuel",
      "brand": "Ultramar",
      "brand:wikidata": "Q3548078",
      "brand:wikipedia": "en:Ultramar",
      "name": "Ultramar"
    }
  },
  {
    "v": "United",
    "lbl": {"en": "United"},
    "countryCodes": ["au"],
    "matchNames": ["united petroleum"],
    "nomatch": [
      "amenity/bank|United Bank~(Connecticut)",
      "amenity/bank|United Bank~(West Virginia)",
      "shop/convenience|United"
    ],
    "tags": {
      "amenity": "fuel",
      "brand": "United",
      "brand:wikidata": "Q28224393",
      "brand:wikipedia": "en:United Petroleum",
      "name": "United"
    }
  },
  {
    "v": "Uno",
    "lbl": {"en": "Uno"},
    "countryCodes": ["bz", "cr", "gt", "hn", "ni", "sv"],
    "tags": {
      "amenity": "fuel",
      "brand": "Uno",
      "brand:wikidata": "Q62535574",
      "name": "Uno"
    }
  },
  {
    "v": "Uno-X",
    "lbl": {"en": "Uno-X"},
    "countryCodes": ["dk"],
    "tags": {
      "amenity": "fuel",
      "brand": "Uno-X",
      "brand:wikidata": "Q3362746",
      "brand:wikipedia": "en:Uno-X",
      "name": "Uno-X"
    }
  },
  {
    "v": "Valero",
    "lbl": {"en": "Valero"},
    "nomatch": ["shop/convenience|Valero"],
    "tags": {
      "amenity": "fuel",
      "brand": "Valero",
      "brand:wikidata": "Q1283291",
      "brand:wikipedia": "en:Valero Energy",
      "name": "Valero"
    }
  },
  {
    "v": "Viada",
    "lbl": {"en": "Viada"},
    "countryCodes": ["lt", "lv"],
    "tags": {
      "amenity": "fuel",
      "brand": "Viada",
      "brand:wikidata": "Q12663942",
      "brand:wikipedia": "en:Lukoil Baltija",
      "name": "Viada"
    }
  },
  {
    "v": "Vito",
    "lbl": {"en": "Vito"},
    "countryCodes": ["fr"],
    "tags": {
      "amenity": "fuel",
      "brand": "Vito",
      "brand:wikidata": "Q62536473",
      "name": "Vito"
    }
  },
  {
    "v": "WOG",
    "lbl": {"en": "WOG"},
    "countryCodes": ["ua"],
    "tags": {
      "amenity": "fuel",
      "brand": "WOG",
      "brand:wikidata": "Q12072939",
      "brand:wikipedia": "en:WOG (gas stations)",
      "name": "WOG"
    }
  },
  {
    "v": "Walmart",
    "lbl": {"en": "Walmart"},
    "nomatch": [
      "shop/department_store|Walmart",
      "shop/supermarket|Walmart Neighborhood Market",
      "shop/supermarket|Walmart Supercenter"
    ],
    "tags": {
      "amenity": "fuel",
      "brand": "Walmart",
      "brand:wikidata": "Q62606411",
      "brand:wikipedia": "en:Walmart",
      "name": "Walmart"
    }
  },
  {
    "v": "Wawa",
    "lbl": {"en": "Wawa"},
    "nomatch": ["shop/convenience|Wawa"],
    "tags": {
      "amenity": "fuel",
      "brand": "Wawa",
      "brand:wikidata": "Q5936320",
      "brand:wikipedia": "en:Wawa (company)",
      "name": "Wawa"
    }
  },
  {
    "v": "Westfalen",
    "lbl": {"en": "Westfalen"},
    "countryCodes": ["de"],
    "tags": {
      "amenity": "fuel",
      "brand": "Westfalen",
      "brand:wikidata": "Q1411209",
      "brand:wikipedia": "en:Westfalen AG",
      "name": "Westfalen"
    }
  },
  {
    "v": "Caltex",
    "lbl": {"en": "Woolworths Petrol"},
    "countryCodes": ["au"],
    "nomatch": ["shop/convenience|Woolworths Petrol"],
    "tags": {
      "amenity": "fuel",
      "brand": "Caltex",
      "brand:wikidata": "Q5023980",
      "brand:wikipedia": "en:Caltex Woolworths",
      "name": "Woolworths Petrol"
    }
  },
  {
    "v": "XTR",
    "lbl": {"en": "XTR"},
    "countryCodes": ["ca"],
    "tags": {
      "amenity": "fuel",
      "brand": "XTR",
      "brand:wikidata": "Q62537250",
      "name": "XTR"
    }
  },
  {
    "v": "YPF",
    "lbl": {"en": "YPF"},
    "tags": {
      "amenity": "fuel",
      "brand": "YPF",
      "brand:wikidata": "Q2006989",
      "brand:wikipedia": "en:YPF",
      "name": "YPF"
    }
  },
  {
    "v": "YX Energi",
    "lbl": {"en": "YX Energi"},
    "countryCodes": ["dk", "no"],
    "tags": {
      "amenity": "fuel",
      "brand": "YX Energi",
      "brand:wikidata": "Q4580519",
      "brand:wikipedia": "en:YX Energi",
      "name": "YX Energi"
    }
  },
  {
    "v": "Z",
    "lbl": {"en": "Z"},
    "countryCodes": ["nz"],
    "nomatch": ["shop/clothes|Z"],
    "tags": {
      "amenity": "fuel",
      "brand": "Z",
      "brand:wikidata": "Q8063337",
      "brand:wikipedia": "en:Z Energy",
      "name": "Z"
    }
  },
  {
    "v": "bft",
    "lbl": {"en": "bft"},
    "countryCodes": ["de"],
    "tags": {
      "amenity": "fuel",
      "brand": "bft",
      "brand:wikidata": "Q1009104",
      "brand:wikipedia": "de:Bundesverband freier Tankstellen",
      "name": "bft"
    }
  },
  {
    "v": "din-X",
    "lbl": {"en": "din-X"},
    "countryCodes": ["se"],
    "tags": {
      "amenity": "fuel",
      "brand": "din-X",
      "brand:wikidata": "Q10472858",
      "brand:wikipedia": "sv:Din-X",
      "name": "din-X"
    }
  },
  {
    "v": "uSmile 昆仑好",
    "lbl": {"en": "uSmile 昆仑好"},
    "countryCodes": ["cn"],
    "matchNames": ["usmile", "usmile 便利店", "昆仑好"],
    "nomatch": ["shop/convenience|uSmile 昆仑好"],
    "tags": {
      "amenity": "fuel",
      "brand": "uSmile 昆仑好",
      "brand:en": "uSmile",
      "brand:wikidata": "Q66480830",
      "brand:zh": "uSmile 便利店",
      "name": "uSmile 昆仑好",
      "name:en": "uSmile",
      "name:zh": "uSmile 便利店"
    }
  },
  {
    "v": "Авіас",
    "lbl": {"en": "Авіас"},
    "countryCodes": ["ua"],
    "tags": {
      "amenity": "fuel",
      "brand": "Авіас",
      "brand:wikidata": "Q12122687",
      "brand:wikipedia": "uk:Мережа АЗС Приват",
      "name": "Авіас"
    }
  },
  {
    "v": "БРСМ-Нафта",
    "lbl": {"en": "БРСМ-Нафта"},
    "countryCodes": ["ua"],
    "tags": {
      "amenity": "fuel",
      "brand": "БРСМ-Нафта",
      "brand:wikidata": "Q56356523",
      "brand:wikipedia": "uk:БРСМ-Нафта",
      "name": "БРСМ-Нафта"
    }
  },
  {
    "v": "Башнефть",
    "lbl": {"en": "Башнефть"},
    "countryCodes": ["ru"],
    "tags": {
      "amenity": "fuel",
      "brand": "Башнефть",
      "brand:en": "Bashneft",
      "brand:wikidata": "Q809985",
      "brand:wikipedia": "en:Bashneft",
      "name": "Башнефть",
      "name:en": "Bashneft"
    }
  },
  {
    "v": "Белоруснефть",
    "lbl": {"en": "Белоруснефть"},
    "countryCodes": ["by"],
    "tags": {
      "amenity": "fuel",
      "brand": "Белоруснефть",
      "brand:wikidata": "Q4082693",
      "brand:wikipedia": "ru:Белоруснефть",
      "name": "Белоруснефть"
    }
  },
  {
    "v": "Газпромнефть",
    "lbl": {"en": "Газпромнефть"},
    "countryCodes": ["by", "kg", "kz", "ru", "tj"],
    "matchNames": ["газпром"],
    "tags": {
      "amenity": "fuel",
      "brand": "Газпромнефть",
      "brand:wikidata": "Q1461799",
      "brand:wikipedia": "en:Gazprom Neft",
      "name": "Газпромнефть"
    }
  },
  {
    "v": "Гелиос",
    "lbl": {"en": "Гелиос"},
    "countryCodes": ["kz"],
    "matchNames": ["helios"],
    "tags": {
      "amenity": "fuel",
      "brand": "Гелиос",
      "brand:en": "Helios",
      "brand:wikidata": "Q62286471",
      "name": "Гелиос",
      "name:en": "Helios"
    }
  },
  {
    "v": "Движение",
    "lbl": {"en": "Движение"},
    "tags": {"amenity": "fuel", "brand": "Движение", "name": "Движение"}
  },
  {
    "v": "ЕКА",
    "lbl": {"en": "ЕКА"},
    "countryCodes": ["ru"],
    "tags": {
      "amenity": "fuel",
      "brand": "ЕКА",
      "brand:wikidata": "Q62543029",
      "name": "ЕКА"
    }
  },
  {
    "v": "КЛО",
    "lbl": {"en": "КЛО"},
    "countryCodes": ["ua"],
    "tags": {
      "amenity": "fuel",
      "brand": "КЛО",
      "brand:en": "Klo",
      "brand:wikidata": "Q60966526",
      "brand:wikipedia": "ru:КЛО (сеть АЗС)",
      "name": "КЛО",
      "name:en": "Klo"
    }
  },
  {
    "v": "КазМунайГаз",
    "lbl": {"en": "КазМунайГаз"},
    "countryCodes": ["kz"],
    "nomatch": ["shop/convenience|КазМунайГаз"],
    "tags": {
      "amenity": "fuel",
      "brand": "КазМунайГаз",
      "brand:wikidata": "Q1417227",
      "brand:wikipedia": "en:KazMunayGas",
      "name": "КазМунайГаз"
    }
  },
  {
    "v": "Лукойл",
    "lbl": {"en": "Лукойл"},
    "matchNames": ["лукоил"],
    "nomatch": ["shop/convenience|Лукойл"],
    "tags": {
      "amenity": "fuel",
      "brand": "Лукойл",
      "brand:wikidata": "Q329347",
      "brand:wikipedia": "ru:Лукойл",
      "name": "Лукойл"
    }
  },
  {
    "v": "Макпетрол",
    "lbl": {"en": "Макпетрол"},
    "countryCodes": ["mk"],
    "tags": {
      "amenity": "fuel",
      "brand": "Макпетрол",
      "brand:wikidata": "Q1886438",
      "brand:wikipedia": "en:Makpetrol",
      "name": "Макпетрол"
    }
  },
  {
    "v": "НК Альянс",
    "lbl": {"en": "НК Альянс"},
    "countryCodes": ["ru"],
    "tags": {
      "amenity": "fuel",
      "brand": "НК Альянс",
      "brand:en": "Alliance Oil",
      "brand:ru": "НК Альянс",
      "brand:wikidata": "Q4063700",
      "brand:wikipedia": "ru:Альянс (компания)",
      "name": "НК Альянс",
      "name:en": "Alliance Oil",
      "name:ru": "НК Альянс"
    }
  },
  {
    "v": "Нефтьмагистраль",
    "lbl": {"en": "Нефтьмагистраль"},
    "countryCodes": ["ru"],
    "tags": {
      "amenity": "fuel",
      "brand": "Нефтьмагистраль",
      "brand:en": "Neftmagistral",
      "brand:wikidata": "Q62544323",
      "name": "Нефтьмагистраль",
      "name:en": "Neftmagistral"
    }
  },
  {
    "v": "ОККО",
    "lbl": {"en": "ОККО"},
    "countryCodes": ["ua"],
    "tags": {
      "amenity": "fuel",
      "brand": "ОККО",
      "brand:en": "OKKO",
      "brand:wikidata": "Q7072617",
      "brand:wikipedia": "en:OKKO",
      "name": "ОККО",
      "name:en": "OKKO"
    }
  },
  {
    "v": "ОМВ",
    "lbl": {"en": "ОМВ"},
    "countryCodes": ["bg", "rs"],
    "tags": {
      "amenity": "fuel",
      "brand": "ОМВ",
      "brand:wikidata": "Q168238",
      "brand:wikipedia": "en:OMV",
      "name": "ОМВ"
    }
  },
  {
    "v": "ПТК",
    "lbl": {"en": "ПТК"},
    "countryCodes": ["ru"],
    "tags": {
      "amenity": "fuel",
      "brand": "ПТК",
      "brand:en": "The Petersburg Fuel Company",
      "brand:ru": "ПТК",
      "brand:wikidata": "Q4360193",
      "brand:wikipedia": "ru:Петербургская топливная компания",
      "name": "ПТК",
      "name:en": "The Petersburg Fuel Company",
      "name:ru": "ПТК"
    }
  },
  {
    "v": "Петрол",
    "lbl": {"en": "Петрол"},
    "countryCodes": ["bg"],
    "tags": {
      "amenity": "fuel",
      "brand": "Петрол",
      "brand:en": "Petrol AD",
      "brand:wikidata": "Q24315",
      "brand:wikipedia": "en:Petrol AD",
      "name": "Петрол",
      "name:en": "Petrol AD"
    }
  },
  {
    "v": "Роснефть",
    "lbl": {"en": "Роснефть"},
    "tags": {
      "amenity": "fuel",
      "brand": "Роснефть",
      "brand:en": "Rosneft",
      "brand:ru": "Роснефть",
      "brand:wikidata": "Q1141123",
      "brand:wikipedia": "ru:Роснефть",
      "name": "Роснефть",
      "name:en": "Rosneft",
      "name:ru": "Роснефть"
    }
  },
  {
    "v": "Сургутнефтегаз",
    "lbl": {"en": "Сургутнефтегаз"},
    "countryCodes": ["ru"],
    "tags": {
      "amenity": "fuel",
      "brand": "Сургутнефтегаз",
      "brand:en": "Surgutneftegas",
      "brand:ru": "Сургутнефтегаз",
      "brand:wikidata": "Q680776",
      "brand:wikipedia": "en:Surgutneftegas",
      "name": "Сургутнефтегаз",
      "name:en": "Surgutneftegas",
      "name:ru": "Сургутнефтегаз"
    }
  },
  {
    "v": "ТНК",
    "lbl": {"en": "ТНК"},
    "countryCodes": ["ru", "ua"],
    "tags": {
      "amenity": "fuel",
      "brand": "ТНК",
      "brand:wikidata": "Q2298901",
      "brand:wikipedia": "en:TNK-BP",
      "name": "ТНК"
    }
  },
  {
    "v": "Татнефтепродукт",
    "lbl": {"en": "Татнефтепродукт"},
    "countryCodes": ["ru"],
    "tags": {
      "amenity": "fuel",
      "brand": "Татнефтепродукт",
      "brand:en": "Tatnefteprodukt",
      "brand:ru": "Татнефтепродукт",
      "brand:wikidata": "Q62545686",
      "name": "Татнефтепродукт",
      "name:en": "Tatnefteprodukt",
      "name:ru": "Татнефтепродукт"
    }
  },
  {
    "v": "Татнефть",
    "lbl": {"en": "Татнефть"},
    "countryCodes": ["ru", "ua"],
    "tags": {
      "amenity": "fuel",
      "brand": "Татнефть",
      "brand:en": "Tatneft",
      "brand:ru": "Татнефть",
      "brand:wikidata": "Q1616858",
      "brand:wikipedia": "en:Tatneft",
      "name": "Татнефть",
      "name:en": "Tatneft",
      "name:ru": "Татнефть"
    }
  },
  {
    "v": "Укрнафта",
    "lbl": {"en": "Укрнафта"},
    "countryCodes": ["ua"],
    "tags": {
      "amenity": "fuel",
      "brand": "Укрнафта",
      "brand:en": "Ukrnafta",
      "brand:uk": "Укрнафта",
      "brand:wikidata": "Q2447961",
      "brand:wikipedia": "uk:Укрнафта",
      "name": "Укрнафта",
      "name:en": "Ukrnafta",
      "name:uk": "Укрнафта"
    }
  },
  {
    "v": "דור אלון",
    "lbl": {"en": "דור אלון"},
    "countryCodes": ["il"],
    "tags": {
      "amenity": "fuel",
      "brand": "דור אלון",
      "brand:en": "Dor Alon",
      "brand:he": "דור אלון",
      "brand:wikidata": "Q16130352",
      "brand:wikipedia": "he:דור אלון אנרגיה בישראל (1988)",
      "name": "דור אלון",
      "name:en": "Dor Alon",
      "name:he": "דור אלון"
    }
  },
  {
    "v": "סונול",
    "lbl": {"en": "סונול"},
    "countryCodes": ["il"],
    "tags": {
      "amenity": "fuel",
      "brand": "סונול",
      "brand:en": "Sonol",
      "brand:he": "סונול",
      "brand:wikidata": "Q3701622",
      "brand:wikipedia": "en:Sonol",
      "name": "סונול",
      "name:en": "Sonol",
      "name:he": "סונול"
    }
  },
  {
    "v": "פז",
    "lbl": {"en": "פז"},
    "countryCodes": ["il"],
    "tags": {
      "amenity": "fuel",
      "brand": "פז",
      "brand:en": "Paz",
      "brand:he": "פז",
      "brand:wikidata": "Q2211731",
      "brand:wikipedia": "en:Paz Oil Company",
      "name": "פז",
      "name:en": "Paz",
      "name:he": "פז"
    }
  },
  {
    "v": "ادنوك",
    "lbl": {"en": "ادنوك"},
    "countryCodes": ["ae"],
    "tags": {
      "amenity": "fuel",
      "brand": "ادنوك",
      "brand:ar": "ادنوك",
      "brand:en": "ADNOC",
      "brand:wikidata": "Q166729",
      "brand:wikipedia": "en:Abu Dhabi National Oil Company",
      "name": "ادنوك",
      "name:ar": "ادنوك",
      "name:en": "ADNOC"
    }
  },
  {
    "v": "توتال",
    "lbl": {"en": "توتال"},
    "tags": {"amenity": "fuel", "brand": "توتال", "name": "توتال"}
  },
  {
    "v": "บางจาก",
    "lbl": {"en": "บางจาก"},
    "countryCodes": ["th"],
    "tags": {
      "amenity": "fuel",
      "brand": "บางจาก",
      "brand:en": "Bangchak",
      "brand:th": "บางจาก",
      "brand:wikidata": "Q6579719",
      "brand:wikipedia": "th:บางจาก คอร์ปอเรชัน",
      "name": "บางจาก",
      "name:en": "Bangchak",
      "name:th": "บางจาก"
    }
  },
  {
    "v": "ป.ต.ท.",
    "lbl": {"en": "ป.ต.ท."},
    "countryCodes": ["th"],
    "tags": {
      "amenity": "fuel",
      "brand": "ป.ต.ท.",
      "brand:en": "PTT",
      "brand:th": "ป.ต.ท.",
      "brand:wikidata": "Q1810389",
      "brand:wikipedia": "th:ปตท.",
      "name": "ป.ต.ท.",
      "name:en": "PTT",
      "name:th": "ป.ต.ท."
    }
  },
  {
    "v": "เชลล์",
    "lbl": {"en": "เชลล์"},
    "countryCodes": ["th"],
    "tags": {
      "amenity": "fuel",
      "brand": "เชลล์",
      "brand:en": "Shell",
      "brand:th": "เชลล์",
      "brand:wikidata": "Q154950",
      "brand:wikipedia": "en:Royal Dutch Shell",
      "name": "เชลล์",
      "name:en": "Shell",
      "name:th": "เชลล์"
    }
  },
  {
    "v": "เอสโซ่",
    "lbl": {"en": "เอสโซ่"},
    "countryCodes": ["th"],
    "tags": {
      "amenity": "fuel",
      "brand": "เอสโซ่",
      "brand:en": "Esso",
      "brand:th": "เอสโซ่",
      "brand:wikidata": "Q867662",
      "brand:wikipedia": "en:Esso",
      "name": "เอสโซ่",
      "name:en": "Esso",
      "name:th": "เอสโซ่"
    }
  },
  {
    "v": "エッソ",
    "lbl": {"en": "エッソ"},
    "countryCodes": ["jp"],
    "matchNames": ["エッソ石油"],
    "tags": {
      "amenity": "fuel",
      "brand": "エッソ",
      "brand:en": "Esso",
      "brand:ja": "エッソ",
      "brand:wikidata": "Q867662",
      "brand:wikipedia": "en:Esso",
      "name": "エッソ",
      "name:en": "Esso",
      "name:ja": "エッソ"
    }
  },
  {
    "v": "エネオス",
    "lbl": {"en": "エネオス"},
    "countryCodes": ["jp"],
    "tags": {
      "amenity": "fuel",
      "brand": "エネオス",
      "brand:en": "JXTG Nippon Oil & Energy",
      "brand:ja": "エネオス",
      "brand:wikidata": "Q1640290",
      "brand:wikipedia": "en:JXTG Nippon Oil & Energy",
      "name": "エネオス",
      "name:en": "JXTG Nippon Oil & Energy",
      "name:ja": "エネオス"
    }
  },
  {
    "v": "コスモ石油",
    "lbl": {"en": "コスモ石油"},
    "countryCodes": ["jp"],
    "tags": {
      "amenity": "fuel",
      "brand": "コスモ石油",
      "brand:en": "Cosmo Oil Company",
      "brand:ja": "コスモ石油",
      "brand:wikidata": "Q2498318",
      "brand:wikipedia": "en:Cosmo Oil Company",
      "name": "コスモ石油",
      "name:en": "Cosmo Oil Company",
      "name:ja": "コスモ石油"
    }
  },
  {
    "v": "ゼネラル",
    "lbl": {"en": "ゼネラル"},
    "countryCodes": ["jp"],
    "tags": {
      "amenity": "fuel",
      "brand": "ゼネラル",
      "brand:en": "Tonen General",
      "brand:ja": "ゼネラル",
      "brand:wikidata": "Q11528048",
      "brand:wikipedia": "ja:東燃ゼネラル石油",
      "name": "ゼネラル",
      "name:en": "Tonen General",
      "name:ja": "ゼネラル"
    }
  },
  {
    "v": "モービル",
    "lbl": {"en": "モービル"},
    "countryCodes": ["jp"],
    "tags": {
      "amenity": "fuel",
      "brand": "モービル",
      "brand:en": "Mobil",
      "brand:ja": "モービル",
      "brand:wikidata": "Q3088656",
      "brand:wikipedia": "ja:モービル (ブランド)",
      "name": "モービル",
      "name:en": "Mobil",
      "name:ja": "モービル"
    }
  },
  {
    "v": "中国石化 Sinopec",
    "lbl": {"en": "中国石化 Sinopec"},
    "countryCodes": ["cn"],
    "matchNames": ["Sinopec", "Sinopec fuel", "中国石化", "中国石化加油站"],
    "tags": {
      "amenity": "fuel",
      "brand": "中国石化 Sinopec",
      "brand:en": "Sinopec",
      "brand:wikidata": "Q831445",
      "brand:wikipedia": "en:Sinopec",
      "brand:zh": "中国石化",
      "name": "中国石化 Sinopec",
      "name:en": "Sinopec",
      "name:zh": "中国石化"
    }
  },
  {
    "v": "中国石油",
    "lbl": {"en": "中国石油"},
    "countryCodes": ["cn"],
    "matchNames": ["中油加油站"],
    "tags": {
      "amenity": "fuel",
      "brand": "中国石油",
      "brand:en": "PetroChina",
      "brand:wikidata": "Q503182",
      "brand:wikipedia": "en:PetroChina",
      "brand:zh": "中国石油",
      "name": "中国石油",
      "name:en": "PetroChina",
      "name:zh": "中国石油"
    }
  },
  {
    "v": "全國加油站",
    "lbl": {"en": "全國加油站"},
    "countryCodes": ["tw"],
    "tags": {
      "amenity": "fuel",
      "brand": "全國加油站",
      "brand:en": "NPC",
      "brand:wikidata": "Q20410455",
      "brand:wikipedia": "zh:全國加油站",
      "brand:zh": "全國加油站",
      "name": "全國加油站",
      "name:en": "NPC",
      "name:zh": "全國加油站"
    }
  },
  {
    "v": "出光",
    "lbl": {"en": "出光"},
    "countryCodes": ["jp"],
    "tags": {
      "amenity": "fuel",
      "brand": "出光",
      "brand:en": "Idemitsu Kosan",
      "brand:ja": "出光",
      "brand:wikidata": "Q2216770",
      "brand:wikipedia": "en:Idemitsu Kosan",
      "name": "出光",
      "name:en": "Idemitsu Kosan",
      "name:ja": "出光"
    }
  },
  {
    "v": "台塑石油",
    "lbl": {"en": "台塑石油"},
    "tags": {"amenity": "fuel", "brand": "台塑石油", "name": "台塑石油"}
  },
  {
    "v": "台灣中油",
    "lbl": {"en": "台灣中油"},
    "countryCodes": ["tw"],
    "matchNames": ["中油"],
    "tags": {
      "amenity": "fuel",
      "brand": "台灣中油",
      "brand:en": "CPC Corporation, Taiwan",
      "brand:wikidata": "Q21527177",
      "brand:wikipedia": "en:CPC Corporation, Taiwan",
      "brand:zh": "台灣中油",
      "name": "台灣中油",
      "name:en": "CPC Corporation, Taiwan",
      "name:zh": "台灣中油"
    }
  },
  {
    "v": "昭和シェル",
    "lbl": {"en": "昭和シェル"},
    "countryCodes": ["jp"],
    "matchNames": ["昭和シェル石油"],
    "tags": {
      "amenity": "fuel",
      "brand": "昭和シェル",
      "brand:en": "Showa Shell Sekiyu",
      "brand:ja": "昭和シェル",
      "brand:wikidata": "Q277115",
      "brand:wikipedia": "en:Showa Shell Sekiyu",
      "name": "昭和シェル",
      "name:en": "Showa Shell Sekiyu",
      "name:ja": "昭和シェル"
    }
  },
  {
    "v": "福懋加油站",
    "lbl": {"en": "福懋加油站"},
    "tags": {"amenity": "fuel", "brand": "福懋加油站", "name": "福懋加油站"}
  }
]