[
  {
    "v": "Cruz Roja",
    "lbl": {"en": "Cruz Roja"},
    "tags": {"amenity": "hospital", "brand": "Cruz Roja", "name": "Cruz Roja"}
  },
  {
    "v": "IMSS",
    "lbl": {"en": "IMSS"},
    "tags": {"amenity": "hospital", "brand": "IMSS", "name": "IMSS"}
  },
  {
    "v": "Select Specialty Hospital",
    "lbl": {"en": "Select Specialty Hospital"},
    "countryCodes": ["us"],
    "matchNames": ["select speciality"],
    "tags": {
      "amenity": "hospital",
      "brand": "Select Specialty Hospital",
      "brand:wikidata": "Q66360902",
      "healthcare": "hospital",
      "name": "Select Specialty Hospital"
    }
  },
  {
    "v": "Shriners Hospitals for Children",
    "lbl": {"en": "Shriners Hospital for Children"},
    "countryCodes": ["us"],
    "matchNames": [
      "shriners burn hospital",
      "shriners hospital",
      "shriners hospitals for children"
    ],
    "tags": {
      "amenity": "hospital",
      "brand": "Shriners Hospitals for Children",
      "brand:wikidata": "Q7504109",
      "brand:wikipedia": "en:Shriners Hospitals for Children",
      "healthcare": "hospital",
      "healthcare:speciality": "paediatrics",
      "name": "Shriners Hospitals for Children"
    }
  },
  {
    "v": "VA",
    "lbl": {"en": "VA Medical Center"},
    "countryCodes": ["us"],
    "matchNames": [
      "department of veterans affairs medical center",
      "veterans administration",
      "veterans administration hospital",
      "veterans administration medical center",
      "veterans affairs",
      "veterans affairs hospital",
      "veterans affairs medical center"
    ],
    "tags": {
      "amenity": "hospital",
      "brand": "VA",
      "brand:wikidata": "Q6580225",
      "brand:wikipedia": "en:Veterans Health Administration",
      "healthcare": "hospital",
      "healthcare:for": "veterans",
      "name": "VA Medical Center",
      "short_name": "VA"
    }
  },
  {
    "v": "Больница",
    "lbl": {"en": "Больница"},
    "tags": {"amenity": "hospital", "brand": "Больница", "name": "Больница"}
  },
  {
    "v": "Городская больница",
    "lbl": {"en": "Городская больница"},
    "tags": {
      "amenity": "hospital",
      "brand": "Городская больница",
      "name": "Городская больница"
    }
  },
  {
    "v": "Детская больница",
    "lbl": {"en": "Детская больница"},
    "tags": {
      "amenity": "hospital",
      "brand": "Детская больница",
      "name": "Детская больница"
    }
  },
  {
    "v": "Детская поликлиника",
    "lbl": {"en": "Детская поликлиника"},
    "tags": {
      "amenity": "hospital",
      "brand": "Детская поликлиника",
      "name": "Детская поликлиника"
    }
  },
  {
    "v": "Женская консультация",
    "lbl": {"en": "Женская консультация"},
    "tags": {
      "amenity": "hospital",
      "brand": "Женская консультация",
      "name": "Женская консультация"
    }
  },
  {
    "v": "Инфекционная больница",
    "lbl": {"en": "Инфекционная больница"},
    "tags": {
      "amenity": "hospital",
      "brand": "Инфекционная больница",
      "name": "Инфекционная больница"
    }
  },
  {
    "v": "Инфекционное отделение",
    "lbl": {"en": "Инфекционное отделение"},
    "tags": {
      "amenity": "hospital",
      "brand": "Инфекционное отделение",
      "name": "Инфекционное отделение"
    }
  },
  {
    "v": "Кожно-венерологический диспансер",
    "lbl": {"en": "Кожно-венерологический диспансер"},
    "tags": {
      "amenity": "hospital",
      "brand": "Кожно-венерологический диспансер",
      "name": "Кожно-венерологический диспансер"
    }
  },
  {
    "v": "Медпункт",
    "lbl": {"en": "Медпункт"},
    "tags": {"amenity": "hospital", "brand": "Медпункт", "name": "Медпункт"}
  },
  {
    "v": "Противотуберкулезный диспансер",
    "lbl": {"en": "Противотуберкулезный диспансер"},
    "tags": {
      "amenity": "hospital",
      "brand": "Противотуберкулезный диспансер",
      "name": "Противотуберкулезный диспансер"
    }
  },
  {
    "v": "Районная больница",
    "lbl": {"en": "Районная больница"},
    "tags": {
      "amenity": "hospital",
      "brand": "Районная больница",
      "name": "Районная больница"
    }
  },
  {
    "v": "Роддом",
    "lbl": {"en": "Роддом"},
    "tags": {"amenity": "hospital", "brand": "Роддом", "name": "Роддом"}
  },
  {
    "v": "Родильный дом",
    "lbl": {"en": "Родильный дом"},
    "tags": {
      "amenity": "hospital",
      "brand": "Родильный дом",
      "name": "Родильный дом"
    }
  },
  {
    "v": "Скорая помощь",
    "lbl": {"en": "Скорая помощь"},
    "tags": {
      "amenity": "hospital",
      "brand": "Скорая помощь",
      "name": "Скорая помощь"
    }
  },
  {
    "v": "ЦРБ",
    "lbl": {"en": "ЦРБ"},
    "tags": {"amenity": "hospital", "brand": "ЦРБ", "name": "ЦРБ"}
  },
  {
    "v": "Центральная районная больница",
    "lbl": {"en": "Центральная районная больница"},
    "tags": {
      "amenity": "hospital",
      "brand": "Центральная районная больница",
      "name": "Центральная районная больница"
    }
  },
  {
    "v": "โรงพยาบาลส่งเสริมสุขภาพตำบล",
    "lbl": {"en": "โรงพยาบาลส่งเสริมสุขภาพตำบล"},
    "countryCodes": ["th"],
    "tags": {
      "amenity": "hospital",
      "brand": "โรงพยาบาลส่งเสริมสุขภาพตำบล",
      "brand:th": "โรงพยาบาลส่งเสริมสุขภาพตำบล",
      "name": "โรงพยาบาลส่งเสริมสุขภาพตำบล",
      "name:th": "โรงพยาบาลส่งเสริมสุขภาพตำบล"
    }
  }
]