[
  {
    "v": "Express Union",
    "lbl": {"en": "Express Union"},
    "countryCodes": ["td"],
    "matchTags": ["amenity/bank"],
    "nomatch": ["amenity/bank|Banco Unión", "amenity/bank|UnionBank"],
    "tags": {
      "amenity": "money_transfer",
      "brand": "Express Union",
      "brand:wikidata": "Q3062276",
      "brand:wikipedia": "fr:Express Union",
      "name": "Express Union"
    }
  },
  {
    "v": "Hoa Phát",
    "lbl": {"en": "Hoa Phát"},
    "countryCodes": ["us"],
    "matchNames": ["hoa phat goi tien", "hoa phat gui tien"],
    "tags": {
      "amenity": "money_transfer",
      "brand": "Hoa Phát",
      "brand:wikidata": "Q65116775",
      "name": "Hoa Phát",
      "name:vi": "Hoa Phát"
    }
  },
  {
    "v": "MoneyGram",
    "lbl": {"en": "MoneyGram"},
    "countryCodes": ["de", "fr", "gr"],
    "tags": {
      "amenity": "money_transfer",
      "brand": "MoneyGram",
      "brand:wikidata": "Q1944412",
      "brand:wikipedia": "en:MoneyGram",
      "name": "MoneyGram"
    }
  },
  {
    "v": "Orange Money",
    "lbl": {"en": "Orange Money"},
    "countryCodes": ["ml"],
    "tags": {
      "amenity": "money_transfer",
      "brand": "Orange Money",
      "brand:wikidata": "Q16668220",
      "brand:wikipedia": "en:Orange Money",
      "name": "Orange Money"
    }
  },
  {
    "v": "Western Union",
    "lbl": {"en": "Western Union"},
    "matchTags": ["amenity/bureau_de_change"],
    "nomatch": ["amenity/bank|Western Union"],
    "tags": {
      "amenity": "money_transfer",
      "brand": "Western Union",
      "brand:wikidata": "Q861042",
      "brand:wikipedia": "en:Western Union",
      "name": "Western Union"
    }
  }
]