[
  {
    "v": "Australia Post",
    "lbl": {"en": "Australia Post"},
    "countryCodes": ["au"],
    "tags": {
      "amenity": "post_office",
      "brand": "Australia Post",
      "brand:wikidata": "Q1142936",
      "brand:wikipedia": "en:Australia Post",
      "name": "Australia Post"
    }
  },
  {
    "v": "CTT",
    "lbl": {"en": "CTT~(Macau)"},
    "countryCodes": ["mo"],
    "nomatch": ["amenity/post_office|CTT~(Portugal)"],
    "tags": {
      "amenity": "post_office",
      "brand": "CTT",
      "brand:wikidata": "Q909429",
      "brand:wikipedia": "en:CTT (Macau)",
      "name": "CTT"
    }
  },
  {
    "v": "CTT",
    "lbl": {"en": "CTT~(Portugal)"},
    "countryCodes": ["pt"],
    "nomatch": ["amenity/post_office|CTT~(Macau)"],
    "tags": {
      "amenity": "post_office",
      "brand": "CTT",
      "brand:wikidata": "Q1024518",
      "brand:wikipedia": "en:CTT Correios de Portugal, S.A.",
      "name": "CTT"
    }
  },
  {
    "v": "Canada Post",
    "lbl": {"en": "Canada Post"},
    "countryCodes": ["ca"],
    "nomatch": ["amenity/post_box|Canada Post"],
    "tags": {
      "amenity": "post_office",
      "brand": "Canada Post",
      "brand:wikidata": "Q1032001",
      "brand:wikipedia": "en:Canada Post",
      "name": "Canada Post"
    }
  },
  {
    "v": "Chilexpress",
    "lbl": {"en": "Chilexpress"},
    "countryCodes": ["cl"],
    "tags": {
      "amenity": "post_office",
      "brand": "Chilexpress",
      "name": "Chilexpress"
    }
  },
  {
    "v": "Correios",
    "lbl": {"en": "Correios"},
    "countryCodes": ["br"],
    "tags": {
      "amenity": "post_office",
      "brand": "Correios",
      "brand:wikidata": "Q3375004",
      "brand:wikipedia": "en:Correios",
      "name": "Correios"
    }
  },
  {
    "v": "Correo Argentino",
    "lbl": {"en": "Correo Argentino"},
    "countryCodes": ["ar"],
    "tags": {
      "amenity": "post_office",
      "brand": "Correo Argentino",
      "brand:wikidata": "Q4036566",
      "brand:wikipedia": "en:Correo Argentino",
      "name": "Correo Argentino"
    }
  },
  {
    "v": "Correos de Chile",
    "lbl": {"en": "Correos de Chile"},
    "countryCodes": ["cl"],
    "tags": {
      "amenity": "post_office",
      "brand": "Correos de Chile",
      "brand:wikidata": "Q5172893",
      "brand:wikipedia": "en:Correos de Chile",
      "name": "Correos de Chile"
    }
  },
  {
    "v": "Correos de Costa Rica",
    "lbl": {"en": "Correos de Costa Rica"},
    "countryCodes": ["cr"],
    "tags": {
      "amenity": "post_office",
      "brand": "Correos de Costa Rica",
      "brand:wikidata": "Q5172894",
      "brand:wikipedia": "en:Correos de Costa Rica",
      "name": "Correos de Costa Rica"
    }
  },
  {
    "v": "Correos de México",
    "lbl": {"en": "Correos de México"},
    "countryCodes": ["mx"],
    "tags": {
      "amenity": "post_office",
      "brand": "Correos de México",
      "brand:wikidata": "Q5172898",
      "brand:wikipedia": "en:Correos de México",
      "name": "Correos de México"
    }
  },
  {
    "v": "DHL",
    "lbl": {"en": "DHL"},
    "matchNames": ["dhl paketshop"],
    "tags": {
      "amenity": "post_office",
      "brand": "DHL",
      "brand:wikidata": "Q489815",
      "brand:wikipedia": "en:DHL",
      "name": "DHL"
    }
  },
  {
    "v": "DPD Paketshop",
    "lbl": {"en": "DPD Paketshop"},
    "countryCodes": ["at", "de", "pl"],
    "tags": {
      "amenity": "post_office",
      "brand": "DPD Paketshop",
      "brand:wikidata": "Q541030",
      "brand:wikipedia": "en:DPDgroup",
      "name": "DPD Paketshop"
    }
  },
  {
    "v": "Deutsche Post",
    "lbl": {"en": "Deutsche Post"},
    "countryCodes": ["de"],
    "matchNames": ["deutsche post ag", "deutsche post filiale"],
    "tags": {
      "amenity": "post_office",
      "brand": "Deutsche Post",
      "brand:wikidata": "Q157645",
      "brand:wikipedia": "en:Deutsche Post",
      "name": "Deutsche Post"
    }
  },
  {
    "v": "Fancourier",
    "lbl": {"en": "Fancourier"},
    "countryCodes": ["ro"],
    "tags": {
      "amenity": "post_office",
      "brand": "Fancourier",
      "brand:wikidata": "Q12727984",
      "brand:wikipedia": "ro:FAN Courier Express",
      "name": "Fancourier"
    }
  },
  {
    "v": "FedEx",
    "lbl": {"en": "FedEx"},
    "nomatch": ["amenity/post_box|FedEx"],
    "tags": {
      "amenity": "post_office",
      "brand": "FedEx",
      "brand:wikidata": "Q459477",
      "brand:wikipedia": "en:FedEx",
      "name": "FedEx"
    }
  },
  {
    "v": "Hermes Paketshop",
    "lbl": {"en": "Hermes Paketshop"},
    "countryCodes": ["de"],
    "matchNames": ["hermes"],
    "tags": {
      "amenity": "post_office",
      "brand": "Hermes Paketshop",
      "brand:wikidata": "Q1613532",
      "brand:wikipedia": "en:Hermes Group",
      "name": "Hermes Paketshop"
    }
  },
  {
    "v": "LBC",
    "lbl": {"en": "LBC"},
    "countryCodes": ["ph"],
    "matchNames": ["lbc express"],
    "tags": {
      "amenity": "post_office",
      "brand": "LBC",
      "brand:wikidata": "Q17075584",
      "brand:wikipedia": "en:LBC Express",
      "name": "LBC"
    }
  },
  {
    "v": "La Poste",
    "lbl": {"en": "La Poste"},
    "tags": {
      "amenity": "post_office",
      "brand": "La Poste",
      "brand:wikidata": "Q373724",
      "brand:wikipedia": "fr:La Poste (entreprise française)",
      "name": "La Poste"
    }
  },
  {
    "v": "MRW",
    "lbl": {"en": "MRW"},
    "countryCodes": ["ad", "es", "gi", "pt", "ve"],
    "tags": {
      "amenity": "post_office",
      "brand": "MRW",
      "brand:wikidata": "Q23767821",
      "brand:wikipedia": "es:MRW",
      "name": "MRW"
    }
  },
  {
    "v": "Mail Boxes Etc.",
    "lbl": {"en": "Mail Boxes Etc."},
    "tags": {
      "amenity": "post_office",
      "brand": "Mail Boxes Etc.",
      "brand:wikidata": "Q1139182",
      "brand:wikipedia": "en:Mail Boxes Etc.",
      "name": "Mail Boxes Etc."
    }
  },
  {
    "v": "OCA",
    "lbl": {"en": "OCA"},
    "countryCodes": ["ar"],
    "tags": {
      "amenity": "post_office",
      "brand": "OCA",
      "brand:wikidata": "Q5172887",
      "brand:wikipedia": "es:Correo OCA",
      "name": "OCA"
    }
  },
  {
    "v": "Oficina de Correos",
    "lbl": {"en": "Oficina de Correos"},
    "countryCodes": ["es"],
    "matchNames": ["correos"],
    "tags": {
      "amenity": "post_office",
      "brand": "Oficina de Correos",
      "brand:wikidata": "Q776605",
      "brand:wikipedia": "es:Correos (España)",
      "name": "Oficina de Correos"
    }
  },
  {
    "v": "PTT",
    "lbl": {"en": "PTT"},
    "nomatch": ["amenity/fuel|PTT"],
    "tags": {"amenity": "post_office", "brand": "PTT", "name": "PTT"}
  },
  {
    "v": "Poczta Polska",
    "lbl": {"en": "Poczta Polska"},
    "countryCodes": ["pl"],
    "tags": {
      "amenity": "post_office",
      "brand": "Poczta Polska",
      "brand:wikidata": "Q168833",
      "brand:wikipedia": "pl:Poczta Polska",
      "name": "Poczta Polska"
    }
  },
  {
    "v": "Post Office",
    "lbl": {"en": "Post Office~(UK)"},
    "countryCodes": ["gb"],
    "tags": {
      "amenity": "post_office",
      "brand": "Post Office",
      "brand:wikidata": "Q1783168",
      "brand:wikipedia": "en:Post Office Ltd",
      "name": "Post Office"
    }
  },
  {
    "v": "PostalAnnex",
    "lbl": {"en": "PostalAnnex"},
    "countryCodes": ["us"],
    "matchTags": ["shop/post_office"],
    "tags": {
      "amenity": "post_office",
      "brand": "PostalAnnex",
      "brand:wikidata": "Q61960357",
      "name": "PostalAnnex"
    }
  },
  {
    "v": "Postbank Finanzcenter",
    "lbl": {"en": "Postbank Finanzcenter"},
    "tags": {
      "amenity": "post_office",
      "brand": "Postbank Finanzcenter",
      "name": "Postbank Finanzcenter"
    }
  },
  {
    "v": "Poste Italiane",
    "lbl": {"en": "Poste Italiane"},
    "countryCodes": ["it"],
    "tags": {
      "amenity": "post_office",
      "brand": "Poste Italiane",
      "brand:wikidata": "Q495026",
      "brand:wikipedia": "en:Poste italiane",
      "name": "Poste Italiane"
    }
  },
  {
    "v": "Serpost",
    "lbl": {"en": "Serpost"},
    "countryCodes": ["pe"],
    "matchNames": ["servicios postales del perú"],
    "matchTags": ["shop/post_office"],
    "tags": {
      "amenity": "post_office",
      "brand": "Serpost",
      "brand:wikidata": "Q19521863",
      "brand:wikipedia": "es:Servicios Postales del Perú",
      "name": "Serpost"
    }
  },
  {
    "v": "Servientrega",
    "lbl": {"en": "Servientrega"},
    "tags": {
      "amenity": "post_office",
      "brand": "Servientrega",
      "name": "Servientrega"
    }
  },
  {
    "v": "Slovenská pošta",
    "lbl": {"en": "Slovenská pošta"},
    "countryCodes": ["sk"],
    "tags": {
      "amenity": "post_office",
      "brand": "Slovenská pošta",
      "brand:wikidata": "Q1191849",
      "brand:wikipedia": "en:Slovenská pošta",
      "name": "Slovenská pošta"
    }
  },
  {
    "v": "The UPS Store",
    "lbl": {"en": "The UPS Store"},
    "countryCodes": ["ca", "us"],
    "matchNames": ["ups store"],
    "matchTags": ["shop/copyshop"],
    "nomatch": ["amenity/post_box|UPS"],
    "tags": {
      "amenity": "post_office",
      "brand": "The UPS Store",
      "brand:wikidata": "Q7771029",
      "brand:wikipedia": "en:The UPS Store",
      "name": "The UPS Store",
      "short_name": "UPS"
    }
  },
  {
    "v": "United States Post Office",
    "lbl": {"en": "United States Post Office"},
    "countryCodes": ["us"],
    "matchNames": [
      "united states postal service",
      "us post office",
      "us postal service",
      "usps",
      "usps post office"
    ],
    "tags": {
      "amenity": "post_office",
      "brand": "United States Post Office",
      "brand:wikidata": "Q668687",
      "brand:wikipedia": "en:United States Postal Service",
      "name": "United States Post Office"
    }
  },
  {
    "v": "ΕΛΤΑ",
    "lbl": {"en": "ΕΛΤΑ"},
    "countryCodes": ["gr"],
    "tags": {
      "amenity": "post_office",
      "brand": "ΕΛΤΑ",
      "brand:wikidata": "Q1275135",
      "brand:wikipedia": "el:Ελληνικά Ταχυδρομεία",
      "name": "ΕΛΤΑ"
    }
  },
  {
    "v": "Белпошта",
    "lbl": {"en": "Белпошта"},
    "countryCodes": ["by"],
    "matchNames": ["белпочта"],
    "tags": {
      "amenity": "post_office",
      "brand": "Белпошта",
      "brand:be": "Белпошта",
      "brand:en": "Belposhta",
      "brand:ru": "Белпочта",
      "brand:wikidata": "Q2662336",
      "brand:wikipedia": "be:Белпошта",
      "name": "Белпошта",
      "name:be": "Белпошта",
      "name:en": "Belposhta",
      "name:ru": "Белпочта"
    }
  },
  {
    "v": "Казпочта",
    "lbl": {"en": "Казпочта"},
    "countryCodes": ["kz"],
    "tags": {
      "amenity": "post_office",
      "brand": "Казпочта",
      "brand:wikidata": "Q746263",
      "brand:wikipedia": "ru:Казпочта",
      "name": "Казпочта"
    }
  },
  {
    "v": "Нова Пошта",
    "lbl": {"en": "Нова Пошта"},
    "countryCodes": ["ua"],
    "matchNames": [
      "Нова Пошта №1",
      "Нова Пошта №2",
      "Нова Пошта №3",
      "Нова Пошта №4"
    ],
    "tags": {
      "amenity": "post_office",
      "brand": "Нова Пошта",
      "brand:wikidata": "Q12133863",
      "brand:wikipedia": "uk:Нова пошта",
      "name": "Нова Пошта"
    }
  },
  {
    "v": "Почта России",
    "lbl": {"en": "Почта России"},
    "countryCodes": ["ru"],
    "tags": {
      "amenity": "post_office",
      "brand": "Почта России",
      "brand:wikidata": "Q1502763",
      "brand:wikipedia": "ru:Почта России",
      "name": "Почта России"
    }
  },
  {
    "v": "СДЭК",
    "lbl": {"en": "СДЭК"},
    "countryCodes": ["ru", "ua"],
    "tags": {
      "amenity": "post_office",
      "brand": "СДЭК",
      "brand:wikidata": "Q28665980",
      "brand:wikipedia": "ru:СДЭК",
      "name": "СДЭК"
    }
  },
  {
    "v": "Укрпошта",
    "lbl": {"en": "Укрпошта"},
    "countryCodes": ["ua"],
    "tags": {
      "amenity": "post_office",
      "brand": "Укрпошта",
      "brand:wikidata": "Q2470783",
      "brand:wikipedia": "en:Ukrposhta",
      "name": "Укрпошта"
    }
  },
  {
    "v": "中国邮政",
    "lbl": {"en": "中国邮政"},
    "countryCodes": ["cn"],
    "tags": {
      "amenity": "post_office",
      "brand": "中国邮政",
      "brand:en": "China Post",
      "brand:wikidata": "Q1066476",
      "brand:wikipedia": "en:China Post",
      "name": "中国邮政",
      "name:en": "China Post"
    }
  }
]