[
  {
    "v": "Huntington Learning Center",
    "lbl": {"en": "Huntington Learning Center"},
    "countryCodes": ["us"],
    "matchNames": ["huntington"],
    "tags": {
      "amenity": "prep_school",
      "brand": "Huntington Learning Center",
      "brand:wikidata": "Q5945399",
      "brand:wikipedia": "en:Huntington Learning Center",
      "name": "Huntington Learning Center"
    }
  },
  {
    "v": "KUMON",
    "lbl": {"en": "KUMON~(Japan)"},
    "countryCodes": ["jp"],
    "matchNames": ["くもん", "公文"],
    "tags": {
      "amenity": "prep_school",
      "brand": "KUMON",
      "brand:wikidata": "Q142054",
      "brand:wikipedia": "ja:日本公文教育研究会",
      "name": "KUMON",
      "name:ja": "公文",
      "name:ja-Hira": "くもん",
      "name:ja-Latn": "KUMON"
    }
  },
  {
    "v": "Kumon",
    "lbl": {"en": "Kumon~(International)"},
    "matchNames": ["kumon learning center"],
    "tags": {
      "amenity": "prep_school",
      "brand": "Kumon",
      "brand:wikidata": "Q142054",
      "brand:wikipedia": "en:Kumon",
      "name": "Kumon"
    }
  },
  {
    "v": "Mathnasium",
    "lbl": {"en": "Mathnasium"},
    "countryCodes": ["us"],
    "matchNames": ["mathnasium learning center"],
    "tags": {
      "amenity": "prep_school",
      "brand": "Mathnasium",
      "brand:wikidata": "Q6787302",
      "brand:wikipedia": "en:Mathnasium",
      "name": "Mathnasium"
    }
  },
  {
    "v": "Russian School of Mathematics",
    "lbl": {"en": "Russian School of Mathematics"},
    "countryCodes": ["us"],
    "matchNames": ["rsm", "russian school of math"],
    "tags": {
      "amenity": "prep_school",
      "brand": "Russian School of Mathematics",
      "brand:wikidata": "Q7382122",
      "brand:wikipedia": "en:Russian School of Mathematics",
      "name": "Russian School of Mathematics"
    }
  },
  {
    "v": "Sylvan",
    "lbl": {"en": "Sylvan"},
    "countryCodes": ["us"],
    "matchNames": ["sylvan learning"],
    "tags": {
      "alt_name": "Sylvan Learning Center",
      "amenity": "prep_school",
      "brand": "Sylvan",
      "brand:wikidata": "Q7660663",
      "brand:wikipedia": "en:Sylvan Learning",
      "name": "Sylvan"
    }
  },
  {
    "v": "栄光ゼミナール",
    "lbl": {"en": "栄光ゼミナール"},
    "countryCodes": ["jp"],
    "matchNames": ["eikoh"],
    "tags": {
      "amenity": "prep_school",
      "brand": "栄光ゼミナール",
      "brand:ja": "栄光ゼミナール",
      "brand:ja-Hira": "えいこうゼミナール",
      "brand:ja-Latn": "Eikō Zemināru",
      "brand:wikidata": "Q11535632",
      "brand:wikipedia": "ja:栄光ゼミナール",
      "name": "栄光ゼミナール",
      "name:en": "Eikoh Seminar",
      "name:ja": "栄光ゼミナール",
      "name:ja-Hira": "えいこうゼミナール",
      "name:ja-Latn": "Eikō Zemināru"
    }
  }
]