[
  {
    "v": "100 Montaditos",
    "lbl": {"en": "100 Montaditos"},
    "countryCodes": ["es", "it", "pt"],
    "tags": {
      "amenity": "restaurant",
      "brand": "100 Montaditos",
      "brand:wikidata": "Q8355805",
      "brand:wikipedia": "en:Cervecería 100 Montaditos",
      "cuisine": "sandwich",
      "name": "100 Montaditos"
    }
  },
  {
    "v": "3 Brasseurs",
    "lbl": {"en": "3 Brewers~(On)"},
    "countryCodes": ["ca"],
    "tags": {
      "amenity": "restaurant",
      "brand": "3 Brasseurs",
      "brand:wikidata": "Q3230326",
      "brand:wikipedia": "fr:Les 3 Brasseurs",
      "cuisine": "burger;pizza;seafood",
      "name": "3 Brewers",
      "name:fr": "3 Brasseurs",
      "official_name": "Les 3 Brasseurs"
    }
  },
  {
    "v": "ASK Italian",
    "lbl": {"en": "ASK Italian"},
    "countryCodes": ["gb"],
    "tags": {
      "amenity": "restaurant",
      "brand": "ASK Italian",
      "brand:wikidata": "Q4807056",
      "brand:wikipedia": "en:ASK Italian",
      "cuisine": "italian",
      "name": "ASK Italian"
    }
  },
  {
    "v": "Amici",
    "lbl": {"en": "Amici's East Coast Pizzeria"},
    "countryCodes": ["us"],
    "tags": {
      "amenity": "restaurant",
      "brand": "Amici",
      "brand:wikidata": "Q66133409",
      "cuisine": "pizza",
      "name": "Amici"
    }
  },
  {
    "v": "Applebee's Neighborhood Grill & Bar",
    "lbl": {"en": "Applebee's"},
    "matchNames": [
      "applebees bar and grill",
      "applebees grill and bar",
      "applebees neighborhood bar and grill"
    ],
    "tags": {
      "amenity": "restaurant",
      "brand": "Applebee's Neighborhood Grill & Bar",
      "brand:wikidata": "Q621532",
      "brand:wikipedia": "en:Applebee's",
      "cuisine": "american",
      "name": "Applebee's",
      "official_name": "Applebee's Neighborhood Grill & Bar"
    }
  },
  {
    "v": "Arooga's",
    "lbl": {"en": "Arooga's"},
    "countryCodes": ["us"],
    "tags": {
      "amenity": "restaurant",
      "brand": "Arooga's",
      "brand:wikidata": "Q72963322",
      "cuisine": "american",
      "name": "Arooga's",
      "official_name": "Arooga's Grille House and Sports Bar"
    }
  },
  {
    "v": "Autogrill",
    "lbl": {"en": "Autogrill"},
    "countryCodes": ["at", "es", "fr", "it"],
    "tags": {
      "amenity": "restaurant",
      "brand": "Autogrill",
      "brand:wikidata": "Q786790",
      "brand:wikipedia": "en:Autogrill",
      "cuisine": "italian;regional",
      "name": "Autogrill"
    }
  },
  {
    "v": "Burgus Burger Bar",
    "lbl": {"en": "BBB"},
    "countryCodes": ["il"],
    "tags": {
      "alt_name": "Burgus Burger Bar",
      "alt_name:en": "Burgus Burger Bar",
      "amenity": "restaurant",
      "brand": "Burgus Burger Bar",
      "brand:en": "Burgus Burger Bar",
      "brand:wikidata": "Q64760094",
      "cuisine": "burger",
      "name": "BBB",
      "name:en": "BBB"
    }
  },
  {
    "v": "BJ's",
    "lbl": {"en": "BJ's"},
    "countryCodes": ["us"],
    "tags": {
      "amenity": "restaurant",
      "brand": "BJ's",
      "brand:wikidata": "Q4835755",
      "brand:wikipedia": "en:BJ's Restaurants",
      "cuisine": "american",
      "name": "BJ's",
      "official_name": "BJ's Restaurant & Brewhouse"
    }
  },
  {
    "v": "Bella Italia",
    "lbl": {"en": "Bella Italia"},
    "countryCodes": ["gb"],
    "tags": {
      "amenity": "restaurant",
      "brand": "Bella Italia",
      "brand:wikidata": "Q4883362",
      "brand:wikipedia": "en:Bella Italia",
      "cuisine": "italian",
      "name": "Bella Italia"
    }
  },
  {
    "v": "Benihana",
    "lbl": {"en": "Benihana"},
    "countryCodes": ["aw", "br", "ca", "pa", "sv", "us"],
    "matchNames": ["benihana of tokyo"],
    "tags": {
      "amenity": "restaurant",
      "brand": "Benihana",
      "brand:wikidata": "Q4887996",
      "brand:wikipedia": "en:Benihana",
      "cuisine": "japanese;teppanyaki;steak",
      "name": "Benihana"
    }
  },
  {
    "v": "Bertucci's",
    "lbl": {"en": "Bertucci's"},
    "countryCodes": ["us"],
    "tags": {
      "amenity": "restaurant",
      "brand": "Bertucci's",
      "brand:wikidata": "Q4895917",
      "brand:wikipedia": "en:Bertucci's",
      "cuisine": "pizza;italian",
      "name": "Bertucci's"
    }
  },
  {
    "v": "Big Boy",
    "lbl": {"en": "Big Boy"},
    "tags": {
      "amenity": "restaurant",
      "brand": "Big Boy",
      "brand:wikidata": "Q4386779",
      "brand:wikipedia": "en:Big Boy Restaurants",
      "cuisine": "burger",
      "name": "Big Boy",
      "official_name": "Big Boy Restaurant & Bakery"
    }
  },
  {
    "v": "Black Bar Burger",
    "lbl": {"en": "Black"},
    "countryCodes": ["il"],
    "tags": {
      "amenity": "restaurant",
      "brand": "Black Bar Burger",
      "brand:en": "Black Bar Burger",
      "brand:he": "בלאק בורגר",
      "brand:wikidata": "Q64760158",
      "cuisine": "burger",
      "name": "Black",
      "name:en": "Black",
      "name:he": "בלאק"
    }
  },
  {
    "v": "Black Bear Diner",
    "lbl": {"en": "Black Bear Diner"},
    "countryCodes": ["us"],
    "tags": {
      "amenity": "restaurant",
      "brand": "Black Bear Diner",
      "brand:wikidata": "Q4920343",
      "brand:wikipedia": "en:Black Bear Diner",
      "cuisine": "american",
      "name": "Black Bear Diner"
    }
  },
  {
    "v": "Blaze Pizza",
    "lbl": {"en": "Blaze Pizza"},
    "countryCodes": ["bh", "ca", "kw", "sa", "us"],
    "tags": {
      "amenity": "restaurant",
      "brand": "Blaze Pizza",
      "brand:wikidata": "Q23016666",
      "brand:wikipedia": "en:Blaze Pizza",
      "cuisine": "pizza",
      "name": "Blaze Pizza"
    }
  },
  {
    "v": "Bob Evans",
    "lbl": {"en": "Bob Evans"},
    "countryCodes": ["us"],
    "tags": {
      "amenity": "restaurant",
      "brand": "Bob Evans",
      "brand:wikidata": "Q4932386",
      "brand:wikipedia": "en:Bob Evans Restaurants",
      "cuisine": "american",
      "name": "Bob Evans"
    }
  },
  {
    "v": "Bonanza Steakhouse",
    "lbl": {"en": "Bonanza Steakhouse"},
    "countryCodes": ["us"],
    "matchNames": ["bonanza"],
    "tags": {
      "amenity": "restaurant",
      "brand": "Bonanza Steakhouse",
      "brand:wikidata": "Q64045992",
      "cuisine": "american;steak;buffet",
      "name": "Bonanza Steakhouse"
    }
  },
  {
    "v": "Bonchon Chicken",
    "lbl": {"en": "Bonchon Chicken"},
    "countryCodes": ["bh", "kh", "kr", "kw", "my", "ph", "sg", "th", "us"],
    "tags": {
      "amenity": "restaurant",
      "brand": "Bonchon Chicken",
      "brand:wikidata": "Q4941248",
      "brand:wikipedia": "en:Bonchon Chicken",
      "cuisine": "chicken;korean;sushi",
      "name": "Bonchon Chicken"
    }
  },
  {
    "v": "Bonefish Grill",
    "lbl": {"en": "Bonefish Grill"},
    "countryCodes": ["us"],
    "tags": {
      "amenity": "restaurant",
      "brand": "Bonefish Grill",
      "brand:wikidata": "Q4941599",
      "brand:wikipedia": "en:Bonefish Grill",
      "cuisine": "seafood",
      "name": "Bonefish Grill"
    }
  },
  {
    "v": "Boston Pizza",
    "lbl": {"en": "Boston Pizza"},
    "countryCodes": ["ca", "us"],
    "tags": {
      "amenity": "restaurant",
      "brand": "Boston Pizza",
      "brand:wikidata": "Q894578",
      "brand:wikipedia": "en:Boston Pizza",
      "cuisine": "pizza",
      "name": "Boston Pizza"
    }
  },
  {
    "v": "Bravo",
    "lbl": {"en": "Bravo"},
    "countryCodes": ["us"],
    "nomatch": ["shop/supermarket|Bravo"],
    "tags": {
      "alt_name": "Bravo Cucina Italiana",
      "amenity": "restaurant",
      "brand": "Bravo",
      "brand:wikidata": "Q64055574",
      "cuisine": "italian",
      "name": "Bravo"
    }
  },
  {
    "v": "Brio",
    "lbl": {"en": "Brio"},
    "countryCodes": ["us"],
    "tags": {
      "alt_name": "Brio Tuscan Grille",
      "amenity": "restaurant",
      "brand": "Brio",
      "brand:wikidata": "Q64055835",
      "cuisine": "italian",
      "name": "Brio"
    }
  },
  {
    "v": "Bubba Gump Shrimp Company",
    "lbl": {"en": "Bubba Gump Shrimp Company"},
    "countryCodes": [
      "ca",
      "co",
      "gb",
      "hk",
      "id",
      "jp",
      "mp",
      "mx",
      "ph",
      "us"
    ],
    "tags": {
      "amenity": "restaurant",
      "brand": "Bubba Gump Shrimp Company",
      "brand:wikidata": "Q50024",
      "brand:wikipedia": "en:Bubba Gump Shrimp Company",
      "cuisine": "seafood",
      "name": "Bubba Gump Shrimp Company"
    }
  },
  {
    "v": "Buca di Beppo",
    "lbl": {"en": "Buca di Beppo"},
    "countryCodes": ["us"],
    "tags": {
      "amenity": "restaurant",
      "brand": "Buca di Beppo",
      "brand:wikidata": "Q4982340",
      "brand:wikipedia": "en:Buca di Beppo",
      "cuisine": "italian",
      "name": "Buca di Beppo"
    }
  },
  {
    "v": "Bucking Bull",
    "lbl": {"en": "Bucking Bull"},
    "countryCodes": ["au"],
    "tags": {
      "amenity": "restaurant",
      "brand": "Bucking Bull",
      "brand:wikidata": "Q18208286",
      "brand:wikipedia": "en:Bucking Bull",
      "cuisine": "steak_house",
      "name": "Bucking Bull"
    }
  },
  {
    "v": "Buffalo Grill",
    "lbl": {"en": "Buffalo Grill"},
    "countryCodes": ["es", "fr"],
    "tags": {
      "amenity": "restaurant",
      "brand": "Buffalo Grill",
      "brand:wikidata": "Q944655",
      "brand:wikipedia": "en:Buffalo Grill",
      "cuisine": "steak_house",
      "name": "Buffalo Grill"
    }
  },
  {
    "v": "Buffalo Wild Wings",
    "lbl": {"en": "Buffalo Wild Wings"},
    "tags": {
      "amenity": "restaurant",
      "brand": "Buffalo Wild Wings",
      "brand:wikidata": "Q509255",
      "brand:wikipedia": "en:Buffalo Wild Wings",
      "cuisine": "wings",
      "name": "Buffalo Wild Wings"
    }
  },
  {
    "v": "Buffalo Wings & Rings",
    "lbl": {"en": "Buffalo Wings & Rings"},
    "countryCodes": ["us"],
    "tags": {
      "amenity": "restaurant",
      "brand": "Buffalo Wings & Rings",
      "brand:wikidata": "Q4985900",
      "brand:wikipedia": "en:Buffalo Wings & Rings",
      "cuisine": "wings",
      "name": "Buffalo Wings & Rings",
      "takeaway": "yes"
    }
  },
  {
    "v": "Cafe Rio",
    "lbl": {"en": "Cafe Rio"},
    "countryCodes": ["us"],
    "tags": {
      "amenity": "restaurant",
      "brand": "Cafe Rio",
      "brand:wikidata": "Q5017108",
      "brand:wikipedia": "en:Cafe Rio",
      "cuisine": "mexican",
      "name": "Cafe Rio"
    }
  },
  {
    "v": "Café Rouge",
    "lbl": {"en": "Café Rouge"},
    "countryCodes": ["gb"],
    "tags": {
      "amenity": "restaurant",
      "brand": "Café Rouge",
      "brand:wikidata": "Q5017261",
      "brand:wikipedia": "en:Café Rouge",
      "cuisine": "french",
      "name": "Café Rouge"
    }
  },
  {
    "v": "California Pizza Kitchen",
    "lbl": {"en": "California Pizza Kitchen"},
    "tags": {
      "amenity": "restaurant",
      "brand": "California Pizza Kitchen",
      "brand:wikidata": "Q15109854",
      "brand:wikipedia": "en:California Pizza Kitchen",
      "cuisine": "pizza",
      "name": "California Pizza Kitchen"
    }
  },
  {
    "v": "Campanile",
    "lbl": {"en": "Campanile"},
    "countryCodes": ["fr", "gb", "nl"],
    "tags": {
      "amenity": "restaurant",
      "brand": "Campanile",
      "brand:wikidata": "Q2412064",
      "brand:wikipedia": "fr:Campanile (chaîne d'hôtels)",
      "cuisine": "french",
      "name": "Campanile"
    }
  },
  {
    "v": "Carluccio's",
    "lbl": {"en": "Carluccio's"},
    "countryCodes": ["gb"],
    "tags": {
      "amenity": "restaurant",
      "brand": "Carluccio's",
      "brand:wikidata": "Q25111797",
      "brand:wikipedia": "en:Carluccio's Ltd",
      "cuisine": "italian",
      "name": "Carluccio's"
    }
  },
  {
    "v": "Carrabba's Italian Grill",
    "lbl": {"en": "Carrabba's Italian Grill"},
    "countryCodes": ["us"],
    "tags": {
      "amenity": "restaurant",
      "brand": "Carrabba's Italian Grill",
      "brand:wikidata": "Q5045999",
      "brand:wikipedia": "en:Carrabba's Italian Grill",
      "cuisine": "italian",
      "name": "Carrabba's Italian Grill"
    }
  },
  {
    "v": "Cheddar's",
    "lbl": {"en": "Cheddar's"},
    "countryCodes": ["us"],
    "tags": {
      "amenity": "restaurant",
      "brand": "Cheddar's",
      "brand:wikidata": "Q5089187",
      "brand:wikipedia": "en:Cheddar's Scratch Kitchen",
      "cuisine": "american",
      "name": "Cheddar's",
      "official_name": "Cheddar's Scratch Kitchen"
    }
  },
  {
    "v": "Cheeburger Cheeburger",
    "lbl": {"en": "Cheeburger Cheeburger"},
    "countryCodes": ["ca", "sa", "us"],
    "tags": {
      "amenity": "restaurant",
      "brand": "Cheeburger Cheeburger",
      "brand:wikidata": "Q5089247",
      "brand:wikipedia": "en:Cheeburger Cheeburger",
      "cuisine": "burger",
      "name": "Cheeburger Cheeburger"
    }
  },
  {
    "v": "Chevys Fresh Mex",
    "lbl": {"en": "Chevys"},
    "countryCodes": ["us"],
    "tags": {
      "amenity": "restaurant",
      "brand": "Chevys Fresh Mex",
      "brand:wikidata": "Q5094466",
      "brand:wikipedia": "en:Chevys Fresh Mex",
      "cuisine": "mexican",
      "name": "Chevys",
      "official_name": "Chevys Fresh Mex"
    }
  },
  {
    "v": "Chili's",
    "lbl": {"en": "Chili's"},
    "tags": {
      "amenity": "restaurant",
      "brand": "Chili's",
      "brand:wikidata": "Q1072948",
      "brand:wikipedia": "en:Chili's",
      "cuisine": "tex-mex",
      "name": "Chili's",
      "official_name": "Chili's Grill & Bar"
    }
  },
  {
    "v": "Chiquito",
    "lbl": {"en": "Chiquito"},
    "countryCodes": ["gb"],
    "tags": {
      "amenity": "restaurant",
      "brand": "Chiquito",
      "brand:wikidata": "Q5101775",
      "brand:wikipedia": "en:Chiquito (restaurant)",
      "cuisine": "tex-mex",
      "name": "Chiquito"
    }
  },
  {
    "v": "Chuck E. Cheese's",
    "lbl": {"en": "Chuck E. Cheese's"},
    "countryCodes": ["ca", "us"],
    "matchNames": ["chuck e cheese"],
    "matchTags": ["leisure/amusement_arcade"],
    "tags": {
      "amenity": "restaurant",
      "brand": "Chuck E. Cheese's",
      "brand:wikidata": "Q2438391",
      "brand:wikipedia": "en:Chuck E. Cheese's",
      "cuisine": "pizza",
      "leisure": "amusement_arcade",
      "name": "Chuck E. Cheese's"
    }
  },
  {
    "v": "Chuy's",
    "lbl": {"en": "Chuy's"},
    "countryCodes": ["us"],
    "tags": {
      "amenity": "restaurant",
      "brand": "Chuy's",
      "brand:wikidata": "Q5118415",
      "brand:wikipedia": "en:Chuy's",
      "cuisine": "tex-mex",
      "name": "Chuy's"
    }
  },
  {
    "v": "Cici's Pizza",
    "lbl": {"en": "Cici's Pizza"},
    "countryCodes": ["us"],
    "tags": {
      "amenity": "restaurant",
      "brand": "Cici's Pizza",
      "brand:wikidata": "Q2972189",
      "brand:wikipedia": "en:Cicis",
      "cuisine": "pizza;buffet",
      "name": "Cici's Pizza"
    }
  },
  {
    "v": "Claim Jumper",
    "lbl": {"en": "Claim Jumper"},
    "countryCodes": ["us"],
    "tags": {
      "amenity": "restaurant",
      "brand": "Claim Jumper",
      "brand:wikidata": "Q5125081",
      "brand:wikipedia": "en:Claim Jumper",
      "cuisine": "american",
      "name": "Claim Jumper"
    }
  },
  {
    "v": "Coast to Coast",
    "lbl": {"en": "Coast to Coast"},
    "countryCodes": ["gb"],
    "tags": {
      "amenity": "restaurant",
      "brand": "Coast to Coast",
      "brand:wikidata": "Q22000729",
      "brand:wikipedia": "en:Coast to Coast (restaurant)",
      "cuisine": "american",
      "name": "Coast to Coast"
    }
  },
  {
    "v": "Copeland's",
    "lbl": {"en": "Copeland's"},
    "countryCodes": ["us"],
    "tags": {
      "amenity": "restaurant",
      "brand": "Copeland's",
      "brand:wikidata": "Q5168346",
      "brand:wikipedia": "en:Copeland's",
      "cuisine": "american",
      "name": "Copeland's"
    }
  },
  {
    "v": "Cora",
    "lbl": {"en": "Cora"},
    "countryCodes": ["ca"],
    "nomatch": ["shop/supermarket|Cora"],
    "tags": {
      "amenity": "restaurant",
      "brand": "Cora",
      "brand:wikidata": "Q2996960",
      "brand:wikipedia": "en:Cora (restaurant)",
      "cuisine": "breakfast",
      "name": "Cora"
    }
  },
  {
    "v": "Cosmo",
    "lbl": {"en": "Cosmo"},
    "countryCodes": ["gb", "ie"],
    "nomatch": ["amenity/fuel|Cosmo"],
    "tags": {
      "amenity": "restaurant",
      "brand": "Cosmo",
      "brand:wikidata": "Q5174239",
      "brand:wikipedia": "en:Cosmo (restaurant)",
      "cuisine": "international",
      "name": "Cosmo"
    }
  },
  {
    "v": "Country Pride",
    "lbl": {"en": "Country Pride"},
    "countryCodes": ["us"],
    "matchNames": ["country pride restaurant"],
    "tags": {
      "amenity": "restaurant",
      "brand": "Country Pride",
      "brand:wikidata": "Q64051992",
      "cuisine": "american",
      "name": "Country Pride"
    }
  },
  {
    "v": "Courtepaille",
    "lbl": {"en": "Courtepaille"},
    "countryCodes": ["fr"],
    "tags": {
      "amenity": "restaurant",
      "brand": "Courtepaille",
      "brand:wikidata": "Q3116688",
      "brand:wikipedia": "fr:Grill Courtepaille",
      "cuisine": "french",
      "name": "Courtepaille"
    }
  },
  {
    "v": "Cracker Barrel",
    "lbl": {"en": "Cracker Barrel"},
    "countryCodes": ["us"],
    "nomatch": ["shop/gift|Cracker Barrel"],
    "tags": {
      "amenity": "restaurant",
      "brand": "Cracker Barrel",
      "brand:wikidata": "Q4492609",
      "brand:wikipedia": "en:Cracker Barrel",
      "cuisine": "american",
      "name": "Cracker Barrel",
      "official_name": "Cracker Barrel Old Country Store"
    }
  },
  {
    "v": "Dave & Buster's",
    "lbl": {"en": "Dave & Buster's"},
    "countryCodes": ["us"],
    "matchTags": ["leisure/amusement_arcade"],
    "tags": {
      "amenity": "restaurant",
      "brand": "Dave & Buster's",
      "brand:wikidata": "Q5228205",
      "brand:wikipedia": "en:Dave & Buster's",
      "cuisine": "american",
      "leisure": "amusement_arcade",
      "name": "Dave & Buster's"
    }
  },
  {
    "v": "Denny's",
    "lbl": {"en": "Denny's"},
    "tags": {
      "amenity": "restaurant",
      "brand": "Denny's",
      "brand:wikidata": "Q1189695",
      "brand:wikipedia": "en:Denny's",
      "cuisine": "american",
      "name": "Denny's"
    }
  },
  {
    "v": "Dickey's Barbecue Pit",
    "lbl": {"en": "Dickey's Barbecue Pit"},
    "countryCodes": ["us"],
    "matchNames": ["dickeys barbecue"],
    "tags": {
      "amenity": "restaurant",
      "brand": "Dickey's Barbecue Pit",
      "brand:wikidata": "Q19880747",
      "brand:wikipedia": "en:Dickey's Barbecue Pit",
      "cuisine": "barbecue",
      "name": "Dickey's Barbecue Pit"
    }
  },
  {
    "v": "Din Tai Fung",
    "lbl": {"en": "Din Tai Fung"},
    "countryCodes": [
      "ae",
      "au",
      "gb",
      "hk",
      "id",
      "jp",
      "kr",
      "mo",
      "my",
      "ph",
      "sg",
      "th",
      "tw",
      "us"
    ],
    "tags": {
      "amenity": "restaurant",
      "brand": "Din Tai Fung",
      "brand:wikidata": "Q699142",
      "brand:wikipedia": "en:Din Tai Fung",
      "cuisine": "taiwanese",
      "name": "Din Tai Fung",
      "name:zh": "鼎泰丰"
    }
  },
  {
    "v": "Donatos Pizza",
    "lbl": {"en": "Donatos Pizza"},
    "countryCodes": ["us"],
    "matchNames": ["donatos"],
    "tags": {
      "amenity": "restaurant",
      "brand": "Donatos Pizza",
      "brand:wikidata": "Q1240741",
      "brand:wikipedia": "en:Donatos Pizza",
      "cuisine": "pizza",
      "name": "Donatos Pizza",
      "takeaway": "yes"
    }
  },
  {
    "v": "East Side Mario's",
    "lbl": {"en": "East Side Mario's"},
    "countryCodes": ["ca"],
    "tags": {
      "amenity": "restaurant",
      "brand": "East Side Mario's",
      "brand:wikidata": "Q5329375",
      "brand:wikipedia": "en:East Side Mario's",
      "cuisine": "italian",
      "name": "East Side Mario's"
    }
  },
  {
    "v": "Eat'n Park",
    "lbl": {"en": "Eat'n Park"},
    "countryCodes": ["us"],
    "tags": {
      "amenity": "restaurant",
      "brand": "Eat'n Park",
      "brand:wikidata": "Q5331211",
      "brand:wikipedia": "en:Eat'n Park",
      "cuisine": "american",
      "name": "Eat'n Park"
    }
  },
  {
    "v": "Elephant Bar",
    "lbl": {"en": "Elephant Bar"},
    "countryCodes": ["us"],
    "tags": {
      "amenity": "restaurant",
      "brand": "Elephant Bar",
      "brand:wikidata": "Q5359302",
      "brand:wikipedia": "en:Elephant Bar",
      "cuisine": "american",
      "name": "Elephant Bar"
    }
  },
  {
    "v": "Famous Dave's",
    "lbl": {"en": "Famous Dave's"},
    "countryCodes": ["us"],
    "matchNames": ["famous daves bbq"],
    "tags": {
      "amenity": "restaurant",
      "brand": "Famous Dave's",
      "brand:wikidata": "Q5433448",
      "brand:wikipedia": "en:Famous Dave's",
      "cuisine": "barbecue",
      "name": "Famous Dave's"
    }
  },
  {
    "v": "Fernandez",
    "lbl": {"en": "Fernandez"},
    "countryCodes": ["gb"],
    "tags": {
      "amenity": "restaurant",
      "brand": "Fernandez",
      "cuisine": "steak",
      "name": "Fernandez"
    }
  },
  {
    "v": "First Watch",
    "lbl": {"en": "First Watch"},
    "countryCodes": ["us"],
    "tags": {
      "amenity": "restaurant",
      "brand": "First Watch",
      "brand:wikidata": "Q5454064",
      "brand:wikipedia": "en:First Watch (restaurant chain)",
      "cuisine": "american;breakfast",
      "name": "First Watch"
    }
  },
  {
    "v": "Flunch",
    "lbl": {"en": "Flunch"},
    "countryCodes": ["fr"],
    "tags": {
      "amenity": "restaurant",
      "brand": "Flunch",
      "brand:wikidata": "Q629326",
      "brand:wikipedia": "en:Flunch",
      "cuisine": "french",
      "name": "Flunch"
    }
  },
  {
    "v": "Foster's Hollywood",
    "lbl": {"en": "Foster's Hollywood"},
    "countryCodes": ["es"],
    "tags": {
      "amenity": "restaurant",
      "brand": "Foster's Hollywood",
      "brand:wikidata": "Q5864366",
      "brand:wikipedia": "en:Foster's Hollywood",
      "cuisine": "american",
      "name": "Foster's Hollywood"
    }
  },
  {
    "v": "Frankie & Benny's",
    "lbl": {"en": "Frankie & Benny's"},
    "countryCodes": ["gb"],
    "tags": {
      "amenity": "restaurant",
      "brand": "Frankie & Benny's",
      "brand:wikidata": "Q5490892",
      "brand:wikipedia": "en:Frankie & Benny's",
      "cuisine": "italian",
      "name": "Frankie & Benny's"
    }
  },
  {
    "v": "Freshii",
    "lbl": {"en": "Freshii"},
    "countryCodes": ["ca", "us"],
    "tags": {
      "amenity": "restaurant",
      "brand": "Freshii",
      "brand:wikidata": "Q5503051",
      "brand:wikipedia": "en:Freshii",
      "cuisine": "salad",
      "name": "Freshii"
    }
  },
  {
    "v": "Friendly's",
    "lbl": {"en": "Friendly's"},
    "countryCodes": ["us"],
    "tags": {
      "amenity": "restaurant",
      "brand": "Friendly's",
      "brand:wikidata": "Q1464513",
      "brand:wikipedia": "en:Friendly's",
      "cuisine": "american",
      "name": "Friendly's"
    }
  },
  {
    "v": "Frisch's Big Boy",
    "lbl": {"en": "Frisch's Big Boy"},
    "countryCodes": ["us"],
    "tags": {
      "amenity": "restaurant",
      "brand": "Frisch's Big Boy",
      "brand:wikidata": "Q5504660",
      "brand:wikipedia": "en:Frisch's",
      "cuisine": "burger",
      "name": "Frisch's Big Boy",
      "takeaway": "yes"
    }
  },
  {
    "v": "Fuddruckers",
    "lbl": {"en": "Fuddruckers"},
    "tags": {
      "amenity": "restaurant",
      "brand": "Fuddruckers",
      "brand:wikidata": "Q5507056",
      "brand:wikipedia": "en:Fuddruckers",
      "cuisine": "burger",
      "name": "Fuddruckers"
    }
  },
  {
    "v": "Gatti's Pizza",
    "lbl": {"en": "Gatti's Pizza"},
    "countryCodes": ["us"],
    "tags": {
      "amenity": "restaurant",
      "brand": "Gatti's Pizza",
      "brand:wikidata": "Q5527509",
      "brand:wikipedia": "en:Gatti's Pizza",
      "cuisine": "pizza",
      "name": "Gatti's Pizza"
    }
  },
  {
    "v": "Giordano's Pizzeria",
    "lbl": {"en": "Giordano's Pizzeria"},
    "countryCodes": ["us"],
    "tags": {
      "amenity": "restaurant",
      "brand": "Giordano's Pizzeria",
      "brand:wikidata": "Q5563393",
      "brand:wikipedia": "en:Giordano's Pizzeria",
      "cuisine": "pizza",
      "name": "Giordano's Pizzeria"
    }
  },
  {
    "v": "Godfather's Pizza",
    "lbl": {"en": "Godfather's Pizza"},
    "countryCodes": ["us"],
    "tags": {
      "amenity": "restaurant",
      "brand": "Godfather's Pizza",
      "brand:wikidata": "Q5576353",
      "brand:wikipedia": "en:Godfather's Pizza",
      "cuisine": "pizza",
      "name": "Godfather's Pizza"
    }
  },
  {
    "v": "Golden Corral",
    "lbl": {"en": "Golden Corral"},
    "countryCodes": ["us"],
    "matchNames": ["golden corral buffet", "golden corral buffet and grill"],
    "tags": {
      "amenity": "restaurant",
      "brand": "Golden Corral",
      "brand:wikidata": "Q4039560",
      "brand:wikipedia": "en:Golden Corral",
      "cuisine": "american;buffet",
      "name": "Golden Corral"
    }
  },
  {
    "v": "Gourmet Burger Kitchen",
    "lbl": {"en": "Gourmet Burger Kitchen"},
    "countryCodes": ["gb", "gr", "ie"],
    "tags": {
      "amenity": "restaurant",
      "brand": "Gourmet Burger Kitchen",
      "brand:wikidata": "Q5588445",
      "brand:wikipedia": "en:Gourmet Burger Kitchen",
      "cuisine": "burger",
      "name": "Gourmet Burger Kitchen",
      "short_name": "GBK"
    }
  },
  {
    "v": "Grotto Pizza",
    "lbl": {"en": "Grotto Pizza"},
    "countryCodes": ["us"],
    "tags": {
      "amenity": "restaurant",
      "brand": "Grotto Pizza",
      "brand:wikidata": "Q20709024",
      "brand:wikipedia": "en:Grotto Pizza",
      "cuisine": "pizza",
      "name": "Grotto Pizza"
    }
  },
  {
    "v": "Gusto",
    "lbl": {"en": "Gusto~(United Kingdom)"},
    "countryCodes": ["gb"],
    "tags": {
      "amenity": "restaurant",
      "brand": "Gusto",
      "brand:wikidata": "Q66087781",
      "cuisine": "italian",
      "name": "Gusto"
    }
  },
  {
    "v": "Guzman y Gomez",
    "lbl": {"en": "Guzman y Gomez"},
    "countryCodes": ["au", "jp", "sg"],
    "tags": {
      "amenity": "restaurant",
      "brand": "Guzman y Gomez",
      "brand:wikidata": "Q23019759",
      "brand:wikipedia": "en:Guzman y Gomez",
      "cuisine": "mexican",
      "name": "Guzman y Gomez"
    }
  },
  {
    "v": "Handmade Burger Co.",
    "lbl": {"en": "Handmade Burger Co."},
    "countryCodes": ["gb"],
    "matchNames": ["Handmade Burger Company"],
    "tags": {
      "amenity": "restaurant",
      "brand": "Handmade Burger Co.",
      "brand:wikidata": "Q56154673",
      "cuisine": "burger",
      "name": "Handmade Burger Co."
    }
  },
  {
    "v": "Hans im Glück",
    "lbl": {"en": "Hans im Glück"},
    "countryCodes": ["at", "ch", "de", "sg"],
    "tags": {
      "amenity": "restaurant",
      "brand": "Hans im Glück",
      "brand:wikidata": "Q22569868",
      "brand:wikipedia": "de:Hans im Glück (Restaurantkette)",
      "cuisine": "burger",
      "name": "Hans im Glück"
    }
  },
  {
    "v": "Happy's Pizza",
    "lbl": {"en": "Happy's Pizza"},
    "countryCodes": ["us"],
    "tags": {
      "amenity": "restaurant",
      "brand": "Happy's Pizza",
      "brand:wikidata": "Q5652393",
      "brand:wikipedia": "en:Happy's Pizza",
      "cuisine": "pizza",
      "name": "Happy's Pizza"
    }
  },
  {
    "v": "Hard Rock Cafe",
    "lbl": {"en": "Hard Rock Cafe"},
    "tags": {
      "amenity": "restaurant",
      "brand": "Hard Rock Cafe",
      "brand:wikidata": "Q918151",
      "brand:wikipedia": "en:Hard Rock Cafe",
      "cuisine": "american",
      "name": "Hard Rock Cafe"
    }
  },
  {
    "v": "Harvester",
    "lbl": {"en": "Harvester"},
    "countryCodes": ["gb"],
    "matchTags": ["amenity/pub"],
    "tags": {
      "amenity": "restaurant",
      "brand": "Harvester",
      "brand:wikidata": "Q5676915",
      "brand:wikipedia": "en:Harvester (restaurant)",
      "cuisine": "american",
      "name": "Harvester"
    }
  },
  {
    "v": "Hippopotamus",
    "lbl": {"en": "Hippopotamus"},
    "countryCodes": ["fr"],
    "tags": {
      "amenity": "restaurant",
      "brand": "Hippopotamus",
      "brand:wikidata": "Q3136174",
      "brand:wikipedia": "fr:Hippopotamus (restaurant)",
      "cuisine": "steak_house",
      "name": "Hippopotamus"
    }
  },
  {
    "v": "Hog's Australia's Steakhouse",
    "lbl": {"en": "Hog's Australia's Steakhouse"},
    "countryCodes": ["au"],
    "tags": {
      "amenity": "restaurant",
      "brand": "Hog's Australia's Steakhouse",
      "brand:wikidata": "Q5876920",
      "brand:wikipedia": "au:Hog's Australia's Steakhouse",
      "cuisine": "steak_house",
      "name": "Hog's Australia's Steakhouse"
    }
  },
  {
    "v": "Hooters",
    "lbl": {"en": "Hooters"},
    "tags": {
      "amenity": "restaurant",
      "brand": "Hooters",
      "brand:wikidata": "Q1025921",
      "brand:wikipedia": "en:Hooters",
      "cuisine": "burger",
      "name": "Hooters"
    }
  },
  {
    "v": "House of Blues",
    "lbl": {"en": "House of Blues"},
    "tags": {
      "amenity": "restaurant",
      "brand": "House of Blues",
      "brand:wikidata": "Q648898",
      "brand:wikipedia": "en:House of Blues",
      "cuisine": "american",
      "name": "House of Blues"
    }
  },
  {
    "v": "Huddle House",
    "lbl": {"en": "Huddle House"},
    "countryCodes": ["us"],
    "tags": {
      "amenity": "restaurant",
      "brand": "Huddle House",
      "brand:wikidata": "Q5928324",
      "brand:wikipedia": "en:Huddle House",
      "cuisine": "american",
      "name": "Huddle House"
    }
  },
  {
    "v": "Husky",
    "lbl": {"en": "Husky House"},
    "countryCodes": ["ca"],
    "nomatch": ["amenity/fuel|Husky", "shop/convenience|Husky"],
    "tags": {
      "amenity": "restaurant",
      "brand": "Husky",
      "brand:wikidata": "Q702049",
      "brand:wikipedia": "en:Husky Energy",
      "cuisine": "diner",
      "name": "Husky House"
    }
  },
  {
    "v": "IHOP",
    "lbl": {"en": "IHOP"},
    "matchNames": ["international house of pancakes"],
    "tags": {
      "amenity": "restaurant",
      "brand": "IHOP",
      "brand:wikidata": "Q1185675",
      "brand:wikipedia": "en:IHOP",
      "cuisine": "breakfast;pancake",
      "name": "IHOP"
    }
  },
  {
    "v": "IL Патио",
    "lbl": {"en": "IL Патио"},
    "countryCodes": ["ru"],
    "tags": {
      "amenity": "restaurant",
      "brand": "IL Патио",
      "brand:wikidata": "Q4397763",
      "brand:wikipedia": "en:Росинтер",
      "cuisine": "italian",
      "name": "IL Патио"
    }
  },
  {
    "v": "Iron Skillet",
    "lbl": {"en": "Iron Skillet"},
    "countryCodes": ["us"],
    "matchNames": ["iron skillet restaurant"],
    "tags": {
      "amenity": "restaurant",
      "brand": "Iron Skillet",
      "brand:wikidata": "Q64052855",
      "cuisine": "american;buffet",
      "name": "Iron Skillet"
    }
  },
  {
    "v": "Jack Astor's",
    "lbl": {"en": "Jack Astor's"},
    "countryCodes": ["ca", "us"],
    "tags": {
      "amenity": "restaurant",
      "brand": "Jack Astor's",
      "brand:wikidata": "Q6111066",
      "brand:wikipedia": "en:Jack Astor's Bar and Grill",
      "cuisine": "american",
      "name": "Jack Astor's"
    }
  },
  {
    "v": "Jason's Deli",
    "lbl": {"en": "Jason's Deli"},
    "countryCodes": ["us"],
    "tags": {
      "amenity": "restaurant",
      "brand": "Jason's Deli",
      "brand:wikidata": "Q16997641",
      "brand:wikipedia": "en:Jason's Deli",
      "cuisine": "sandwich",
      "name": "Jason's Deli"
    }
  },
  {
    "v": "Jet's Pizza",
    "lbl": {"en": "Jet's Pizza"},
    "countryCodes": ["us"],
    "tags": {
      "amenity": "restaurant",
      "brand": "Jet's Pizza",
      "brand:wikidata": "Q16997713",
      "brand:wikipedia": "en:Jet's Pizza",
      "cuisine": "pizza",
      "name": "Jet's Pizza"
    }
  },
  {
    "v": "Jinya Ramen Bar",
    "lbl": {"en": "Jinya Ramen Bar"},
    "countryCodes": ["ca", "us"],
    "tags": {
      "amenity": "restaurant",
      "brand": "Jinya Ramen Bar",
      "brand:wikidata": "Q16997755",
      "brand:wikipedia": "en:Jinya Ramen Bar",
      "cuisine": "ramen",
      "name": "Jinya Ramen Bar"
    }
  },
  {
    "v": "Joe's Crab Shack",
    "lbl": {"en": "Joe's Crab Shack"},
    "countryCodes": ["us"],
    "tags": {
      "amenity": "restaurant",
      "brand": "Joe's Crab Shack",
      "brand:wikidata": "Q6208210",
      "brand:wikipedia": "en:Joe's Crab Shack",
      "cuisine": "seafood",
      "name": "Joe's Crab Shack"
    }
  },
  {
    "v": "Johnny Carino's",
    "lbl": {"en": "Johnny Carino's"},
    "countryCodes": ["us"],
    "matchNames": ["carinios"],
    "tags": {
      "amenity": "restaurant",
      "brand": "Johnny Carino's",
      "brand:wikidata": "Q5039637",
      "brand:wikipedia": "en:Carino's Italian",
      "cuisine": "italian",
      "name": "Johnny Carino's"
    }
  },
  {
    "v": "Johnny Rockets",
    "lbl": {"en": "Johnny Rockets"},
    "matchNames": ["johnny rocket"],
    "tags": {
      "amenity": "restaurant",
      "brand": "Johnny Rockets",
      "brand:wikidata": "Q1051593",
      "brand:wikipedia": "en:Johnny Rockets",
      "cuisine": "burger",
      "name": "Johnny Rockets"
    }
  },
  {
    "v": "Kelsey's",
    "lbl": {"en": "Kelsey's"},
    "countryCodes": ["ca"],
    "tags": {
      "amenity": "restaurant",
      "brand": "Kelsey's",
      "brand:wikidata": "Q6386459",
      "brand:wikipedia": "en:Kelseys Original Roadhouse",
      "cuisine": "american",
      "name": "Kelsey's"
    }
  },
  {
    "v": "Kona Grill",
    "lbl": {"en": "Kona Grill"},
    "countryCodes": ["us"],
    "tags": {
      "amenity": "restaurant",
      "brand": "Kona Grill",
      "brand:wikidata": "Q6428706",
      "brand:wikipedia": "en:Kona Grill",
      "cuisine": "sushi;cocktails",
      "name": "Kona Grill"
    }
  },
  {
    "v": "Kudu",
    "lbl": {"en": "Kudu"},
    "countryCodes": ["sa"],
    "tags": {
      "amenity": "restaurant",
      "brand": "Kudu",
      "brand:wikidata": "Q6441777",
      "brand:wikipedia": "en:Kudu (restaurant)",
      "cuisine": "sandwich",
      "name": "Kudu"
    }
  },
  {
    "v": "L'Atelier",
    "lbl": {"en": "L'Atelier"},
    "tags": {
      "amenity": "restaurant",
      "brand": "L'Atelier",
      "cuisine": "french",
      "name": "L'Atelier"
    }
  },
  {
    "v": "L'Osteria",
    "lbl": {"en": "L'Osteria"},
    "countryCodes": ["at", "ch", "cz", "de", "fr", "gb", "nl"],
    "tags": {
      "amenity": "restaurant",
      "brand": "L'Osteria",
      "brand:wikidata": "Q17323478",
      "brand:wikipedia": "de:L’Osteria",
      "cuisine": "italian",
      "name": "L'Osteria"
    }
  },
  {
    "v": "La Boucherie",
    "lbl": {"en": "La Boucherie"},
    "countryCodes": ["fr"],
    "tags": {
      "amenity": "restaurant",
      "brand": "La Boucherie",
      "brand:wikidata": "Q21427479",
      "brand:wikipedia": "fr:La Boucherie (restaurant)",
      "cuisine": "steak_house",
      "name": "La Boucherie"
    }
  },
  {
    "v": "La Cage",
    "lbl": {"en": "La Cage"},
    "countryCodes": ["ca"],
    "matchNames": ["La Cage aux Sports"],
    "tags": {
      "amenity": "restaurant",
      "brand": "La Cage",
      "brand:wikidata": "Q3206980",
      "brand:wikipedia": "fr:La Cage aux Sports",
      "cuisine": "burger;chicken;sandwich;fish;pasta",
      "name": "La Cage"
    }
  },
  {
    "v": "LaRosa's Pizzeria",
    "lbl": {"en": "LaRosa's Pizzeria"},
    "countryCodes": ["us"],
    "tags": {
      "amenity": "restaurant",
      "brand": "LaRosa's Pizzeria",
      "brand:wikidata": "Q6460833",
      "brand:wikipedia": "en:LaRosa's Pizzeria",
      "cuisine": "pizza",
      "name": "LaRosa's Pizzeria",
      "takeaway": "yes"
    }
  },
  {
    "v": "Ledo Pizza",
    "lbl": {"en": "Ledo Pizza"},
    "countryCodes": ["us"],
    "tags": {
      "amenity": "restaurant",
      "brand": "Ledo Pizza",
      "brand:wikidata": "Q6512734",
      "brand:wikipedia": "en:Ledo Pizza",
      "cuisine": "pizza",
      "name": "Ledo Pizza"
    }
  },
  {
    "v": "Legal Sea Foods",
    "lbl": {"en": "Legal Sea Foods"},
    "countryCodes": ["us"],
    "tags": {
      "amenity": "restaurant",
      "brand": "Legal Sea Foods",
      "brand:wikidata": "Q6517417",
      "brand:wikipedia": "en:Legal Sea Foods",
      "cuisine": "seafood",
      "name": "Legal Sea Foods"
    }
  },
  {
    "v": "3 Brasseurs",
    "lbl": {"en": "Les 3 Brasseurs~(Qc,Br,Fr)"},
    "countryCodes": ["br", "ca", "fr"],
    "matchNames": ["3 Brasseurs"],
    "tags": {
      "amenity": "restaurant",
      "brand": "3 Brasseurs",
      "brand:wikidata": "Q3230326",
      "brand:wikipedia": "fr:Les 3 Brasseurs",
      "cuisine": "burger;pizza;seafood",
      "name": "3 Brasseurs",
      "name:en": "3 Brewers",
      "official_name": "Les 3 Brasseurs"
    }
  },
  {
    "v": "Logan's Roadhouse",
    "lbl": {"en": "Logan's Roadhouse"},
    "countryCodes": ["us"],
    "tags": {
      "amenity": "restaurant",
      "brand": "Logan's Roadhouse",
      "brand:wikidata": "Q6666872",
      "brand:wikipedia": "en:Logan's Roadhouse",
      "cuisine": "american",
      "name": "Logan's Roadhouse"
    }
  },
  {
    "v": "LongHorn Steakhouse",
    "lbl": {"en": "LongHorn Steakhouse"},
    "countryCodes": ["us"],
    "tags": {
      "amenity": "restaurant",
      "brand": "LongHorn Steakhouse",
      "brand:wikidata": "Q3259007",
      "brand:wikipedia": "en:LongHorn Steakhouse",
      "cuisine": "steak_house",
      "name": "LongHorn Steakhouse"
    }
  },
  {
    "v": "Lou Malnati's Pizzeria",
    "lbl": {"en": "Lou Malnati's Pizzeria"},
    "countryCodes": ["us"],
    "tags": {
      "amenity": "restaurant",
      "brand": "Lou Malnati's Pizzeria",
      "brand:wikidata": "Q6685628",
      "brand:wikipedia": "en:Lou Malnati's Pizzeria",
      "cuisine": "pizza",
      "name": "Lou Malnati's Pizzeria"
    }
  },
  {
    "v": "Loving Hut",
    "lbl": {"en": "Loving Hut"},
    "tags": {
      "amenity": "restaurant",
      "brand": "Loving Hut",
      "brand:wikidata": "Q3491655",
      "brand:wikipedia": "en:Loving Hut",
      "cuisine": "international",
      "diet:vegan": "only",
      "diet:vegetarian": "only",
      "name": "Loving Hut"
    }
  },
  {
    "v": "Luby's",
    "lbl": {"en": "Luby's"},
    "countryCodes": ["us"],
    "tags": {
      "amenity": "restaurant",
      "brand": "Luby's",
      "brand:wikidata": "Q6695701",
      "brand:wikipedia": "en:Luby's",
      "cuisine": "american",
      "name": "Luby's"
    }
  },
  {
    "v": "Léon de Bruxelles",
    "lbl": {"en": "Léon de Bruxelles"},
    "countryCodes": ["fr"],
    "tags": {
      "amenity": "restaurant",
      "brand": "Léon de Bruxelles",
      "brand:wikidata": "Q21041507",
      "brand:wikipedia": "en:Léon de Bruxelles",
      "cuisine": "friture",
      "name": "Léon de Bruxelles"
    }
  },
  {
    "v": "MK Restaurants",
    "lbl": {"en": "MK Restaurants"},
    "countryCodes": ["th"],
    "tags": {
      "amenity": "restaurant",
      "brand": "MK Restaurants",
      "brand:wikidata": "Q62075359",
      "cuisine": "thai",
      "name": "MK Restaurants"
    }
  },
  {
    "v": "Mad Mex Fresh Mexican Grill",
    "lbl": {"en": "Mad Mex Fresh Mexican"},
    "countryCodes": ["au", "nz"],
    "tags": {
      "amenity": "restaurant",
      "brand": "Mad Mex Fresh Mexican Grill",
      "brand:wikidata": "Q19589766",
      "brand:wikipedia": "en:Mad Mex Fresh Mexican Grill",
      "cuisine": "mexican",
      "name": "Mad Mex Fresh Mexican Grill"
    }
  },
  {
    "v": "Marco's Pizza",
    "lbl": {"en": "Marco's Pizza"},
    "countryCodes": ["us"],
    "tags": {
      "amenity": "restaurant",
      "brand": "Marco's Pizza",
      "brand:wikidata": "Q6757382",
      "brand:wikipedia": "en:Marco's Pizza",
      "cuisine": "pizza",
      "name": "Marco's Pizza"
    }
  },
  {
    "v": "Marie Callender's",
    "lbl": {"en": "Marie Callender's"},
    "countryCodes": ["mx", "us"],
    "matchNames": ["marie calendar", "marie calendar's", "marie callendar's"],
    "tags": {
      "amenity": "restaurant",
      "brand": "Marie Callender's",
      "brand:wikidata": "Q6762784",
      "brand:wikipedia": "en:Marie Callender's",
      "cuisine": "american",
      "name": "Marie Callender's"
    }
  },
  {
    "v": "Max's Restaurant",
    "lbl": {"en": "Max's Restaurant"},
    "countryCodes": ["ph"],
    "matchNames": ["Max's"],
    "tags": {
      "amenity": "restaurant",
      "brand": "Max's Restaurant",
      "brand:wikidata": "Q6794477",
      "brand:wikipedia": "en:Max's Restaurant",
      "cuisine": "asian",
      "name": "Max's Restaurant"
    }
  },
  {
    "v": "McAlister's Deli",
    "lbl": {"en": "McAlister's Deli"},
    "countryCodes": ["us"],
    "tags": {
      "amenity": "restaurant",
      "brand": "McAlister's Deli",
      "brand:wikidata": "Q17020829",
      "brand:wikipedia": "en:McAlister's Deli",
      "cuisine": "sandwich",
      "name": "McAlister's Deli"
    }
  },
  {
    "v": "McCormick & Schmick's",
    "lbl": {"en": "McCormick & Schmick's"},
    "countryCodes": ["us"],
    "matchNames": ["mccormick and schmick", "mccormick and schmicks grill"],
    "tags": {
      "amenity": "restaurant",
      "brand": "McCormick & Schmick's",
      "brand:wikidata": "Q6800562",
      "brand:wikipedia": "en:McCormick & Schmick's",
      "cuisine": "seafood;steak",
      "name": "McCormick & Schmick's"
    }
  },
  {
    "v": "Mellow Mushroom",
    "lbl": {"en": "Mellow Mushroom"},
    "countryCodes": ["us"],
    "tags": {
      "amenity": "restaurant",
      "brand": "Mellow Mushroom",
      "brand:wikidata": "Q17021360",
      "brand:wikipedia": "en:Mellow Mushroom",
      "cuisine": "pizza",
      "name": "Mellow Mushroom"
    }
  },
  {
    "v": "Migros Restaurant",
    "lbl": {"en": "Migros Restaurant"},
    "tags": {
      "amenity": "restaurant",
      "brand": "Migros Restaurant",
      "cuisine": "international",
      "name": "Migros Restaurant"
    }
  },
  {
    "v": "Mikes",
    "lbl": {"en": "Mikes"},
    "countryCodes": ["ca"],
    "tags": {
      "amenity": "restaurant",
      "brand": "Mikes",
      "brand:wikidata": "Q3313615",
      "brand:wikipedia": "fr:Mikes",
      "cuisine": "pizza;pasta;sandwich",
      "name": "Mikes"
    }
  },
  {
    "v": "Mimi's Cafe",
    "lbl": {"en": "Mimi's Cafe"},
    "countryCodes": ["us"],
    "tags": {
      "amenity": "restaurant",
      "brand": "Mimi's Cafe",
      "brand:wikidata": "Q17022081",
      "brand:wikipedia": "en:Mimi's Cafe",
      "cuisine": "french",
      "name": "Mimi's Cafe"
    }
  },
  {
    "v": "Montana's",
    "lbl": {"en": "Montana's"},
    "countryCodes": ["ca"],
    "tags": {
      "amenity": "restaurant",
      "brand": "Montana's",
      "brand:wikidata": "Q17022490",
      "brand:wikipedia": "en:Montana's BBQ & Bar",
      "cuisine": "barbecue",
      "name": "Montana's",
      "official_name": "Montana's BBQ & Bar"
    }
  },
  {
    "v": "Morton's The Steakhouse",
    "lbl": {"en": "Morton's The Steakhouse"},
    "countryCodes": ["us"],
    "matchNames": ["mortons"],
    "tags": {
      "amenity": "restaurant",
      "brand": "Morton's The Steakhouse",
      "brand:wikidata": "Q17022759",
      "brand:wikipedia": "en:Morton's The Steakhouse",
      "cuisine": "steak_house",
      "name": "Morton's The Steakhouse"
    }
  },
  {
    "v": "Moses",
    "lbl": {"en": "Moses"},
    "countryCodes": ["il"],
    "tags": {
      "amenity": "restaurant",
      "brand": "Moses",
      "brand:en": "Moses",
      "brand:he": "מוזס",
      "brand:wikidata": "Q64760150",
      "cuisine": "burger",
      "name": "Moses",
      "name:en": "Moses",
      "name:he": "מוזס"
    }
  },
  {
    "v": "Mountain Mike's",
    "lbl": {"en": "Mountain Mike's"},
    "countryCodes": ["us"],
    "tags": {
      "alt_name": "Mountain Mike's Pizza",
      "amenity": "restaurant",
      "brand": "Mountain Mike's",
      "brand:wikidata": "Q6925120",
      "brand:wikipedia": "en:Mountain Mike's Pizza",
      "cuisine": "pizza",
      "name": "Mountain Mike's",
      "takeaway": "yes"
    }
  },
  {
    "v": "Mr. Greek",
    "lbl": {"en": "Mr. Greek"},
    "countryCodes": ["ca"],
    "tags": {
      "amenity": "restaurant",
      "brand": "Mr. Greek",
      "brand:wikidata": "Q6928719",
      "brand:wikipedia": "en:Mr. Greek",
      "cuisine": "greek",
      "name": "Mr. Greek"
    }
  },
  {
    "v": "Nando's",
    "lbl": {"en": "Nando's"},
    "tags": {
      "amenity": "restaurant",
      "brand": "Nando's",
      "brand:wikidata": "Q3472954",
      "brand:wikipedia": "en:Nando's",
      "cuisine": "chicken;portuguese",
      "name": "Nando's"
    }
  },
  {
    "v": "Noodles & Company",
    "lbl": {"en": "Noodles & Company"},
    "countryCodes": ["us"],
    "matchNames": ["noodles and co", "noodles co", "noodles company"],
    "tags": {
      "amenity": "restaurant",
      "brand": "Noodles & Company",
      "brand:wikidata": "Q7049673",
      "brand:wikipedia": "en:Noodles & Company",
      "cuisine": "pasta",
      "name": "Noodles & Company"
    }
  },
  {
    "v": "Norky's",
    "lbl": {"en": "Norky's"},
    "countryCodes": ["pe"],
    "tags": {
      "amenity": "restaurant",
      "brand": "Norky's",
      "cuisine": "peruvian",
      "name": "Norky's"
    }
  },
  {
    "v": "O'Charley's",
    "lbl": {"en": "O'Charley's"},
    "countryCodes": ["us"],
    "tags": {
      "amenity": "restaurant",
      "brand": "O'Charley's",
      "brand:wikidata": "Q7071703",
      "brand:wikipedia": "en:O'Charley's",
      "cuisine": "american",
      "name": "O'Charley's"
    }
  },
  {
    "v": "Ocean Basket",
    "lbl": {"en": "Ocean Basket"},
    "countryCodes": ["za"],
    "tags": {
      "amenity": "restaurant",
      "brand": "Ocean Basket",
      "brand:wikidata": "Q62075311",
      "cuisine": "seafood",
      "name": "Ocean Basket"
    }
  },
  {
    "v": "Old Chicago",
    "lbl": {"en": "Old Chicago"},
    "countryCodes": ["us"],
    "tags": {
      "amenity": "restaurant",
      "brand": "Old Chicago",
      "brand:wikidata": "Q64411347",
      "cuisine": "pizza",
      "name": "Old Chicago",
      "official_name": "Old Chicago Pizza & Taproom"
    }
  },
  {
    "v": "Old Wild West",
    "lbl": {"en": "Old Wild West"},
    "countryCodes": ["it"],
    "tags": {
      "amenity": "restaurant",
      "brand": "Old Wild West",
      "brand:wikidata": "Q25402475",
      "brand:wikipedia": "it:Old Wild West",
      "cuisine": "american",
      "name": "Old Wild West"
    }
  },
  {
    "v": "Olive Garden",
    "lbl": {"en": "Olive Garden"},
    "tags": {
      "amenity": "restaurant",
      "brand": "Olive Garden",
      "brand:wikidata": "Q3045312",
      "brand:wikipedia": "en:Olive Garden",
      "cuisine": "italian",
      "name": "Olive Garden"
    }
  },
  {
    "v": "On The Border",
    "lbl": {"en": "On The Border"},
    "countryCodes": ["us"],
    "tags": {
      "amenity": "restaurant",
      "brand": "On The Border",
      "brand:wikidata": "Q7091305",
      "brand:wikipedia": "en:On the Border Mexican Grill & Cantina",
      "cuisine": "tex-mex",
      "name": "On The Border",
      "official_name": "On The Border Mexican Grill & Cantina"
    }
  },
  {
    "v": "Outback Steakhouse",
    "lbl": {"en": "Outback Steakhouse"},
    "tags": {
      "amenity": "restaurant",
      "brand": "Outback Steakhouse",
      "brand:wikidata": "Q1064893",
      "brand:wikipedia": "en:Outback Steakhouse",
      "cuisine": "american;steak",
      "name": "Outback Steakhouse"
    }
  },
  {
    "v": "P.F. Chang's",
    "lbl": {"en": "P.F. Chang's"},
    "countryCodes": ["mx", "us"],
    "matchNames": ["pf chang"],
    "tags": {
      "amenity": "restaurant",
      "brand": "P.F. Chang's",
      "brand:wikidata": "Q5360181",
      "brand:wikipedia": "en:P. F. Chang's China Bistro",
      "cuisine": "asian",
      "name": "P.F. Chang's",
      "official_name": "P.F. Chang's China Bistro"
    }
  },
  {
    "v": "Papa Gino's",
    "lbl": {"en": "Papa Gino's"},
    "countryCodes": ["us"],
    "tags": {
      "amenity": "restaurant",
      "brand": "Papa Gino's",
      "brand:wikidata": "Q7132333",
      "brand:wikipedia": "en:Papa Gino's",
      "cuisine": "pizza",
      "name": "Papa Gino's"
    }
  },
  {
    "v": "Pardos Chicken",
    "lbl": {"en": "Pardos Chicken"},
    "countryCodes": ["pe"],
    "tags": {
      "amenity": "restaurant",
      "brand": "Pardos Chicken",
      "brand:wikidata": "Q17624435",
      "brand:wikipedia": "en:Pardos chicken",
      "cuisine": "peruvian",
      "name": "Pardos Chicken"
    }
  },
  {
    "v": "Pei Wei",
    "lbl": {"en": "Pei Wei"},
    "countryCodes": ["us"],
    "matchNames": ["pei wei asian diner"],
    "tags": {
      "amenity": "restaurant",
      "brand": "Pei Wei",
      "brand:wikidata": "Q7160898",
      "brand:wikipedia": "en:Pei Wei Asian Diner",
      "cuisine": "asian",
      "name": "Pei Wei"
    }
  },
  {
    "v": "Perkins",
    "lbl": {"en": "Perkins"},
    "countryCodes": ["us"],
    "tags": {
      "amenity": "restaurant",
      "brand": "Perkins",
      "brand:wikidata": "Q7169056",
      "brand:wikipedia": "en:Perkins Restaurant and Bakery",
      "cuisine": "american",
      "name": "Perkins",
      "official_name": "Perkins Restaurant and Bakery"
    }
  },
  {
    "v": "Peter Pane",
    "lbl": {"en": "Peter Pane"},
    "countryCodes": ["at", "de"],
    "tags": {
      "amenity": "restaurant",
      "brand": "Peter Pane",
      "brand:wikidata": "Q66084419",
      "cuisine": "burger",
      "name": "Peter Pane"
    }
  },
  {
    "v": "Peter Piper Pizza",
    "lbl": {"en": "Peter Piper Pizza"},
    "countryCodes": ["us"],
    "tags": {
      "amenity": "restaurant",
      "brand": "Peter Piper Pizza",
      "brand:wikidata": "Q7176401",
      "cuisine": "pizza",
      "name": "Peter Piper Pizza"
    }
  },
  {
    "v": "Phở 24",
    "lbl": {"en": "Phở 24"},
    "countryCodes": ["vn"],
    "tags": {
      "amenity": "restaurant",
      "brand": "Phở 24",
      "brand:wikidata": "Q63863118",
      "cuisine": "vietnamese;noodle",
      "name": "Phở 24",
      "name:en": "Pho 24",
      "name:vi": "Phở 24"
    }
  },
  {
    "v": "Phở Hòa",
    "lbl": {"en": "Phở Hòa"},
    "countryCodes": ["ca", "id", "kr", "ms", "ph", "tw", "us"],
    "tags": {
      "alt_name": "Phở Hoà",
      "alt_name:en": "Pho Hoa",
      "alt_name:vi": "Phở Hoà",
      "amenity": "restaurant",
      "brand": "Phở Hòa",
      "brand:wikidata": "Q55629932",
      "brand:wikipedia": "en:Phở Hòa",
      "cuisine": "vietnamese;noodle",
      "name": "Phở Hòa",
      "name:vi": "Phở Hòa"
    }
  },
  {
    "v": "Pieology Pizzeria",
    "lbl": {"en": "Pieology Pizzeria"},
    "countryCodes": ["us"],
    "matchNames": ["pieology"],
    "tags": {
      "amenity": "restaurant",
      "brand": "Pieology Pizzeria",
      "brand:wikidata": "Q60746053",
      "brand:wikipedia": "en:Pieology",
      "cuisine": "pizza",
      "name": "Pieology Pizzeria"
    }
  },
  {
    "v": "Pizza Factory",
    "lbl": {"en": "Pizza Factory"},
    "countryCodes": ["us"],
    "tags": {
      "amenity": "restaurant",
      "brand": "Pizza Factory",
      "brand:wikidata": "Q39054369",
      "brand:wikipedia": "en:Pizza Factory",
      "cuisine": "pizza",
      "name": "Pizza Factory"
    }
  },
  {
    "v": "Pizza Hut",
    "lbl": {"en": "Pizza Hut"},
    "nomatch": ["amenity/fast_food|Pizza Hut Express"],
    "tags": {
      "amenity": "restaurant",
      "brand": "Pizza Hut",
      "brand:wikidata": "Q191615",
      "brand:wikipedia": "en:Pizza Hut",
      "cuisine": "pizza",
      "name": "Pizza Hut"
    }
  },
  {
    "v": "Pizza Ranch",
    "lbl": {"en": "Pizza Ranch"},
    "countryCodes": ["us"],
    "tags": {
      "amenity": "restaurant",
      "brand": "Pizza Ranch",
      "brand:wikidata": "Q7199978",
      "brand:wikipedia": "en:Pizza Ranch",
      "cuisine": "pizza",
      "name": "Pizza Ranch"
    }
  },
  {
    "v": "PizzaExpress",
    "lbl": {"en": "PizzaExpress"},
    "tags": {
      "amenity": "restaurant",
      "brand": "PizzaExpress",
      "brand:wikidata": "Q662845",
      "brand:wikipedia": "en:PizzaExpress",
      "cuisine": "pizza",
      "name": "PizzaExpress"
    }
  },
  {
    "v": "Poivre Rouge",
    "lbl": {"en": "Poivre Rouge"},
    "countryCodes": ["fr"],
    "tags": {
      "amenity": "restaurant",
      "brand": "Poivre Rouge",
      "brand:wikidata": "Q7316076",
      "brand:wikipedia": "fr:Poivre Rouge (restauration)",
      "cuisine": "french",
      "name": "Poivre Rouge"
    }
  },
  {
    "v": "Ponderosa Steakhouse",
    "lbl": {"en": "Ponderosa Steakhouse"},
    "countryCodes": ["ae", "eg", "qa", "tw", "us"],
    "matchNames": ["ponderosa"],
    "tags": {
      "amenity": "restaurant",
      "brand": "Ponderosa Steakhouse",
      "brand:wikidata": "Q64038204",
      "cuisine": "american;steak;buffet",
      "name": "Ponderosa Steakhouse"
    }
  },
  {
    "v": "Prezzo",
    "lbl": {"en": "Prezzo"},
    "countryCodes": ["gb"],
    "tags": {
      "amenity": "restaurant",
      "brand": "Prezzo",
      "brand:wikidata": "Q7242489",
      "brand:wikipedia": "en:Prezzo (restaurant)",
      "cuisine": "italian",
      "name": "Prezzo"
    }
  },
  {
    "v": "Quaker Steak & Lube",
    "lbl": {"en": "Quaker Steak & Lube"},
    "countryCodes": ["us"],
    "tags": {
      "amenity": "restaurant",
      "brand": "Quaker Steak & Lube",
      "brand:wikidata": "Q7268570",
      "brand:wikipedia": "en:Quaker Steak & Lube",
      "cuisine": "wings",
      "name": "Quaker Steak & Lube"
    }
  },
  {
    "v": "Rainforest Cafe",
    "lbl": {"en": "Rainforest Cafe"},
    "countryCodes": ["us"],
    "tags": {
      "amenity": "restaurant",
      "brand": "Rainforest Cafe",
      "brand:wikidata": "Q3391111",
      "brand:wikipedia": "en:Rainforest Cafe",
      "cuisine": "american",
      "name": "Rainforest Cafe"
    }
  },
  {
    "v": "Red Lobster",
    "lbl": {"en": "Red Lobster"},
    "tags": {
      "amenity": "restaurant",
      "brand": "Red Lobster",
      "brand:wikidata": "Q846301",
      "brand:wikipedia": "en:Red Lobster",
      "cuisine": "seafood",
      "name": "Red Lobster"
    }
  },
  {
    "v": "Red Robin",
    "lbl": {"en": "Red Robin"},
    "countryCodes": ["ca", "us"],
    "tags": {
      "amenity": "restaurant",
      "brand": "Red Robin",
      "brand:wikidata": "Q7304886",
      "brand:wikipedia": "en:Red Robin",
      "cuisine": "burger",
      "name": "Red Robin",
      "official_name": "Red Robin Gourmet Burgers and Brews"
    }
  },
  {
    "v": "Romano's Macaroni Grill",
    "lbl": {"en": "Romano's Macaroni Grill"},
    "countryCodes": ["us"],
    "tags": {
      "amenity": "restaurant",
      "brand": "Romano's Macaroni Grill",
      "brand:wikidata": "Q7362714",
      "brand:wikipedia": "en:Romano's Macaroni Grill",
      "cuisine": "italian",
      "name": "Romano's Macaroni Grill"
    }
  },
  {
    "v": "Round Table Pizza",
    "lbl": {"en": "Round Table Pizza"},
    "countryCodes": ["us"],
    "matchNames": ["round table"],
    "tags": {
      "amenity": "restaurant",
      "brand": "Round Table Pizza",
      "brand:wikidata": "Q7371139",
      "brand:wikipedia": "en:Round Table Pizza",
      "cuisine": "pizza",
      "name": "Round Table Pizza"
    }
  },
  {
    "v": "Ruby Tuesday",
    "lbl": {"en": "Ruby Tuesday"},
    "tags": {
      "amenity": "restaurant",
      "brand": "Ruby Tuesday",
      "brand:wikidata": "Q7376400",
      "brand:wikipedia": "en:Ruby Tuesday (restaurant)",
      "cuisine": "american",
      "name": "Ruby Tuesday"
    }
  },
  {
    "v": "Ruth's Chris Steak House",
    "lbl": {"en": "Ruth's Chris Steak House"},
    "countryCodes": ["ca", "mx", "us"],
    "tags": {
      "amenity": "restaurant",
      "brand": "Ruth's Chris Steak House",
      "brand:wikidata": "Q7382829",
      "brand:wikipedia": "en:Ruth's Chris Steak House",
      "cuisine": "american",
      "name": "Ruth's Chris Steak House"
    }
  },
  {
    "v": "Saltgrass Steak House",
    "lbl": {"en": "Saltgrass Steak House"},
    "countryCodes": ["us"],
    "matchNames": ["saltgrass"],
    "tags": {
      "amenity": "restaurant",
      "brand": "Saltgrass Steak House",
      "brand:wikidata": "Q7406113",
      "brand:wikipedia": "en:Saltgrass Steak House",
      "cuisine": "steak_house",
      "name": "Saltgrass Steak House"
    }
  },
  {
    "v": "Sausalitos",
    "lbl": {"en": "Sausalitos"},
    "countryCodes": ["de"],
    "matchTags": ["amenity/bar"],
    "tags": {
      "amenity": "restaurant",
      "brand": "Sausalitos",
      "brand:wikidata": "Q2227783",
      "brand:wikipedia": "de:Sausalitos",
      "cuisine": "mexican",
      "name": "Sausalitos"
    }
  },
  {
    "v": "Scores",
    "lbl": {"en": "Scores"},
    "countryCodes": ["ca"],
    "tags": {
      "amenity": "restaurant",
      "brand": "Scores",
      "brand:wikidata": "Q3476059",
      "brand:wikipedia": "fr:Scores",
      "cuisine": "chicken;barbecue",
      "name": "Scores"
    }
  },
  {
    "v": "Shakey's",
    "lbl": {"en": "Shakey's"},
    "tags": {
      "amenity": "restaurant",
      "brand": "Shakey's",
      "brand:wikidata": "Q6134929",
      "brand:wikipedia": "en:Shakey's Pizza",
      "cuisine": "pizza",
      "name": "Shakey's"
    }
  },
  {
    "v": "Shari's",
    "lbl": {"en": "Shari's"},
    "countryCodes": ["us"],
    "tags": {
      "amenity": "restaurant",
      "brand": "Shari's",
      "brand:wikidata": "Q7489612",
      "brand:wikipedia": "en:Shari's Cafe & Pies",
      "cuisine": "american",
      "name": "Shari's"
    }
  },
  {
    "v": "Shingle Inn",
    "lbl": {"en": "Shingle Inn"},
    "countryCodes": ["au"],
    "tags": {
      "amenity": "restaurant",
      "brand": "Shingle Inn",
      "brand:wikidata": "Q7497463",
      "brand:wikipedia": "en:Shingle Inn",
      "cuisine": "bakery",
      "name": "Shingle Inn"
    }
  },
  {
    "v": "Shoney's",
    "lbl": {"en": "Shoney's"},
    "countryCodes": ["us"],
    "tags": {
      "amenity": "restaurant",
      "brand": "Shoney's",
      "brand:wikidata": "Q7500392",
      "brand:wikipedia": "en:Shoney's",
      "cuisine": "american",
      "name": "Shoney's"
    }
  },
  {
    "v": "Sizzler",
    "lbl": {"en": "Sizzler"},
    "tags": {
      "amenity": "restaurant",
      "brand": "Sizzler",
      "brand:wikidata": "Q1848822",
      "brand:wikipedia": "en:Sizzler",
      "cuisine": "steak_house",
      "name": "Sizzler"
    }
  },
  {
    "v": "Skyline Chili",
    "lbl": {"en": "Skyline Chili"},
    "countryCodes": ["us"],
    "tags": {
      "amenity": "restaurant",
      "brand": "Skyline Chili",
      "brand:wikidata": "Q151224",
      "brand:wikipedia": "en:Skyline Chili",
      "cuisine": "chili",
      "name": "Skyline Chili",
      "takeaway": "yes"
    }
  },
  {
    "v": "Smitty's",
    "lbl": {"en": "Smitty's"},
    "countryCodes": ["ca", "us"],
    "tags": {
      "amenity": "restaurant",
      "brand": "Smitty's",
      "brand:wikidata": "Q7545728",
      "brand:wikipedia": "en:Smitty's",
      "cuisine": "pancake",
      "name": "Smitty's"
    }
  },
  {
    "v": "Snappy Tomato Pizza",
    "lbl": {"en": "Snappy Tomato Pizza"},
    "countryCodes": ["gb", "us"],
    "tags": {
      "amenity": "restaurant",
      "brand": "Snappy Tomato Pizza",
      "brand:wikidata": "Q7547352",
      "brand:wikipedia": "en:Snappy Tomato Pizza",
      "cuisine": "pizza",
      "name": "Snappy Tomato Pizza",
      "takeaway": "yes"
    }
  },
  {
    "v": "Sonny's BBQ",
    "lbl": {"en": "Sonny's BBQ"},
    "countryCodes": ["us"],
    "tags": {
      "amenity": "restaurant",
      "brand": "Sonny's BBQ",
      "brand:wikidata": "Q7561989",
      "brand:wikipedia": "en:Sonny's BBQ",
      "cuisine": "bbq",
      "name": "Sonny's BBQ"
    }
  },
  {
    "v": "Spudbar",
    "lbl": {"en": "Spudbar"},
    "countryCodes": ["au"],
    "tags": {
      "amenity": "restaurant",
      "brand": "Spudbar",
      "brand:wikidata": "Q19589778",
      "brand:wikipedia": "en:Spudbar",
      "cuisine": "baked_potato",
      "name": "Spudbar"
    }
  },
  {
    "v": "Spur",
    "lbl": {"en": "Spur"},
    "countryCodes": ["za"],
    "matchNames": ["spur steak ranches"],
    "tags": {
      "amenity": "restaurant",
      "brand": "Spur",
      "brand:wikidata": "Q7581546",
      "brand:wikipedia": "en:Spur Steak Ranches",
      "cuisine": "steak_house",
      "name": "Spur"
    }
  },
  {
    "v": "St-Hubert",
    "lbl": {"en": "St-Hubert"},
    "countryCodes": ["ca"],
    "nomatch": ["amenity/fast_food|St-Hubert Express"],
    "tags": {
      "amenity": "restaurant",
      "brand": "St-Hubert",
      "brand:wikidata": "Q3495225",
      "brand:wikipedia": "en:St-Hubert",
      "cuisine": "chicken;barbecue",
      "name": "St-Hubert"
    }
  },
  {
    "v": "St. Louis Bar & Grill",
    "lbl": {"en": "St. Louis Bar & Grill"},
    "countryCodes": ["ca"],
    "tags": {
      "amenity": "restaurant",
      "brand": "St. Louis Bar & Grill",
      "brand:wikidata": "Q65567668",
      "cuisine": "chicken",
      "name": "St. Louis Bar & Grill"
    }
  },
  {
    "v": "Stoney River",
    "lbl": {"en": "Stoney River"},
    "countryCodes": ["us"],
    "tags": {
      "amenity": "restaurant",
      "brand": "Stoney River",
      "brand:wikidata": "Q7619422",
      "brand:wikipedia": "en:Stoney River Legendary Steaks",
      "cuisine": "steak_house",
      "name": "Stoney River"
    }
  },
  {
    "v": "Sunset Grill",
    "lbl": {"en": "Sunset Grill"},
    "countryCodes": ["ca", "us"],
    "tags": {
      "amenity": "restaurant",
      "brand": "Sunset Grill",
      "brand:wikidata": "Q62112489",
      "brand:wikipedia": "en:Sunset Grill (Canadian restaurant chain)",
      "cuisine": "american",
      "name": "Sunset Grill"
    }
  },
  {
    "v": "Swiss Chalet",
    "lbl": {"en": "Swiss Chalet"},
    "countryCodes": ["ca"],
    "tags": {
      "amenity": "restaurant",
      "brand": "Swiss Chalet",
      "brand:wikidata": "Q2372909",
      "brand:wikipedia": "en:Swiss Chalet",
      "cuisine": "chicken",
      "name": "Swiss Chalet"
    }
  },
  {
    "v": "TGI Friday's",
    "lbl": {"en": "TGI Friday's"},
    "tags": {
      "amenity": "restaurant",
      "brand": "TGI Friday's",
      "brand:wikidata": "Q1524184",
      "brand:wikipedia": "en:TGI Fridays",
      "cuisine": "american",
      "name": "TGI Friday's"
    }
  },
  {
    "v": "Ted's Montana Grill",
    "lbl": {"en": "Ted's Montana Grill"},
    "countryCodes": ["us"],
    "tags": {
      "amenity": "restaurant",
      "brand": "Ted's Montana Grill",
      "brand:wikidata": "Q16953170",
      "brand:wikipedia": "en:Ted's Montana Grill",
      "cuisine": "american",
      "name": "Ted's Montana Grill"
    }
  },
  {
    "v": "Tempero Manero",
    "lbl": {"en": "Tempero Manero"},
    "countryCodes": ["br"],
    "tags": {
      "amenity": "restaurant",
      "brand": "Tempero Manero",
      "cuisine": "brazilian",
      "name": "Tempero Manero"
    }
  },
  {
    "v": "Texas Roadhouse",
    "lbl": {"en": "Texas Roadhouse"},
    "countryCodes": ["us"],
    "tags": {
      "amenity": "restaurant",
      "brand": "Texas Roadhouse",
      "brand:wikidata": "Q7707945",
      "brand:wikipedia": "en:Texas Roadhouse",
      "cuisine": "steak_house",
      "name": "Texas Roadhouse"
    }
  },
  {
    "v": "The Cheesecake Factory",
    "lbl": {"en": "The Cheesecake Factory"},
    "countryCodes": ["us"],
    "tags": {
      "alt_name": "Cheesecake Factory",
      "amenity": "restaurant",
      "brand": "The Cheesecake Factory",
      "brand:wikidata": "Q1045842",
      "brand:wikipedia": "en:The Cheesecake Factory",
      "cuisine": "american",
      "name": "The Cheesecake Factory"
    }
  },
  {
    "v": "The Counter",
    "lbl": {"en": "The Counter"},
    "countryCodes": ["us"],
    "tags": {
      "amenity": "restaurant",
      "brand": "The Counter",
      "brand:wikidata": "Q7727763",
      "brand:wikipedia": "en:The Counter",
      "cuisine": "burger",
      "name": "The Counter"
    }
  },
  {
    "v": "The Keg",
    "lbl": {"en": "The Keg"},
    "countryCodes": ["ca", "us"],
    "matchNames": ["keg"],
    "tags": {
      "amenity": "restaurant",
      "brand": "The Keg",
      "brand:wikidata": "Q7744066",
      "brand:wikipedia": "en:The Keg",
      "cuisine": "steak_house",
      "name": "The Keg"
    }
  },
  {
    "v": "The Melting Pot",
    "lbl": {"en": "The Melting Pot"},
    "countryCodes": ["us"],
    "tags": {
      "alt_name": "Melting Pot",
      "amenity": "restaurant",
      "brand": "The Melting Pot",
      "brand:wikidata": "Q7750948",
      "brand:wikipedia": "en:The Melting Pot (restaurant)",
      "cuisine": "fondue",
      "name": "The Melting Pot"
    }
  },
  {
    "v": "The Original Pancake House",
    "lbl": {"en": "The Original Pancake House"},
    "countryCodes": ["jp", "kr", "us"],
    "matchNames": ["original pancake house"],
    "tags": {
      "amenity": "restaurant",
      "brand": "The Original Pancake House",
      "brand:wikidata": "Q7755384",
      "brand:wikipedia": "en:The Original Pancake House",
      "cuisine": "breakfast;pancake",
      "name": "The Original Pancake House"
    }
  },
  {
    "v": "Tinseltown",
    "lbl": {"en": "Tinseltown"},
    "countryCodes": ["gb"],
    "tags": {
      "amenity": "restaurant",
      "brand": "Tinseltown",
      "cuisine": "american",
      "name": "Tinseltown"
    }
  },
  {
    "v": "Toby Carvery",
    "lbl": {"en": "Toby Carvery"},
    "countryCodes": ["gb"],
    "matchTags": ["amenity/pub"],
    "tags": {
      "amenity": "restaurant",
      "brand": "Toby Carvery",
      "brand:wikidata": "Q7811777",
      "brand:wikipedia": "en:Toby Carvery",
      "cuisine": "british",
      "name": "Toby Carvery"
    }
  },
  {
    "v": "Toks",
    "lbl": {"en": "Toks"},
    "countryCodes": ["mx"],
    "tags": {
      "amenity": "restaurant",
      "brand": "Toks",
      "brand:wikidata": "Q48835586",
      "brand:wikipedia": "en:Toks",
      "cuisine": "mexican",
      "name": "Toks"
    }
  },
  {
    "v": "Tony Roma's",
    "lbl": {"en": "Tony Roma's"},
    "matchNames": ["tony roma"],
    "tags": {
      "amenity": "restaurant",
      "brand": "Tony Roma's",
      "brand:wikidata": "Q2213883",
      "brand:wikipedia": "en:Tony Roma's",
      "cuisine": "barbecue",
      "name": "Tony Roma's"
    }
  },
  {
    "v": "Topper's Pizza",
    "lbl": {"en": "Topper's Pizza~(Canada)"},
    "countryCodes": ["ca"],
    "tags": {
      "amenity": "restaurant",
      "brand": "Topper's Pizza",
      "brand:wikidata": "Q7825105",
      "brand:wikipedia": "en:Topper's Pizza (Canadian restaurant)",
      "cuisine": "pizza",
      "name": "Topper's Pizza"
    }
  },
  {
    "v": "Toppers Pizza",
    "lbl": {"en": "Toppers Pizza~(USA)"},
    "countryCodes": ["us"],
    "tags": {
      "amenity": "restaurant",
      "brand": "Toppers Pizza",
      "brand:wikidata": "Q7825113",
      "brand:wikipedia": "en:Toppers Pizza (American restaurant)",
      "cuisine": "pizza",
      "name": "Toppers Pizza"
    }
  },
  {
    "v": "Unos",
    "lbl": {"en": "Unos"},
    "tags": {
      "amenity": "restaurant",
      "brand": "Unos",
      "brand:wikidata": "Q7897209",
      "brand:wikipedia": "en:Uno Pizzeria & Grill",
      "cuisine": "pizza",
      "name": "Unos"
    }
  },
  {
    "v": "Vapiano",
    "lbl": {"en": "Vapiano"},
    "tags": {
      "amenity": "restaurant",
      "brand": "Vapiano",
      "brand:wikidata": "Q506252",
      "brand:wikipedia": "en:Vapiano",
      "cuisine": "italian",
      "name": "Vapiano"
    }
  },
  {
    "v": "Village Inn",
    "lbl": {"en": "Village Inn"},
    "countryCodes": ["us"],
    "tags": {
      "amenity": "restaurant",
      "brand": "Village Inn",
      "brand:wikidata": "Q7930659",
      "brand:wikipedia": "en:Village Inn",
      "cuisine": "american",
      "name": "Village Inn"
    }
  },
  {
    "v": "Vips",
    "lbl": {"en": "Vips~(Asia)"},
    "countryCodes": ["cn", "kr"],
    "tags": {
      "amenity": "restaurant",
      "brand": "Vips",
      "brand:wikidata": "Q12599540",
      "brand:wikipedia": "ko:빕스",
      "cuisine": "salad;steak_house",
      "name": "Vips"
    }
  },
  {
    "v": "Vips",
    "lbl": {"en": "Vips~(Mexico)"},
    "countryCodes": ["mx"],
    "tags": {
      "amenity": "restaurant",
      "brand": "Vips",
      "brand:wikidata": "Q48783378",
      "brand:wikipedia": "es:Vips",
      "cuisine": "mexican",
      "name": "Vips"
    }
  },
  {
    "v": "Vips",
    "lbl": {"en": "Vips~(Spain)"},
    "countryCodes": ["es"],
    "tags": {
      "amenity": "restaurant",
      "brand": "Vips",
      "brand:wikidata": "Q66087862",
      "cuisine": "international",
      "name": "Vips"
    }
  },
  {
    "v": "Waffle House",
    "lbl": {"en": "Waffle House"},
    "countryCodes": ["us"],
    "tags": {
      "amenity": "restaurant",
      "brand": "Waffle House",
      "brand:wikidata": "Q1701206",
      "brand:wikipedia": "en:Waffle House",
      "cuisine": "american",
      "name": "Waffle House",
      "opening_hours": "24/7"
    }
  },
  {
    "v": "Wagamama",
    "lbl": {"en": "Wagamama"},
    "tags": {
      "amenity": "restaurant",
      "brand": "Wagamama",
      "brand:wikidata": "Q503715",
      "brand:wikipedia": "en:Wagamama",
      "cuisine": "asian",
      "name": "Wagamama"
    }
  },
  {
    "v": "Wasabi",
    "lbl": {"en": "Wasabi"},
    "tags": {
      "amenity": "restaurant",
      "brand": "Wasabi",
      "brand:wikidata": "Q23891278",
      "brand:wikipedia": "en:Wasabi (restaurant)",
      "cuisine": "japanese",
      "name": "Wasabi"
    }
  },
  {
    "v": "Western Sizzlin'",
    "lbl": {"en": "Western Sizzlin'"},
    "countryCodes": ["us"],
    "matchNames": ["western sizzling"],
    "tags": {
      "amenity": "restaurant",
      "brand": "Western Sizzlin'",
      "brand:wikidata": "Q7988295",
      "brand:wikipedia": "en:Western Sizzlin'",
      "cuisine": "american;steak",
      "name": "Western Sizzlin'"
    }
  },
  {
    "v": "White Spot",
    "lbl": {"en": "White Spot"},
    "countryCodes": ["ca"],
    "tags": {
      "amenity": "restaurant",
      "brand": "White Spot",
      "brand:wikidata": "Q7995414",
      "brand:wikipedia": "en:White Spot",
      "cuisine": "burger",
      "name": "White Spot"
    }
  },
  {
    "v": "Wild Wing",
    "lbl": {"en": "Wild Wing"},
    "countryCodes": ["ca"],
    "tags": {
      "amenity": "restaurant",
      "brand": "Wild Wing",
      "brand:wikidata": "Q8000869",
      "brand:wikipedia": "en:Wild Wing Restaurants",
      "cuisine": "chicken",
      "name": "Wild Wing"
    }
  },
  {
    "v": "YO! Sushi",
    "lbl": {"en": "YO! Sushi"},
    "countryCodes": ["gb"],
    "tags": {
      "amenity": "restaurant",
      "brand": "YO! Sushi",
      "brand:wikidata": "Q3105441",
      "brand:wikipedia": "en:YO! Sushi",
      "cuisine": "sushi",
      "name": "YO! Sushi"
    }
  },
  {
    "v": "Yard House",
    "lbl": {"en": "Yard House"},
    "countryCodes": ["us"],
    "tags": {
      "alcohol": "yes",
      "amenity": "restaurant",
      "brand": "Yard House",
      "brand:wikidata": "Q21189156",
      "brand:wikipedia": "en:Yard House",
      "cuisine": "american",
      "name": "Yard House"
    }
  },
  {
    "v": "Zambrero",
    "lbl": {"en": "Zambrero"},
    "countryCodes": ["au", "ie", "nl", "th", "us"],
    "tags": {
      "amenity": "restaurant",
      "brand": "Zambrero",
      "brand:wikidata": "Q18636431",
      "brand:wikipedia": "en:Zambrero",
      "cuisine": "mexican",
      "name": "Zambrero"
    }
  },
  {
    "v": "Zizzi",
    "lbl": {"en": "Zizzi"},
    "countryCodes": ["gb"],
    "tags": {
      "amenity": "restaurant",
      "brand": "Zizzi",
      "brand:wikidata": "Q8072944",
      "brand:wikipedia": "en:Zizzi",
      "cuisine": "italian",
      "name": "Zizzi"
    }
  },
  {
    "v": "bd's Mongolian Grill",
    "lbl": {"en": "bd's Mongolian Grill"},
    "countryCodes": ["mn", "us"],
    "matchNames": ["bd Mongolian Grill"],
    "tags": {
      "amenity": "restaurant",
      "brand": "bd's Mongolian Grill",
      "brand:wikidata": "Q69890408",
      "cuisine": "mongolian_bbq",
      "name": "bd's Mongolian Grill"
    }
  },
  {
    "v": "dean&david",
    "lbl": {"en": "dean&david"},
    "countryCodes": ["at", "ch", "de", "lu", "qa"],
    "tags": {
      "amenity": "restaurant",
      "brand": "dean&david",
      "brand:wikidata": "Q66132404",
      "cuisine": "salad;sandwich",
      "name": "dean&david"
    }
  },
  {
    "v": "Евразия",
    "lbl": {"en": "Евразия~(Russia)"},
    "countryCodes": ["ru"],
    "tags": {
      "amenity": "restaurant",
      "brand": "Евразия",
      "brand:wikidata": "Q66087936",
      "cuisine": "international",
      "name": "Евразия"
    }
  },
  {
    "v": "Евразия",
    "lbl": {"en": "Евразия~(Ukraine)"},
    "countryCodes": ["ua"],
    "tags": {
      "amenity": "restaurant",
      "brand": "Евразия",
      "brand:wikidata": "Q66088028",
      "cuisine": "international",
      "name": "Евразия"
    }
  },
  {
    "v": "Планета Суши",
    "lbl": {"en": "Планета Суши"},
    "countryCodes": ["ru"],
    "tags": {
      "amenity": "restaurant",
      "brand": "Планета Суши",
      "brand:wikidata": "Q62739250",
      "cuisine": "sushi",
      "name": "Планета Суши",
      "name:en": "Planet Sushi"
    }
  },
  {
    "v": "Тануки",
    "lbl": {"en": "Тануки"},
    "countryCodes": ["kz", "ru", "ua"],
    "tags": {
      "amenity": "restaurant",
      "brand": "Тануки",
      "brand:wikidata": "Q62758690",
      "cuisine": "japanese",
      "name": "Тануки",
      "name:en": "Tanuki",
      "name:ru": "Тануки"
    }
  },
  {
    "v": "Якитория",
    "lbl": {"en": "Якитория"},
    "countryCodes": ["ru"],
    "tags": {
      "amenity": "restaurant",
      "brand": "Якитория",
      "brand:wikidata": "Q66088063",
      "cuisine": "japanese;international",
      "name": "Якитория"
    }
  },
  {
    "v": "בורגר סאלון",
    "lbl": {"en": "בורגר סאלון"},
    "countryCodes": ["il"],
    "tags": {
      "amenity": "restaurant",
      "brand": "בורגר סאלון",
      "brand:en": "Burger Saloon",
      "brand:he": "בורגר סאלון",
      "brand:wikidata": "Q64760057",
      "cuisine": "burger",
      "name": "בורגר סאלון",
      "name:en": "Burger Saloon",
      "name:he": "בורגר סאלון"
    }
  },
  {
    "v": "あさくま",
    "lbl": {"en": "あさくま"},
    "countryCodes": ["jp"],
    "tags": {
      "amenity": "restaurant",
      "brand": "あさくま",
      "brand:en": "Asakuma",
      "brand:ja": "あさくま",
      "brand:wikidata": "Q11257174",
      "brand:wikipedia": "ja:あさくま",
      "cuisine": "steak_house",
      "name": "あさくま",
      "name:en": "Asakuma",
      "name:ja": "あさくま"
    }
  },
  {
    "v": "いきなり！ステーキ",
    "lbl": {"en": "いきなり！ステーキ"},
    "countryCodes": ["jp"],
    "tags": {
      "amenity": "restaurant",
      "brand": "いきなり！ステーキ",
      "brand:en": "Ikinari Steak",
      "brand:ja": "いきなり！ステーキ",
      "brand:wikidata": "Q21652405",
      "brand:wikipedia": "ja:いきなり!ステーキ",
      "cuisine": "steak_house",
      "name": "いきなり！ステーキ",
      "name:en": "Ikinari Steak",
      "name:ja": "いきなり！ステーキ"
    }
  },
  {
    "v": "しゃぶ葉",
    "lbl": {"en": "しゃぶ葉"},
    "countryCodes": ["jp"],
    "tags": {
      "amenity": "restaurant",
      "brand": "しゃぶ葉",
      "brand:ja": "しゃぶ葉",
      "name": "しゃぶ葉",
      "name:ja": "しゃぶ葉"
    }
  },
  {
    "v": "とんでん",
    "lbl": {"en": "とんでん"},
    "countryCodes": ["jp"],
    "tags": {
      "amenity": "restaurant",
      "brand": "とんでん",
      "brand:ja": "とんでん",
      "name": "とんでん",
      "name:ja": "とんでん"
    }
  },
  {
    "v": "はなまるうどん",
    "lbl": {"en": "はなまるうどん"},
    "countryCodes": ["jp"],
    "tags": {
      "amenity": "restaurant",
      "brand": "はなまるうどん",
      "brand:en": "Hanamarūdon",
      "brand:ja": "はなまるうどん",
      "brand:wikidata": "Q11275674",
      "brand:wikipedia": "ja:はなまるうどん",
      "cuisine": "japanese;udon",
      "name": "はなまるうどん",
      "name:en": "Hanamarūdon",
      "name:ja": "はなまるうどん"
    }
  },
  {
    "v": "びっくりドンキー",
    "lbl": {"en": "びっくりドンキー"},
    "countryCodes": ["jp"],
    "tags": {
      "amenity": "restaurant",
      "brand": "びっくりドンキー",
      "brand:en": "Bikkuri Donkey",
      "brand:ja": "びっくりドンキー",
      "brand:wikidata": "Q11276815",
      "brand:wikipedia": "ja:びっくりドンキー",
      "cuisine": "burger",
      "name": "びっくりドンキー",
      "name:en": "Bikkuri Donkey",
      "name:ja": "びっくりドンキー"
    }
  },
  {
    "v": "やよい軒",
    "lbl": {"en": "やよい軒"},
    "countryCodes": ["jp"],
    "tags": {
      "amenity": "restaurant",
      "brand": "やよい軒",
      "brand:en": "Yayoiken",
      "brand:ja": "やよい軒",
      "brand:wikidata": "Q11280577",
      "brand:wikipedia": "ja:やよい軒",
      "cuisine": "japanese",
      "name": "やよい軒",
      "name:en": "Yayoiken",
      "name:ja": "やよい軒"
    }
  },
  {
    "v": "カプリチョーザ",
    "lbl": {"en": "カプリチョーザ"},
    "countryCodes": ["jp"],
    "tags": {
      "amenity": "restaurant",
      "brand": "カプリチョーザ",
      "brand:en": "Capricciosa",
      "brand:ja": "カプリチョーザ",
      "brand:wikidata": "Q11294660",
      "brand:wikipedia": "ja:カプリチョーザ",
      "cuisine": "italian",
      "name": "カプリチョーザ",
      "name:en": "Capricciosa",
      "name:ja": "カプリチョーザ"
    }
  },
  {
    "v": "ガスト",
    "lbl": {"en": "ガスト"},
    "countryCodes": ["jp"],
    "tags": {
      "amenity": "restaurant",
      "brand": "ガスト",
      "brand:en": "Gusto",
      "brand:ja": "ガスト",
      "cuisine": "western;japanese",
      "name": "ガスト",
      "name:en": "Gusto",
      "name:ja": "ガスト"
    }
  },
  {
    "v": "ココス",
    "lbl": {"en": "ココス"},
    "countryCodes": ["jp"],
    "tags": {
      "amenity": "restaurant",
      "brand": "ココス",
      "brand:en": "Coco's",
      "brand:ja": "ココス",
      "brand:wikidata": "Q11301951",
      "brand:wikipedia": "ja:ココスジャパン",
      "cuisine": "western;japanese",
      "name": "ココス",
      "name:en": "Coco's",
      "name:ja": "ココス"
    }
  },
  {
    "v": "サイゼリヤ",
    "lbl": {"en": "サイゼリヤ"},
    "countryCodes": ["jp"],
    "tags": {
      "amenity": "restaurant",
      "brand": "サイゼリヤ",
      "brand:en": "Saizeriya",
      "brand:ja": "サイゼリヤ",
      "brand:wikidata": "Q886564",
      "brand:wikipedia": "en:Saizeriya",
      "cuisine": "italian",
      "name": "サイゼリヤ",
      "name:en": "Saizeriya",
      "name:ja": "サイゼリヤ"
    }
  },
  {
    "v": "ジョイフル",
    "lbl": {"en": "ジョイフル"},
    "countryCodes": ["jp"],
    "tags": {
      "amenity": "restaurant",
      "brand": "ジョイフル",
      "brand:en": "Joyfull",
      "brand:ja": "ジョイフル",
      "brand:wikidata": "Q11310517",
      "brand:wikipedia": "ja:ジョイフル",
      "cuisine": "western",
      "name": "ジョイフル",
      "name:en": "Joyfull",
      "name:ja": "ジョイフル"
    }
  },
  {
    "v": "ジョナサン",
    "lbl": {"en": "ジョナサン"},
    "countryCodes": ["jp"],
    "tags": {
      "amenity": "restaurant",
      "brand": "ジョナサン",
      "brand:en": "Jonathan's",
      "brand:ja": "ジョナサン",
      "brand:wikidata": "Q11310628",
      "brand:wikipedia": "ja:ジョナサン (ファミリーレストラン)",
      "cuisine": "italian;japanese",
      "name": "ジョナサン",
      "name:en": "Jonathan's",
      "name:ja": "ジョナサン"
    }
  },
  {
    "v": "ジョリーパスタ",
    "lbl": {"en": "ジョリーパスタ"},
    "countryCodes": ["jp"],
    "tags": {
      "amenity": "restaurant",
      "brand": "ジョリーパスタ",
      "brand:en": "Jolly-Pasta",
      "brand:ja": "ジョリーパスタ",
      "brand:wikidata": "Q10852718",
      "brand:wikipedia": "ja:ジョリーパスタ",
      "cuisine": "pasta",
      "name": "ジョリーパスタ",
      "name:en": "Jolly-Pasta",
      "name:ja": "ジョリーパスタ"
    }
  },
  {
    "v": "ステーキガスト",
    "lbl": {"en": "ステーキガスト"},
    "countryCodes": ["jp"],
    "tags": {
      "amenity": "restaurant",
      "brand": "ステーキガスト",
      "brand:en": "Skylark",
      "brand:ja": "ステーキガスト",
      "brand:wikidata": "Q11253593",
      "brand:wikipedia": "ja:すかいらーく",
      "cuisine": "steak",
      "name": "ステーキガスト",
      "name:en": "Skylark",
      "name:ja": "ステーキガスト"
    }
  },
  {
    "v": "デニーズ",
    "lbl": {"en": "デニーズ"},
    "countryCodes": ["jp"],
    "tags": {
      "amenity": "restaurant",
      "brand": "デニーズ",
      "brand:en": "Denny's",
      "brand:ja": "デニーズ",
      "brand:wikidata": "Q11320661",
      "brand:wikipedia": "ja:デニーズ (日本)",
      "cuisine": "western;japanese",
      "name": "デニーズ",
      "name:en": "Denny's",
      "name:ja": "デニーズ"
    }
  },
  {
    "v": "バーミヤン",
    "lbl": {"en": "バーミヤン"},
    "countryCodes": ["jp"],
    "tags": {
      "amenity": "restaurant",
      "brand": "バーミヤン",
      "brand:en": "Bamiyan",
      "brand:ja": "バーミヤン",
      "brand:wikidata": "Q11328598",
      "brand:wikipedia": "ja:バーミヤン (レストランチェーン)",
      "cuisine": "chinese",
      "name": "バーミヤン",
      "name:en": "Bamiyan",
      "name:ja": "バーミヤン"
    }
  },
  {
    "v": "ビッグボーイ",
    "lbl": {"en": "ビッグボーイ"},
    "countryCodes": ["jp"],
    "tags": {
      "amenity": "restaurant",
      "brand": "ビッグボーイ",
      "brand:en": "Big Boy Restaurants",
      "brand:ja": "ビッグボーイ",
      "brand:wikidata": "Q4386779",
      "brand:wikipedia": "en:Big Boy Restaurants",
      "cuisine": "burger",
      "name": "ビッグボーイ",
      "name:en": "Big Boy Restaurants",
      "name:ja": "ビッグボーイ"
    }
  },
  {
    "v": "リンガーハット",
    "lbl": {"en": "リンガーハット"},
    "countryCodes": ["jp"],
    "tags": {
      "amenity": "restaurant",
      "brand": "リンガーハット",
      "brand:en": "Ringer Hut",
      "brand:ja": "リンガーハット",
      "brand:wikidata": "Q7334856",
      "brand:wikipedia": "en:Ringer Hut",
      "cuisine": "japanese",
      "name": "リンガーハット",
      "name:en": "Ringer Hut",
      "name:ja": "リンガーハット"
    }
  },
  {
    "v": "ロイヤルホスト",
    "lbl": {"en": "ロイヤルホスト"},
    "countryCodes": ["jp"],
    "tags": {
      "amenity": "restaurant",
      "brand": "ロイヤルホスト",
      "brand:en": "Royal Host",
      "brand:ja": "ロイヤルホスト",
      "brand:wikidata": "Q11120884",
      "brand:wikipedia": "ja:ロイヤルホスト",
      "cuisine": "japanese;italian;french",
      "name": "ロイヤルホスト",
      "name:en": "Royal Host",
      "name:ja": "ロイヤルホスト"
    }
  },
  {
    "v": "丸亀製麺",
    "lbl": {"en": "丸亀製麺"},
    "countryCodes": ["jp"],
    "tags": {
      "amenity": "restaurant",
      "brand": "丸亀製麺",
      "brand:en": "Marugame Seimen",
      "brand:ja": "丸亀製麺",
      "brand:wikidata": "Q10877253",
      "brand:wikipedia": "ja:丸亀製麺",
      "cuisine": "noodle",
      "name": "丸亀製麺",
      "name:en": "Marugame Seimen",
      "name:ja": "丸亀製麺"
    }
  },
  {
    "v": "八方雲集",
    "lbl": {"en": "八方雲集"},
    "countryCodes": ["cn", "tw"],
    "tags": {
      "amenity": "restaurant",
      "brand": "八方雲集",
      "brand:en": "Eight Way",
      "brand:wikidata": "Q28417381",
      "brand:wikipedia": "zh:八方雲集",
      "brand:zh": "八方雲集",
      "cuisine": "chinese",
      "name": "八方雲集",
      "name:en": "Eight Way",
      "name:zh": "八方雲集"
    }
  },
  {
    "v": "和食さと",
    "lbl": {"en": "和食さと"},
    "countryCodes": ["jp"],
    "matchNames": ["さと"],
    "tags": {
      "amenity": "restaurant",
      "brand": "和食さと",
      "brand:en": "Washoku Sato",
      "brand:ja": "和食さと",
      "brand:wikidata": "Q11304897",
      "brand:wikipedia": "ja:SRSホールディングス",
      "cuisine": "japanese",
      "name": "和食さと",
      "name:en": "Washoku Sato",
      "name:ja": "和食さと"
    }
  },
  {
    "v": "夢庵",
    "lbl": {"en": "夢庵"},
    "countryCodes": ["jp"],
    "tags": {
      "amenity": "restaurant",
      "brand": "夢庵",
      "brand:en": "Yumean",
      "brand:ja": "夢庵",
      "brand:wikidata": "Q11253593",
      "brand:wikipedia": "ja:すかいらーく",
      "cuisine": "japanese",
      "name": "夢庵",
      "name:en": "Yumean",
      "name:ja": "夢庵"
    }
  },
  {
    "v": "大戸屋",
    "lbl": {"en": "大戸屋"},
    "countryCodes": ["jp"],
    "tags": {
      "amenity": "restaurant",
      "brand": "大戸屋",
      "brand:en": "Ootoya",
      "brand:ja": "大戸屋",
      "brand:wikidata": "Q11435522",
      "brand:wikipedia": "ja:大戸屋ホールディングス",
      "cuisine": "japanese",
      "name": "大戸屋",
      "name:en": "Ootoya",
      "name:ja": "大戸屋"
    }
  },
  {
    "v": "大阪王将",
    "lbl": {"en": "大阪王将"},
    "countryCodes": ["jp"],
    "tags": {
      "amenity": "restaurant",
      "brand": "大阪王将",
      "brand:en": "Osaka Ohsho",
      "brand:ja": "大阪王将",
      "brand:wikidata": "Q48743717",
      "brand:wikipedia": "ja:大阪王将",
      "cuisine": "japanese;chinese",
      "name": "大阪王将",
      "name:en": "Osaka Ohsho",
      "name:ja": "大阪王将"
    }
  },
  {
    "v": "天下一品",
    "lbl": {"en": "天下一品"},
    "countryCodes": ["jp"],
    "tags": {
      "amenity": "restaurant",
      "brand": "天下一品",
      "brand:en": "Tenkaippin",
      "brand:wikidata": "Q11442172",
      "brand:wikipedia": "en:Tenkaippin",
      "cuisine": "ramen",
      "name": "天下一品",
      "name:en": "Tenkaippin"
    }
  },
  {
    "v": "安楽亭",
    "lbl": {"en": "安楽亭"},
    "countryCodes": ["jp"],
    "tags": {
      "amenity": "restaurant",
      "brand": "安楽亭",
      "brand:en": "Anrakutei",
      "brand:wikidata": "Q11450866",
      "brand:wikipedia": "ja:安楽亭",
      "cuisine": "barbecue",
      "name": "安楽亭",
      "name:en": "Anrakutei"
    }
  },
  {
    "v": "木曽路",
    "lbl": {"en": "木曽路"},
    "countryCodes": ["jp"],
    "tags": {
      "amenity": "restaurant",
      "brand": "木曽路",
      "brand:en": "Kisoji",
      "brand:jp": "木曽路",
      "brand:wikidata": "Q11518589",
      "brand:wikipedia": "ja:木曽路 (企業)",
      "cuisine": "japanese",
      "name": "木曽路",
      "name:en": "Kisoji",
      "name:jp": "木曽路"
    }
  },
  {
    "v": "永和豆浆",
    "lbl": {"en": "永和豆浆"},
    "countryCodes": ["cn"],
    "tags": {
      "amenity": "restaurant",
      "brand": "永和豆浆",
      "brand:en": "Yonghe Soy Milk",
      "cuisine": "chinese;breakfast",
      "name": "永和豆浆",
      "name:en": "Yonghe Soy Milk"
    }
  },
  {
    "v": "海底捞火锅",
    "lbl": {"en": "海底捞火锅"},
    "countryCodes": ["cn"],
    "tags": {
      "amenity": "restaurant",
      "brand": "海底捞火锅",
      "brand:en": "Hai Di Lao Hot Pot",
      "brand:wikidata": "Q5638920",
      "brand:wikipedia": "zh:海底捞",
      "cuisine": "chinese",
      "name": "海底捞火锅",
      "name:en": "Hai Di Lao Hot Pot"
    }
  },
  {
    "v": "牛角",
    "lbl": {"en": "牛角"},
    "countryCodes": ["jp"],
    "tags": {
      "amenity": "restaurant",
      "brand": "牛角",
      "brand:en": "Gyū-Kaku",
      "brand:wikidata": "Q11349387",
      "brand:wikipedia": "en:Gyu-Kaku",
      "cuisine": "barbecue",
      "name": "牛角",
      "name:en": "Gyū-Kaku"
    }
  },
  {
    "v": "華屋与兵衛",
    "lbl": {"en": "華屋与兵衛"},
    "countryCodes": ["jp"],
    "tags": {
      "amenity": "restaurant",
      "brand": "華屋与兵衛",
      "brand:en": "Hanaya Yohei",
      "brand:ja": "華屋与兵衛",
      "brand:wikidata": "Q11620063",
      "brand:wikipedia": "ja:華屋与兵衛 (レストラン)",
      "cuisine": "japanese",
      "name": "華屋与兵衛",
      "name:en": "Hanaya Yohei",
      "name:ja": "華屋与兵衛"
    }
  },
  {
    "v": "餃子の王将",
    "lbl": {"en": "餃子の王将"},
    "countryCodes": ["jp"],
    "tags": {
      "amenity": "restaurant",
      "brand": "餃子の王将",
      "brand:en": "Gyoza no Ohsho",
      "brand:ja": "餃子の王将",
      "brand:wikidata": "Q11666805",
      "brand:wikipedia": "en:Gyoza no Ohsho",
      "cuisine": "chinese;gyoza",
      "name": "餃子の王将",
      "name:en": "Gyoza no Ohsho",
      "name:ja": "餃子の王将"
    }
  },
  {
    "v": "麥味登",
    "lbl": {"en": "麥味登"},
    "tags": {"amenity": "restaurant", "brand": "麥味登", "name": "麥味登"}
  },
  {
    "v": "바다횟집",
    "lbl": {"en": "바다횟집"},
    "countryCodes": ["kr"],
    "tags": {
      "amenity": "restaurant",
      "brand": "바다횟집",
      "brand:en": "Bada Fish Restaurant",
      "brand:ko": "바다횟집",
      "cuisine": "fish",
      "name": "바다횟집",
      "name:en": "Bada Fish Restaurant",
      "name:ko": "바다횟집"
    }
  },
  {
    "v": "빕스",
    "lbl": {"en": "빕스"},
    "countryCodes": ["kr"],
    "tags": {
      "amenity": "restaurant",
      "brand": "빕스",
      "brand:en": "Vips",
      "brand:ko": "빕스",
      "brand:wikidata": "Q12599540",
      "brand:wikipedia": "ko:빕스",
      "cuisine": "salad;steak_house",
      "name": "빕스",
      "name:en": "Vips",
      "name:ko": "빕스"
    }
  }
]