[
  {
    "v": "Autosur",
    "lbl": {"en": "Autosur"},
    "countryCodes": ["fr"],
    "tags": {
      "amenity": "vehicle_inspection",
      "brand": "Autosur",
      "brand:wikidata": "Q64224807",
      "name": "Autosur"
    }
  },
  {
    "v": "Autovision",
    "lbl": {"en": "Autovision"},
    "countryCodes": ["fr"],
    "tags": {
      "amenity": "vehicle_inspection",
      "brand": "Autovision",
      "brand:wikidata": "Q64224842",
      "name": "Autovision"
    }
  },
  {
    "v": "Dekra",
    "lbl": {"en": "Dekra"},
    "countryCodes": ["de", "fr"],
    "tags": {
      "amenity": "vehicle_inspection",
      "brand": "Dekra",
      "brand:wikidata": "Q383711",
      "brand:wikipedia": "en:Dekra",
      "name": "Dekra",
      "official_name": "Dekra Automotive"
    }
  },
  {
    "v": "Sécuritest",
    "lbl": {"en": "Sécuritest"},
    "countryCodes": ["fr"],
    "tags": {
      "amenity": "vehicle_inspection",
      "brand": "Sécuritest",
      "brand:wikidata": "Q64224992",
      "name": "Sécuritest"
    }
  },
  {
    "v": "TÜV Hanse",
    "lbl": {"en": "TÜV Hanse"},
    "countryCodes": ["de"],
    "tags": {
      "amenity": "vehicle_inspection",
      "brand": "TÜV Hanse",
      "brand:wikidata": "Q2463537",
      "brand:wikipedia": "de:TÜV Hanse",
      "name": "TÜV Hanse",
      "short_name": "TÜV"
    }
  },
  {
    "v": "TÜV Hessen",
    "lbl": {"en": "TÜV Hessen"},
    "countryCodes": ["de"],
    "tags": {
      "amenity": "vehicle_inspection",
      "brand": "TÜV Hessen",
      "brand:wikidata": "Q2463542",
      "brand:wikipedia": "de:TÜV Hessen",
      "name": "TÜV Hessen",
      "short_name": "TÜV"
    }
  },
  {
    "v": "TÜV Nord",
    "lbl": {"en": "TÜV Nord"},
    "countryCodes": ["de"],
    "tags": {
      "amenity": "vehicle_inspection",
      "brand": "TÜV Nord",
      "brand:wikidata": "Q2463547",
      "brand:wikipedia": "de:TÜV Nord",
      "name": "TÜV Nord",
      "short_name": "TÜV"
    }
  },
  {
    "v": "TÜV Rheinland",
    "lbl": {"en": "TÜV Rheinland"},
    "countryCodes": ["de"],
    "tags": {
      "amenity": "vehicle_inspection",
      "brand": "TÜV Rheinland",
      "brand:wikidata": "Q632391",
      "brand:wikipedia": "de:TÜV Rheinland",
      "name": "TÜV Rheinland",
      "short_name": "TÜV"
    }
  },
  {
    "v": "TÜV Saarland",
    "lbl": {"en": "TÜV Saarland"},
    "countryCodes": ["de"],
    "tags": {
      "amenity": "vehicle_inspection",
      "brand": "TÜV Saarland",
      "brand:wikidata": "Q996314",
      "brand:wikipedia": "de:TÜV Saarland",
      "name": "TÜV Saarland",
      "short_name": "TÜV"
    }
  },
  {
    "v": "TÜV Süd",
    "lbl": {"en": "TÜV Süd"},
    "countryCodes": ["de"],
    "tags": {
      "amenity": "vehicle_inspection",
      "brand": "TÜV Süd",
      "brand:wikidata": "Q880718",
      "brand:wikipedia": "de:TÜV Süd",
      "name": "TÜV Süd",
      "short_name": "TÜV"
    }
  },
  {
    "v": "TÜV Thüringen",
    "lbl": {"en": "TÜV Thüringen"},
    "countryCodes": ["de"],
    "tags": {
      "amenity": "vehicle_inspection",
      "brand": "TÜV Thüringen",
      "brand:wikidata": "Q2463551",
      "brand:wikipedia": "de:TÜV Thüringen",
      "name": "TÜV Thüringen",
      "short_name": "TÜV"
    }
  }
]