[
  {
    "v": "Awfis",
    "lbl": {"en": "Awfis"},
    "countryCodes": ["in"],
    "tags": {
      "brand": "Awfis",
      "brand:wikidata": "Q60747757",
      "brand:wikipedia": "en:Awfis",
      "fee": "yes",
      "name": "Awfis",
      "office": "coworking"
    }
  },
  {
    "v": "优客工场",
    "lbl": {"en": "Ucommune~(China)"},
    "countryCodes": ["cn"],
    "tags": {
      "brand": "优客工场",
      "brand:en": "Ucommune",
      "brand:wikidata": "Q60785187",
      "brand:wikipedia": "en:Ucommune",
      "brand:zh": "优客工场",
      "brand:zh-Hans": "优客工场",
      "fee": "yes",
      "name": "优客工场",
      "name:en": "Ucommune",
      "name:zh": "优客工场",
      "name:zh-Hans": "优客工场",
      "office": "coworking"
    }
  },
  {
    "v": "優客工場 Ucommune",
    "lbl": {"en": "Ucommune~(Hong Kong)"},
    "countryCodes": ["hk"],
    "tags": {
      "brand": "優客工場 Ucommune",
      "brand:en": "Ucommune",
      "brand:wikidata": "Q60785187",
      "brand:wikipedia": "en:Ucommune",
      "brand:zh": "優客工場",
      "brand:zh-Hans": "优客工场",
      "brand:zh-Hant": "優客工場",
      "fee": "yes",
      "name": "優客工場 Ucommune",
      "name:en": "Ucommune",
      "name:zh": "優客工場",
      "name:zh-Hans": "优客工场",
      "name:zh-Hant": "優客工場",
      "office": "coworking"
    }
  },
  {
    "v": "Ucommune",
    "lbl": {"en": "Ucommune~(Singapore)"},
    "countryCodes": ["sg"],
    "tags": {
      "brand": "Ucommune",
      "brand:en": "Ucommune",
      "brand:wikidata": "Q60785187",
      "brand:wikipedia": "en:Ucommune",
      "brand:zh": "优客工场",
      "brand:zh-Hans": "优客工场",
      "fee": "yes",
      "name": "Ucommune",
      "name:en": "Ucommune",
      "name:zh": "优客工场",
      "name:zh-Hans": "优客工场",
      "office": "coworking"
    }
  },
  {
    "v": "優客工場",
    "lbl": {"en": "Ucommune~(Taiwan)"},
    "countryCodes": ["tw"],
    "tags": {
      "brand": "優客工場",
      "brand:en": "Ucommune",
      "brand:wikidata": "Q60785187",
      "brand:wikipedia": "en:Ucommune",
      "brand:zh": "優客工場",
      "brand:zh-Hans": "优客工场",
      "brand:zh-Hant": "優客工場",
      "fee": "yes",
      "name": "優客工場",
      "name:en": "Ucommune",
      "name:zh": "優客工場",
      "name:zh-Hans": "优客工场",
      "name:zh-Hant": "優客工場",
      "office": "coworking"
    }
  },
  {
    "v": "WeWork",
    "lbl": {"en": "WeWork"},
    "countryCodes": ["us"],
    "tags": {
      "brand": "WeWork",
      "brand:wikidata": "Q19995004",
      "brand:wikipedia": "en:WeWork",
      "fee": "yes",
      "name": "WeWork",
      "office": "coworking"
    }
  }
]