[
  {
    "v": "American Automobile Association",
    "lbl": {"en": "AAA Insurance"},
    "countryCodes": ["us"],
    "matchNames": ["american automobile association"],
    "nomatch": ["office/travel_agency|American Automobile Association"],
    "tags": {
      "brand": "American Automobile Association",
      "brand:wikidata": "Q463436",
      "brand:wikipedia": "en:American Automobile Association",
      "name": "AAA Insurance",
      "office": "insurance",
      "short_name": "AAA"
    }
  },
  {
    "v": "AOK",
    "lbl": {"en": "AOK"},
    "countryCodes": ["de"],
    "tags": {
      "brand": "AOK",
      "brand:wikidata": "Q835141",
      "brand:wikipedia": "de:Allgemeine Ortskrankenkasse",
      "name": "AOK",
      "office": "insurance"
    }
  },
  {
    "v": "AXA",
    "lbl": {"en": "AXA"},
    "nomatch": ["amenity/bank|AXA"],
    "tags": {
      "brand": "AXA",
      "brand:wikidata": "Q160054",
      "brand:wikipedia": "en:AXA",
      "name": "AXA",
      "office": "insurance"
    }
  },
  {
    "v": "Allianz",
    "lbl": {"en": "Allianz"},
    "tags": {
      "brand": "Allianz",
      "brand:wikidata": "Q487292",
      "brand:wikipedia": "en:Allianz",
      "name": "Allianz",
      "office": "insurance"
    }
  },
  {
    "v": "Allstate",
    "lbl": {"en": "Allstate"},
    "countryCodes": ["us"],
    "matchNames": ["allstate insurance"],
    "tags": {
      "brand": "Allstate",
      "brand:wikidata": "Q2645636",
      "brand:wikipedia": "en:Allstate",
      "name": "Allstate",
      "office": "insurance"
    }
  },
  {
    "v": "American Family Insurance",
    "lbl": {"en": "American Family Insurance"},
    "countryCodes": ["us"],
    "matchNames": ["american family", "amfam"],
    "tags": {
      "brand": "American Family Insurance",
      "brand:wikidata": "Q4743730",
      "brand:wikipedia": "en:American Family Insurance",
      "name": "American Family Insurance",
      "office": "insurance"
    }
  },
  {
    "v": "Assu 2000",
    "lbl": {"en": "Assu 2000"},
    "countryCodes": ["fr"],
    "tags": {"brand": "Assu 2000", "name": "Assu 2000", "office": "insurance"}
  },
  {
    "v": "Aviva",
    "lbl": {"en": "Aviva"},
    "countryCodes": ["fr", "ie", "pl"],
    "tags": {
      "brand": "Aviva",
      "brand:wikidata": "Q791179",
      "brand:wikipedia": "en:Aviva",
      "name": "Aviva",
      "office": "insurance"
    }
  },
  {
    "v": "Banco do Brasil Seguridade",
    "lbl": {"en": "Banco do Brasil Seguridade"},
    "countryCodes": ["br"],
    "tags": {
      "brand": "Banco do Brasil Seguridade",
      "brand:wikidata": "Q18499520",
      "brand:wikipedia": "pt:BB Seguridade",
      "name": "Banco do Brasil Seguridade",
      "office": "insurance",
      "short_name": "BB Seguridade"
    }
  },
  {
    "v": "Bâloise",
    "lbl": {"en": "Bâloise"},
    "countryCodes": ["be", "ch", "de", "li", "lu"],
    "tags": {
      "brand": "Bâloise",
      "brand:wikidata": "Q457912",
      "brand:wikipedia": "en:Bâloise",
      "name": "Bâloise",
      "office": "insurance"
    }
  },
  {
    "v": "CUK Ubezpieczenia",
    "lbl": {"en": "CUK Ubezpieczenia"},
    "countryCodes": ["pl"],
    "tags": {
      "brand": "CUK Ubezpieczenia",
      "name": "CUK Ubezpieczenia",
      "office": "insurance"
    }
  },
  {
    "v": "DAK",
    "lbl": {"en": "DAK"},
    "countryCodes": ["de"],
    "tags": {
      "brand": "DAK",
      "brand:wikidata": "Q1151671",
      "brand:wikipedia": "de:DAK-Gesundheit",
      "name": "DAK",
      "office": "insurance"
    }
  },
  {
    "v": "DEVK",
    "lbl": {"en": "DEVK"},
    "countryCodes": ["de"],
    "tags": {
      "brand": "DEVK",
      "brand:wikidata": "Q1153049",
      "brand:wikipedia": "de:DEVK",
      "name": "DEVK",
      "office": "insurance"
    }
  },
  {
    "v": "Debeka",
    "lbl": {"en": "Debeka"},
    "countryCodes": ["de"],
    "tags": {
      "brand": "Debeka",
      "brand:wikidata": "Q1181452",
      "brand:wikipedia": "de:Debeka",
      "name": "Debeka",
      "office": "insurance"
    }
  },
  {
    "v": "Erie Insurance",
    "lbl": {"en": "Erie Insurance"},
    "countryCodes": ["us"],
    "matchNames": ["erie"],
    "tags": {
      "brand": "Erie Insurance",
      "brand:wikidata": "Q5388314",
      "brand:wikipedia": "en:Erie Insurance Group",
      "name": "Erie Insurance",
      "office": "insurance"
    }
  },
  {
    "v": "Farmers Insurance",
    "lbl": {"en": "Farmers Insurance"},
    "countryCodes": ["us"],
    "matchNames": ["farmers"],
    "tags": {
      "brand": "Farmers Insurance",
      "brand:wikidata": "Q1396863",
      "brand:wikipedia": "en:Farmers Insurance Group",
      "name": "Farmers Insurance",
      "office": "insurance"
    }
  },
  {
    "v": "Foyer",
    "lbl": {"en": "Foyer"},
    "countryCodes": ["lu"],
    "tags": {
      "brand": "Foyer",
      "brand:wikidata": "Q1344573",
      "brand:wikipedia": "lb:Foyer",
      "name": "Foyer",
      "office": "insurance"
    }
  },
  {
    "v": "GEICO",
    "lbl": {"en": "GEICO"},
    "countryCodes": ["us"],
    "tags": {
      "brand": "GEICO",
      "brand:wikidata": "Q1498689",
      "brand:wikipedia": "en:GEICO",
      "name": "GEICO",
      "office": "insurance"
    }
  },
  {
    "v": "GMF",
    "lbl": {"en": "GMF"},
    "countryCodes": ["fr"],
    "tags": {
      "brand": "GMF",
      "brand:wikidata": "Q3095296",
      "brand:wikipedia": "fr:Garantie mutuelle des fonctionnaires",
      "name": "GMF",
      "office": "insurance"
    }
  },
  {
    "v": "Generali",
    "lbl": {"en": "Generali"},
    "tags": {
      "brand": "Generali",
      "brand:wikidata": "Q670482",
      "brand:wikipedia": "it:Assicurazioni Generali",
      "name": "Generali",
      "office": "insurance"
    }
  },
  {
    "v": "Grange Insurance",
    "lbl": {"en": "Grange Insurance"},
    "countryCodes": ["us"],
    "matchNames": ["grange"],
    "tags": {
      "brand": "Grange Insurance",
      "brand:wikidata": "Q17183481",
      "brand:wikipedia": "en:Grange Insurance",
      "name": "Grange Insurance",
      "office": "insurance"
    }
  },
  {
    "v": "Groupama",
    "lbl": {"en": "Groupama"},
    "matchTags": ["amenity/bank|Groupama"],
    "tags": {
      "brand": "Groupama",
      "brand:wikidata": "Q3083531",
      "brand:wikipedia": "fr:Groupama",
      "name": "Groupama",
      "office": "insurance",
      "official_name": "Groupe des Assurances Mutuelles Agricoles"
    }
  },
  {
    "v": "HUK-Coburg",
    "lbl": {"en": "HUK-Coburg"},
    "countryCodes": ["de"],
    "tags": {"brand": "HUK-Coburg", "name": "HUK-Coburg", "office": "insurance"}
  },
  {
    "v": "Harmonie Mutuelle",
    "lbl": {"en": "Harmonie Mutuelle"},
    "countryCodes": ["fr"],
    "tags": {
      "brand": "Harmonie Mutuelle",
      "brand:wikidata": "Q3127528",
      "brand:wikipedia": "fr:Harmonie mutuelle",
      "name": "Harmonie Mutuelle",
      "office": "insurance"
    }
  },
  {
    "v": "Helvetia",
    "lbl": {"en": "Helvetia"},
    "countryCodes": ["at", "ch", "de", "es", "fr", "it"],
    "tags": {
      "brand": "Helvetia",
      "brand:wikidata": "Q933766",
      "brand:wikipedia": "it:Helvetia Assicurazioni",
      "name": "Helvetia",
      "office": "insurance"
    }
  },
  {
    "v": "Knappschaft",
    "lbl": {"en": "Knappschaft"},
    "countryCodes": ["de"],
    "tags": {
      "brand": "Knappschaft",
      "brand:wikidata": "Q1313465",
      "brand:wikipedia": "de:Knappschaft (Krankenkasse)",
      "name": "Knappschaft",
      "office": "insurance"
    }
  },
  {
    "v": "LaLux",
    "lbl": {"en": "LaLux"},
    "countryCodes": ["lu"],
    "matchNames": ["La Luxembourgeoise"],
    "tags": {
      "brand": "LaLux",
      "brand:wikipedia": "lb:La Luxembourgeoise",
      "name": "LaLux",
      "office": "insurance"
    }
  },
  {
    "v": "MAAF",
    "lbl": {"en": "MAAF"},
    "countryCodes": ["fr"],
    "tags": {
      "brand": "MAAF",
      "brand:wikidata": "Q3331028",
      "brand:wikipedia": "fr:Mutuelle d'assurance des artisans de France",
      "name": "MAAF",
      "office": "insurance"
    }
  },
  {
    "v": "MMA",
    "lbl": {"en": "MMA"},
    "countryCodes": ["fr"],
    "tags": {
      "brand": "MMA",
      "brand:wikidata": "Q3331046",
      "brand:wikipedia": "fr:MMA (assurance)",
      "name": "MMA",
      "office": "insurance",
      "official_name": "Mutuelles du Mans Assurances"
    }
  },
  {
    "v": "Macif",
    "lbl": {"en": "Macif"},
    "countryCodes": ["fr"],
    "tags": {
      "brand": "Macif",
      "brand:wikidata": "Q3331021",
      "brand:wikipedia": "fr:Mutuelle assurance des commerçants et industriels de France et des cadres et des salariés de l'industrie et du commerce",
      "name": "Macif",
      "office": "insurance"
    }
  },
  {
    "v": "Maif",
    "lbl": {"en": "Maif"},
    "countryCodes": ["fr"],
    "tags": {
      "brand": "Maif",
      "brand:wikidata": "Q3331029",
      "brand:wikipedia": "fr:Mutuelle d'assurance des instituteurs de France",
      "name": "Maif",
      "office": "insurance",
      "official_name": "Mutuelle d'assurance des instituteurs de France"
    }
  },
  {
    "v": "Mapfre",
    "lbl": {"en": "Mapfre"},
    "tags": {
      "brand": "Mapfre",
      "brand:wikidata": "Q544532",
      "brand:wikipedia": "en:Mapfre",
      "name": "Mapfre",
      "office": "insurance"
    }
  },
  {
    "v": "Matmut",
    "lbl": {"en": "Matmut"},
    "countryCodes": ["fr"],
    "tags": {
      "brand": "Matmut",
      "brand:wikidata": "Q3299185",
      "brand:wikipedia": "fr:Matmut",
      "name": "Matmut",
      "office": "insurance"
    }
  },
  {
    "v": "Nationwide",
    "lbl": {"en": "Nationwide"},
    "countryCodes": ["us"],
    "matchNames": ["nationwide insurance"],
    "nomatch": ["amenity/bank|Nationwide"],
    "tags": {
      "brand": "Nationwide",
      "brand:wikidata": "Q6979886",
      "brand:wikipedia": "en:Nationwide Mutual Insurance Company",
      "name": "Nationwide",
      "office": "insurance"
    }
  },
  {
    "v": "Ocaso",
    "lbl": {"en": "Ocaso"},
    "countryCodes": ["es", "uk"],
    "matchNames": ["ocaso seguros", "seguros ocaso"],
    "tags": {
      "brand": "Ocaso",
      "brand:wikidata": "Q6123955",
      "brand:wikipedia": "es:Seguros Ocaso",
      "name": "Ocaso",
      "office": "insurance"
    }
  },
  {
    "v": "PZU",
    "lbl": {"en": "PZU"},
    "countryCodes": ["pl"],
    "tags": {
      "brand": "PZU",
      "brand:wikidata": "Q1807170",
      "brand:wikipedia": "pl:Powszechny Zakład Ubezpieczeń",
      "name": "PZU",
      "office": "insurance"
    }
  },
  {
    "v": "Progressive",
    "lbl": {"en": "Progressive"},
    "countryCodes": ["us"],
    "matchNames": ["progressive insurance"],
    "tags": {
      "brand": "Progressive",
      "brand:wikidata": "Q7248721",
      "brand:wikipedia": "en:Progressive Corporation",
      "name": "Progressive",
      "office": "insurance"
    }
  },
  {
    "v": "Provinzial",
    "lbl": {"en": "Provinzial"},
    "countryCodes": ["de"],
    "tags": {"brand": "Provinzial", "name": "Provinzial", "office": "insurance"}
  },
  {
    "v": "Reale",
    "lbl": {"en": "Reale"},
    "countryCodes": ["cl", "es", "it"],
    "matchNames": [
      "reale chile",
      "reale immobili",
      "reale mutua assicurazioni",
      "reale seguros",
      "seguros reale"
    ],
    "tags": {
      "brand": "Reale",
      "brand:wikidata": "Q3931092",
      "brand:wikipedia": "it:Reale Mutua Assicurazioni",
      "name": "Reale",
      "office": "insurance"
    }
  },
  {
    "v": "SV SparkassenVersicherung",
    "lbl": {"en": "SV SparkassenVersicherung"},
    "countryCodes": ["de"],
    "tags": {
      "brand": "SV SparkassenVersicherung",
      "brand:wikidata": "Q2208645",
      "brand:wikipedia": "de:SV SparkassenVersicherung",
      "name": "SV SparkassenVersicherung",
      "office": "insurance"
    }
  },
  {
    "v": "State Farm",
    "lbl": {"en": "State Farm"},
    "countryCodes": ["us"],
    "matchNames": ["state farm insurance"],
    "tags": {
      "brand": "State Farm",
      "brand:wikidata": "Q2007336",
      "brand:wikipedia": "en:State Farm",
      "name": "State Farm",
      "office": "insurance"
    }
  },
  {
    "v": "Swinton",
    "lbl": {"en": "Swinton"},
    "countryCodes": ["gb"],
    "tags": {
      "brand": "Swinton",
      "brand:wikidata": "Q7658785",
      "brand:wikipedia": "en:Swinton Insurance",
      "name": "Swinton",
      "office": "insurance"
    }
  },
  {
    "v": "Techniker Krankenkasse",
    "lbl": {"en": "Techniker Krankenkasse"},
    "countryCodes": ["de"],
    "tags": {
      "brand": "Techniker Krankenkasse",
      "brand:wikidata": "Q607531",
      "brand:wikipedia": "de:Techniker Krankenkasse",
      "name": "Techniker Krankenkasse",
      "office": "insurance"
    }
  },
  {
    "v": "The Co-operators",
    "lbl": {"en": "The Co-operators"},
    "countryCodes": ["ca"],
    "tags": {
      "brand": "The Co-operators",
      "brand:wikidata": "Q3520320",
      "brand:wikipedia": "en:The Co-operators",
      "name": "The Co-operators",
      "office": "insurance"
    }
  },
  {
    "v": "Tranquilidade Seguros",
    "lbl": {"en": "Tranquilidade"},
    "countryCodes": ["pt"],
    "tags": {
      "brand": "Tranquilidade Seguros",
      "brand:wikidata": "Q7833457",
      "brand:wikipedia": "en:Tranquilidade",
      "name": "Tranquilidade",
      "office": "insurance"
    }
  },
  {
    "v": "Wüstenrot",
    "lbl": {"en": "Wüstenrot"},
    "countryCodes": ["at", "cz", "de", "sk"],
    "tags": {"brand": "Wüstenrot", "name": "Wüstenrot", "office": "insurance"}
  },
  {
    "v": "Zurich",
    "lbl": {"en": "Zurich"},
    "tags": {
      "brand": "Zurich",
      "brand:wikidata": "Q230426",
      "brand:wikipedia": "en:Zurich Insurance Group",
      "name": "Zurich",
      "office": "insurance"
    }
  },
  {
    "v": "Белгосстрах",
    "lbl": {"en": "Белгосстрах"},
    "countryCodes": ["by"],
    "tags": {
      "brand": "Белгосстрах",
      "name": "Белгосстрах",
      "office": "insurance"
    }
  },
  {
    "v": "Ингосстрах",
    "lbl": {"en": "Ингосстрах"},
    "countryCodes": ["ru"],
    "tags": {
      "brand": "Ингосстрах",
      "brand:en": "Ingosstrakh",
      "brand:ru": "Ингосстрах",
      "brand:wikidata": "Q4200631",
      "brand:wikipedia": "ru:Ингосстрах",
      "name": "Ингосстрах",
      "name:en": "Ingosstrakh",
      "name:ru": "Ингосстрах",
      "office": "insurance"
    }
  },
  {
    "v": "РЕСО-Гарантия",
    "lbl": {"en": "РЕСО-Гарантия"},
    "countryCodes": ["ru"],
    "tags": {
      "brand": "РЕСО-Гарантия",
      "brand:en": "RESO-Guarantee",
      "brand:ru": "РЕСО-Гарантия",
      "brand:wikidata": "Q4386516",
      "brand:wikipedia": "ru:РЕСО-Гарантия",
      "name": "РЕСО-Гарантия",
      "name:en": "RESO-Guarantee",
      "name:ru": "РЕСО-Гарантия",
      "office": "insurance"
    }
  },
  {
    "v": "Росгосстрах",
    "lbl": {"en": "Росгосстрах"},
    "countryCodes": ["ru"],
    "tags": {
      "brand": "Росгосстрах",
      "brand:wikidata": "Q4397745",
      "brand:wikipedia": "en:Rosgosstrakh",
      "name": "Росгосстрах",
      "office": "insurance"
    }
  },
  {
    "v": "Согласие",
    "lbl": {"en": "Согласие"},
    "countryCodes": ["ru"],
    "tags": {
      "brand": "Согласие",
      "brand:en": "Soglasie",
      "brand:ru": "Согласие",
      "brand:wikidata": "Q4426689",
      "brand:wikipedia": "ru:Согласие (компания)",
      "name": "Согласие",
      "name:en": "Soglasie",
      "name:ru": "Согласие",
      "office": "insurance"
    }
  },
  {
    "v": "بیمه ایران",
    "lbl": {"en": "بیمه ایران"},
    "countryCodes": ["ir"],
    "tags": {
      "brand": "بیمه ایران",
      "brand:en": "Iran Insurance",
      "brand:fa": "بیمه ایران",
      "brand:wikidata": "Q5930269",
      "brand:wikipedia": "fa:بیمه ایران",
      "name": "بیمه ایران",
      "name:en": "Iran Insurance",
      "name:fa": "بیمه ایران",
      "office": "insurance"
    }
  }
]