[
  {
    "v": "Audi",
    "lbl": {"en": "Audi"},
    "tags": {
      "brand": "Audi",
      "brand:wikidata": "Q23317",
      "brand:wikipedia": "en:Audi",
      "name": "Audi",
      "shop": "car"
    }
  },
  {
    "v": "BMW",
    "lbl": {"en": "BMW"},
    "tags": {
      "brand": "BMW",
      "brand:wikidata": "Q26678",
      "brand:wikipedia": "en:BMW",
      "name": "BMW",
      "shop": "car"
    }
  },
  {
    "v": "Buick",
    "lbl": {"en": "Buick"},
    "countryCodes": ["ca", "cn", "mx", "us"],
    "tags": {
      "brand": "Buick",
      "brand:wikidata": "Q27415",
      "brand:wikipedia": "en:Buick",
      "name": "Buick",
      "shop": "car"
    }
  },
  {
    "v": "Cadillac",
    "lbl": {"en": "Cadillac"},
    "tags": {
      "brand": "Cadillac",
      "brand:wikidata": "Q27436",
      "brand:wikipedia": "en:Cadillac",
      "name": "Cadillac",
      "shop": "car"
    }
  },
  {
    "v": "CarMax",
    "lbl": {"en": "CarMax"},
    "countryCodes": ["us"],
    "tags": {
      "brand": "CarMax",
      "brand:wikidata": "Q5037190",
      "brand:wikipedia": "en:CarMax",
      "name": "CarMax",
      "second_hand": "only",
      "shop": "car"
    }
  },
  {
    "v": "Chevrolet",
    "lbl": {"en": "Chevrolet"},
    "tags": {
      "brand": "Chevrolet",
      "brand:wikidata": "Q29570",
      "brand:wikipedia": "en:Chevrolet",
      "name": "Chevrolet",
      "shop": "car"
    }
  },
  {
    "v": "Chrysler",
    "lbl": {"en": "Chrysler"},
    "tags": {
      "brand": "Chrysler",
      "brand:wikidata": "Q181114",
      "brand:wikipedia": "en:Chrysler",
      "name": "Chrysler",
      "shop": "car"
    }
  },
  {
    "v": "Citroën",
    "lbl": {"en": "Citroën"},
    "nomatch": ["shop/car_repair|Citroën"],
    "tags": {
      "brand": "Citroën",
      "brand:wikidata": "Q6746",
      "brand:wikipedia": "fr:Citroën",
      "name": "Citroën",
      "shop": "car"
    }
  },
  {
    "v": "Dacia",
    "lbl": {"en": "Dacia"},
    "tags": {
      "brand": "Dacia",
      "brand:wikidata": "Q27460",
      "brand:wikipedia": "en:Automobile Dacia",
      "name": "Dacia",
      "shop": "car"
    }
  },
  {
    "v": "Dodge",
    "lbl": {"en": "Dodge"},
    "tags": {
      "brand": "Dodge",
      "brand:wikidata": "Q27564",
      "brand:wikipedia": "en:Dodge",
      "name": "Dodge",
      "shop": "car"
    }
  },
  {
    "v": "Fiat",
    "lbl": {"en": "Fiat"},
    "tags": {
      "brand": "Fiat",
      "brand:wikidata": "Q27597",
      "brand:wikipedia": "en:Fiat Automobiles",
      "name": "Fiat",
      "shop": "car"
    }
  },
  {
    "v": "Ford",
    "lbl": {"en": "Ford"},
    "nomatch": ["shop/car_repair|Ford"],
    "tags": {
      "brand": "Ford",
      "brand:wikidata": "Q44294",
      "brand:wikipedia": "en:Ford Motor Company",
      "name": "Ford",
      "shop": "car"
    }
  },
  {
    "v": "GMC",
    "lbl": {"en": "GMC"},
    "tags": {
      "brand": "GMC",
      "brand:wikidata": "Q28993",
      "brand:wikipedia": "en:GMC (automobile)",
      "name": "GMC",
      "shop": "car"
    }
  },
  {
    "v": "Holden",
    "lbl": {"en": "Holden"},
    "countryCodes": ["au", "nz"],
    "tags": {
      "brand": "Holden",
      "brand:wikidata": "Q29281",
      "brand:wikipedia": "en:Holden",
      "name": "Holden",
      "shop": "car"
    }
  },
  {
    "v": "Honda",
    "lbl": {"en": "Honda"},
    "matchNames": ["honda cars"],
    "nomatch": ["shop/motorcycle|Honda"],
    "tags": {
      "brand": "Honda",
      "brand:wikidata": "Q9584",
      "brand:wikipedia": "en:Honda",
      "name": "Honda",
      "shop": "car"
    }
  },
  {
    "v": "Hyundai",
    "lbl": {"en": "Hyundai"},
    "tags": {
      "brand": "Hyundai",
      "brand:wikidata": "Q55931",
      "brand:wikipedia": "en:Hyundai Motor Company",
      "name": "Hyundai",
      "shop": "car"
    }
  },
  {
    "v": "Isuzu",
    "lbl": {"en": "Isuzu"},
    "tags": {
      "brand": "Isuzu",
      "brand:wikidata": "Q29803",
      "brand:wikipedia": "en:Isuzu Motors",
      "name": "Isuzu",
      "shop": "car"
    }
  },
  {
    "v": "Jaguar",
    "lbl": {"en": "Jaguar"},
    "tags": {
      "brand": "Jaguar",
      "brand:wikidata": "Q26742231",
      "brand:wikipedia": "en:Jaguar Cars",
      "name": "Jaguar",
      "shop": "car"
    }
  },
  {
    "v": "Jeep",
    "lbl": {"en": "Jeep"},
    "tags": {
      "brand": "Jeep",
      "brand:wikidata": "Q30113",
      "brand:wikipedia": "en:Jeep",
      "name": "Jeep",
      "shop": "car"
    }
  },
  {
    "v": "Kia",
    "lbl": {"en": "Kia"},
    "matchNames": ["kia motors"],
    "tags": {
      "brand": "Kia",
      "brand:wikidata": "Q35349",
      "brand:wikipedia": "en:Kia Motors",
      "name": "Kia",
      "shop": "car"
    }
  },
  {
    "v": "Land Rover",
    "lbl": {"en": "Land Rover"},
    "tags": {
      "brand": "Land Rover",
      "brand:wikidata": "Q35907",
      "brand:wikipedia": "en:Land Rover",
      "name": "Land Rover",
      "shop": "car"
    }
  },
  {
    "v": "Lexus",
    "lbl": {"en": "Lexus"},
    "tags": {
      "brand": "Lexus",
      "brand:wikidata": "Q35919",
      "brand:wikipedia": "en:Lexus",
      "name": "Lexus",
      "shop": "car"
    }
  },
  {
    "v": "Lincoln",
    "lbl": {"en": "Lincoln"},
    "tags": {
      "brand": "Lincoln",
      "brand:wikidata": "Q216796",
      "brand:wikipedia": "en:Lincoln Motor Company",
      "name": "Lincoln",
      "shop": "car"
    }
  },
  {
    "v": "Mazda",
    "lbl": {"en": "Mazda"},
    "tags": {
      "brand": "Mazda",
      "brand:wikidata": "Q35996",
      "brand:wikipedia": "en:Mazda",
      "name": "Mazda",
      "shop": "car"
    }
  },
  {
    "v": "Mercedes-Benz",
    "lbl": {"en": "Mercedes-Benz"},
    "matchNames": ["mercedes"],
    "tags": {
      "brand": "Mercedes-Benz",
      "brand:wikidata": "Q36008",
      "brand:wikipedia": "en:Mercedes-Benz",
      "name": "Mercedes-Benz",
      "shop": "car"
    }
  },
  {
    "v": "Mitsubishi",
    "lbl": {"en": "Mitsubishi"},
    "matchNames": ["mitsubishi motors"],
    "tags": {
      "brand": "Mitsubishi",
      "brand:wikidata": "Q36033",
      "brand:wikipedia": "en:Mitsubishi Motors",
      "name": "Mitsubishi",
      "shop": "car"
    }
  },
  {
    "v": "Netz",
    "lbl": {"en": "Netz"},
    "countryCodes": ["jp"],
    "tags": {
      "brand": "Netz",
      "brand:wikidata": "Q11325416",
      "brand:wikipedia": "ja:ネッツ店",
      "name": "Netz",
      "shop": "car"
    }
  },
  {
    "v": "Nissan",
    "lbl": {"en": "Nissan"},
    "tags": {
      "brand": "Nissan",
      "brand:wikidata": "Q20165",
      "brand:wikipedia": "ja:日産自動車",
      "name": "Nissan",
      "shop": "car"
    }
  },
  {
    "v": "Opel",
    "lbl": {"en": "Opel"},
    "tags": {
      "brand": "Opel",
      "brand:wikidata": "Q40966",
      "brand:wikipedia": "en:Opel",
      "name": "Opel",
      "shop": "car"
    }
  },
  {
    "v": "Peugeot",
    "lbl": {"en": "Peugeot"},
    "nomatch": ["shop/car_repair|Peugeot"],
    "tags": {
      "brand": "Peugeot",
      "brand:wikidata": "Q6742",
      "brand:wikipedia": "en:Peugeot",
      "name": "Peugeot",
      "shop": "car"
    }
  },
  {
    "v": "Porsche",
    "lbl": {"en": "Porsche"},
    "tags": {
      "brand": "Porsche",
      "brand:wikidata": "Q40993",
      "brand:wikipedia": "en:Porsche",
      "name": "Porsche",
      "shop": "car"
    }
  },
  {
    "v": "Proton",
    "lbl": {"en": "Proton"},
    "countryCodes": ["cl", "eg", "id", "my", "sg", "th"],
    "tags": {
      "brand": "Proton",
      "brand:wikidata": "Q827306",
      "brand:wikipedia": "en:PROTON Holdings",
      "name": "Proton",
      "shop": "car"
    }
  },
  {
    "v": "Ram",
    "lbl": {"en": "Ram"},
    "tags": {
      "brand": "Ram",
      "brand:wikidata": "Q165708",
      "brand:wikipedia": "en:Ram Trucks",
      "name": "Ram",
      "shop": "car"
    }
  },
  {
    "v": "Renault",
    "lbl": {"en": "Renault"},
    "nomatch": ["shop/car_repair|Renault"],
    "tags": {
      "brand": "Renault",
      "brand:wikidata": "Q6686",
      "brand:wikipedia": "en:Renault",
      "name": "Renault",
      "shop": "car"
    }
  },
  {
    "v": "Seat",
    "lbl": {"en": "Seat"},
    "tags": {
      "brand": "Seat",
      "brand:wikidata": "Q188217",
      "brand:wikipedia": "en:SEAT",
      "name": "Seat",
      "shop": "car"
    }
  },
  {
    "v": "Subaru",
    "lbl": {"en": "Subaru"},
    "tags": {
      "brand": "Subaru",
      "brand:wikidata": "Q172741",
      "brand:wikipedia": "en:Subaru",
      "name": "Subaru",
      "shop": "car"
    }
  },
  {
    "v": "Suzuki",
    "lbl": {"en": "Suzuki"},
    "nomatch": ["shop/motorcycle|Suzuki"],
    "tags": {
      "brand": "Suzuki",
      "brand:wikidata": "Q181642",
      "brand:wikipedia": "en:Suzuki",
      "name": "Suzuki",
      "shop": "car"
    }
  },
  {
    "v": "Tesla",
    "lbl": {"en": "Tesla"},
    "matchNames": ["tesla motors"],
    "tags": {
      "brand": "Tesla",
      "brand:wikidata": "Q478214",
      "brand:wikipedia": "en:Tesla, Inc.",
      "name": "Tesla",
      "shop": "car"
    }
  },
  {
    "v": "Toyota",
    "lbl": {"en": "Toyota"},
    "nomatch": ["shop/car_repair|Toyota"],
    "tags": {
      "brand": "Toyota",
      "brand:wikidata": "Q53268",
      "brand:wikipedia": "en:Toyota",
      "name": "Toyota",
      "shop": "car"
    }
  },
  {
    "v": "Volkswagen",
    "lbl": {"en": "Volkswagen"},
    "matchNames": ["vw"],
    "tags": {
      "brand": "Volkswagen",
      "brand:wikidata": "Q246",
      "brand:wikipedia": "en:Volkswagen",
      "name": "Volkswagen",
      "shop": "car"
    }
  },
  {
    "v": "Volvo",
    "lbl": {"en": "Volvo"},
    "tags": {
      "brand": "Volvo",
      "brand:wikidata": "Q215293",
      "brand:wikipedia": "en:Volvo Cars",
      "name": "Volvo",
      "shop": "car"
    }
  },
  {
    "v": "Škoda",
    "lbl": {"en": "Škoda"},
    "tags": {
      "brand": "Škoda",
      "brand:wikidata": "Q29637",
      "brand:wikipedia": "en:Škoda Auto",
      "name": "Škoda",
      "shop": "car"
    }
  },
  {
    "v": "Автомир",
    "lbl": {"en": "Автомир"},
    "countryCodes": ["ru"],
    "matchTags": ["shop/car_parts"],
    "tags": {
      "brand": "Автомир",
      "brand:en": "Autoworld",
      "brand:ru": "Автомир",
      "brand:wikidata": "Q4056321",
      "brand:wikipedia": "ru:Автомир (автодилер)",
      "name": "Автомир",
      "name:en": "Autoworld",
      "name:ru": "Автомир",
      "shop": "car"
    }
  },
  {
    "v": "سایپا",
    "lbl": {"en": "سایپا"},
    "countryCodes": ["ir"],
    "tags": {
      "brand": "سایپا",
      "brand:en": "Saipa",
      "brand:fa": "سایپا",
      "brand:wikidata": "Q116234",
      "brand:wikipedia": "en:Saipa",
      "name": "سایپا",
      "name:en": "Saipa",
      "name:fa": "سایپا",
      "shop": "car"
    }
  },
  {
    "v": "ガリバー",
    "lbl": {"en": "ガリバー"},
    "countryCodes": ["jp"],
    "tags": {
      "brand": "ガリバー",
      "brand:en": "Gulliver",
      "brand:ja": "ガリバー",
      "brand:wikidata": "Q11296264",
      "brand:wikipedia": "ja:IDOM",
      "name": "ガリバー",
      "name:en": "Gulliver",
      "name:ja": "ガリバー",
      "shop": "car"
    }
  },
  {
    "v": "ダイハツ",
    "lbl": {"en": "ダイハツ"},
    "countryCodes": ["jp"],
    "tags": {
      "brand": "ダイハツ",
      "brand:en": "Daihatsu",
      "brand:ja": "ダイハツ",
      "brand:wikidata": "Q27511",
      "brand:wikipedia": "ja:ダイハツ工業",
      "name": "ダイハツ",
      "name:en": "Daihatsu",
      "name:ja": "ダイハツ",
      "shop": "car"
    }
  },
  {
    "v": "トヨタカローラ",
    "lbl": {"en": "トヨタカローラ"},
    "countryCodes": ["jp"],
    "tags": {
      "brand": "トヨタカローラ",
      "brand:ja": "トヨタカローラ",
      "name": "トヨタカローラ",
      "name:ja": "トヨタカローラ",
      "shop": "car"
    }
  },
  {
    "v": "ホンダ",
    "lbl": {"en": "ホンダ"},
    "countryCodes": ["jp"],
    "tags": {
      "brand": "ホンダ",
      "brand:en": "Honda",
      "brand:ja": "ホンダ",
      "brand:wikidata": "Q9584",
      "brand:wikipedia": "ja:本田技研工業",
      "name": "ホンダ",
      "name:en": "Honda",
      "name:ja": "ホンダ",
      "shop": "car"
    }
  }
]