[
  {
    "v": "Advance Auto Parts",
    "lbl": {"en": "Advance Auto Parts"},
    "countryCodes": ["ca", "us", "vi"],
    "matchTags": ["shop/doityourself"],
    "tags": {
      "brand": "Advance Auto Parts",
      "brand:wikidata": "Q4686051",
      "brand:wikipedia": "en:Advance Auto Parts",
      "name": "Advance Auto Parts",
      "shop": "car_parts"
    }
  },
  {
    "v": "Auto Plus",
    "lbl": {"en": "Auto Plus"},
    "countryCodes": ["us"],
    "tags": {
      "brand": "Auto Plus",
      "brand:wikidata": "Q65121114",
      "name": "Auto Plus",
      "official_name": "Auto Plus Auto Parts",
      "shop": "car_parts"
    }
  },
  {
    "v": "AutoZone",
    "lbl": {"en": "AutoZone"},
    "countryCodes": ["br", "mx", "us"],
    "matchTags": ["shop/doityourself"],
    "tags": {
      "brand": "AutoZone",
      "brand:wikidata": "Q4826087",
      "brand:wikipedia": "en:AutoZone",
      "name": "AutoZone",
      "shop": "car_parts"
    }
  },
  {
    "v": "Automat",
    "lbl": {"en": "Automat"},
    "countryCodes": ["nl"],
    "tags": {
      "brand": "Automat",
      "brand:wikidata": "Q70623238",
      "name": "Automat",
      "shop": "car_parts"
    }
  },
  {
    "v": "Brezan",
    "lbl": {"en": "Brezan"},
    "countryCodes": ["be", "nl"],
    "tags": {"brand": "Brezan", "name": "Brezan", "shop": "car_parts"}
  },
  {
    "v": "Carquest",
    "lbl": {"en": "Carquest"},
    "countryCodes": ["us"],
    "tags": {
      "brand": "Carquest",
      "brand:wikidata": "Q5045948",
      "brand:wikipedia": "en:Carquest",
      "name": "Carquest",
      "official_name": "Carquest Auto Parts",
      "shop": "car_parts"
    }
  },
  {
    "v": "Halfords",
    "lbl": {"en": "Halfords"},
    "countryCodes": ["gb", "ie"],
    "matchTags": ["shop/bicycle"],
    "nomatch": ["shop/car_repair|Halfords Autocentre"],
    "tags": {
      "brand": "Halfords",
      "brand:wikidata": "Q3398786",
      "brand:wikipedia": "en:Halfords",
      "name": "Halfords",
      "service:bicycle:retail": "yes",
      "shop": "car_parts"
    }
  },
  {
    "v": "KOI Auto Parts",
    "lbl": {"en": "KOI Auto Parts"},
    "countryCodes": ["us"],
    "tags": {
      "brand": "KOI Auto Parts",
      "brand:wikidata": "Q6334934",
      "brand:wikipedia": "en:KOI Auto Parts",
      "name": "KOI Auto Parts",
      "shop": "car_parts",
      "short_name": "KOI"
    }
  },
  {
    "v": "Lubrificantes",
    "lbl": {"en": "Lubrificantes"},
    "countryCodes": ["ao"],
    "tags": {
      "brand": "Lubrificantes",
      "name": "Lubrificantes",
      "shop": "car_parts"
    }
  },
  {
    "v": "NAPA Auto Parts",
    "lbl": {"en": "NAPA Auto Parts"},
    "countryCodes": ["ca", "mx", "us"],
    "matchNames": ["napa"],
    "tags": {
      "brand": "NAPA Auto Parts",
      "brand:wikidata": "Q6970842",
      "brand:wikipedia": "en:National Automotive Parts Association",
      "name": "NAPA Auto Parts",
      "shop": "car_parts"
    }
  },
  {
    "v": "O'Reilly Auto Parts",
    "lbl": {"en": "O'Reilly Auto Parts"},
    "countryCodes": ["us"],
    "matchNames": ["o'reilly"],
    "matchTags": ["shop/doityourself"],
    "tags": {
      "brand": "O'Reilly Auto Parts",
      "brand:wikidata": "Q7071951",
      "brand:wikipedia": "en:O'Reilly Auto Parts",
      "name": "O'Reilly Auto Parts",
      "shop": "car_parts"
    }
  },
  {
    "v": "Repco",
    "lbl": {"en": "Repco"},
    "countryCodes": ["au", "nz"],
    "tags": {
      "brand": "Repco",
      "brand:wikidata": "Q173425",
      "brand:wikipedia": "en:Repco",
      "name": "Repco",
      "shop": "car_parts"
    }
  },
  {
    "v": "Supercheap Auto",
    "lbl": {"en": "Supercheap Auto"},
    "countryCodes": ["au", "nz"],
    "tags": {
      "brand": "Supercheap Auto",
      "brand:wikidata": "Q7643119",
      "brand:wikipedia": "en:Supercheap Auto",
      "name": "Supercheap Auto",
      "shop": "car_parts"
    }
  },
  {
    "v": "Tokić",
    "lbl": {"en": "Tokić"},
    "countryCodes": ["ba", "hr"],
    "tags": {"brand": "Tokić", "name": "Tokić", "shop": "car_parts"}
  },
  {
    "v": "Армтек",
    "lbl": {"en": "Армтек"},
    "countryCodes": ["by", "kz", "ru"],
    "tags": {"brand": "Армтек", "name": "Армтек", "shop": "car_parts"}
  },
  {
    "v": "Форсаж",
    "lbl": {"en": "Форсаж"},
    "tags": {"brand": "Форсаж", "name": "Форсаж", "shop": "car_parts"}
  },
  {
    "v": "イエローハット",
    "lbl": {"en": "イエローハット"},
    "countryCodes": ["jp"],
    "tags": {
      "brand": "イエローハット",
      "brand:en": "Yellow Hat",
      "brand:ja": "イエローハット",
      "brand:wikidata": "Q11285915",
      "brand:wikipedia": "ja:イエローハット",
      "name": "イエローハット",
      "name:en": "Yellow Hat",
      "name:ja": "イエローハット",
      "shop": "car_parts"
    }
  },
  {
    "v": "オートバックス",
    "lbl": {"en": "オートバックス"},
    "countryCodes": ["jp"],
    "tags": {
      "brand": "オートバックス",
      "brand:en": "Autobacs",
      "brand:ja": "オートバックス",
      "brand:wikidata": "Q7886426",
      "brand:wikipedia": "ja:オートバックスセブン",
      "name": "オートバックス",
      "name:en": "Autobacs",
      "name:ja": "オートバックス",
      "shop": "car_parts"
    }
  },
  {
    "v": "ジェームス",
    "lbl": {"en": "ジェームス"},
    "countryCodes": ["jp"],
    "tags": {
      "brand": "ジェームス",
      "brand:en": "JMS",
      "brand:ja": "ジェームス",
      "brand:wikidata": "Q11309404",
      "brand:wikipedia": "ja:ジェームス",
      "name": "ジェームス",
      "name:en": "JMS",
      "name:ja": "ジェームス",
      "official_name:en": "Joyful Motorist Shop",
      "shop": "car_parts"
    }
  },
  {
    "v": "タイヤ館",
    "lbl": {"en": "タイヤ館"},
    "countryCodes": ["jp"],
    "tags": {
      "brand": "タイヤ館",
      "brand:en": "Taiyakan",
      "brand:ja": "タイヤ館",
      "brand:wikidata": "Q11315808",
      "brand:wikipedia": "ja:タイヤ館",
      "name": "タイヤ館",
      "name:en": "Taiyakan",
      "name:ja": "タイヤ館",
      "shop": "car_parts"
    }
  }
]