[
  {
    "v": "Apple Store",
    "lbl": {"en": "Apple Store"},
    "nomatch": ["amenity/bank|Apple Bank"],
    "tags": {
      "brand": "Apple Store",
      "brand:wikidata": "Q421253",
      "brand:wikipedia": "en:Apple Store",
      "name": "Apple Store",
      "shop": "electronics",
      "short_name": "Apple"
    }
  },
  {
    "v": "BCC",
    "lbl": {"en": "BCC"},
    "countryCodes": ["nl"],
    "nomatch": ["amenity/bank|Bcc"],
    "tags": {"brand": "BCC", "name": "BCC", "shop": "electronics"}
  },
  {
    "v": "Batteries Plus Bulbs",
    "lbl": {"en": "Batteries Plus Bulbs"},
    "countryCodes": ["us"],
    "matchNames": ["batteries plus"],
    "tags": {
      "brand": "Batteries Plus Bulbs",
      "brand:wikidata": "Q17005157",
      "brand:wikipedia": "en:Batteries Plus Bulbs",
      "name": "Batteries Plus Bulbs",
      "shop": "electronics"
    }
  },
  {
    "v": "Best Buy",
    "lbl": {"en": "Best Buy"},
    "nomatch": [
      "amenity/vending_machine|Best Buy Express",
      "shop/mobile_phone|Best Buy Mobile"
    ],
    "tags": {
      "brand": "Best Buy",
      "brand:wikidata": "Q533415",
      "brand:wikipedia": "en:Best Buy",
      "name": "Best Buy",
      "shop": "electronics"
    }
  },
  {
    "v": "Boulanger",
    "lbl": {"en": "Boulanger"},
    "countryCodes": ["fr"],
    "tags": {
      "brand": "Boulanger",
      "brand:wikidata": "Q2921695",
      "brand:wikipedia": "fr:Boulanger (entreprise)",
      "name": "Boulanger",
      "shop": "electronics"
    }
  },
  {
    "v": "CeX",
    "lbl": {"en": "CeX"},
    "countryCodes": [
      "au",
      "es",
      "gb",
      "ie",
      "in",
      "it",
      "mx",
      "nl",
      "pl",
      "pt"
    ],
    "tags": {
      "brand": "CeX",
      "brand:wikidata": "Q5055676",
      "brand:wikipedia": "en:CeX (company)",
      "name": "CeX",
      "shop": "electronics"
    }
  },
  {
    "v": "Currys",
    "lbl": {"en": "Currys"},
    "countryCodes": ["gb", "ie"],
    "tags": {
      "brand": "Currys",
      "brand:wikidata": "Q3246464",
      "brand:wikipedia": "en:Currys",
      "name": "Currys",
      "shop": "electronics"
    }
  },
  {
    "v": "Currys PC World",
    "lbl": {"en": "Currys PC World"},
    "countryCodes": ["gb", "ie"],
    "tags": {
      "brand": "Currys PC World",
      "brand:wikidata": "Q7118727",
      "brand:wikipedia": "en:PC World (retailer)",
      "name": "Currys PC World",
      "shop": "electronics"
    }
  },
  {
    "v": "Darty",
    "lbl": {"en": "Darty"},
    "countryCodes": ["fr"],
    "tags": {
      "brand": "Darty",
      "brand:wikidata": "Q3117381",
      "brand:wikipedia": "en:Groupe Fnac Darty",
      "name": "Darty",
      "shop": "electronics"
    }
  },
  {
    "v": "Elektra",
    "lbl": {"en": "Elektra"},
    "countryCodes": ["gt", "hn", "pa", "pe", "sv"],
    "tags": {
      "brand": "Elektra",
      "brand:wikidata": "Q1142753",
      "brand:wikipedia": "es:Grupo Elektra",
      "name": "Elektra",
      "shop": "electronics"
    }
  },
  {
    "v": "Elgiganten",
    "lbl": {"en": "Elgiganten"},
    "countryCodes": ["dk", "se"],
    "tags": {
      "brand": "Elgiganten",
      "brand:wikidata": "Q17050121",
      "brand:wikipedia": "en:Elgiganten",
      "name": "Elgiganten",
      "shop": "electronics"
    }
  },
  {
    "v": "Euronics",
    "lbl": {"en": "Euronics"},
    "tags": {
      "brand": "Euronics",
      "brand:wikidata": "Q184860",
      "brand:wikipedia": "en:Euronics",
      "name": "Euronics",
      "shop": "electronics"
    }
  },
  {
    "v": "Expert",
    "lbl": {"en": "Expert"},
    "tags": {
      "brand": "Expert",
      "brand:wikidata": "Q680990",
      "brand:wikipedia": "en:Expert (company)",
      "name": "Expert",
      "shop": "electronics"
    }
  },
  {
    "v": "Fry's Electronics",
    "lbl": {"en": "Fry's Electronics"},
    "countryCodes": ["us"],
    "tags": {
      "brand": "Fry's Electronics",
      "brand:wikidata": "Q5506545",
      "brand:wikipedia": "en:Fry's Electronics",
      "name": "Fry's Electronics",
      "shop": "electronics",
      "short_name": "Fry's"
    }
  },
  {
    "v": "Frávega",
    "lbl": {"en": "Frávega"},
    "countryCodes": ["ar"],
    "tags": {
      "brand": "Frávega",
      "brand:wikidata": "Q5401467",
      "brand:wikipedia": "es:Frávega",
      "name": "Frávega",
      "shop": "electronics"
    }
  },
  {
    "v": "Garbarino",
    "lbl": {"en": "Garbarino"},
    "tags": {
      "brand": "Garbarino",
      "brand:wikidata": "Q5875270",
      "brand:wikipedia": "es:Garbarino",
      "name": "Garbarino",
      "shop": "electronics"
    }
  },
  {
    "v": "Gigantti",
    "lbl": {"en": "Gigantti"},
    "countryCodes": ["fi"],
    "tags": {
      "brand": "Gigantti",
      "brand:wikidata": "Q42512186",
      "brand:wikipedia": "fi:Gigantti (tavarataloketju)",
      "name": "Gigantti",
      "shop": "electronics"
    }
  },
  {
    "v": "Hartlauer",
    "lbl": {"en": "Hartlauer"},
    "countryCodes": ["at"],
    "tags": {
      "brand": "Hartlauer",
      "brand:wikidata": "Q1587223",
      "brand:wikipedia": "de:Hartlauer",
      "name": "Hartlauer",
      "shop": "electronics"
    }
  },
  {
    "v": "Interdiscount",
    "lbl": {"en": "Interdiscount"},
    "countryCodes": ["ch"],
    "tags": {
      "brand": "Interdiscount",
      "brand:wikidata": "Q1665980",
      "brand:wikipedia": "de:Interdiscount",
      "name": "Interdiscount",
      "shop": "electronics"
    }
  },
  {
    "v": "JB Hi-Fi",
    "lbl": {"en": "JB Hi-Fi"},
    "countryCodes": ["au", "nz"],
    "tags": {
      "brand": "JB Hi-Fi",
      "brand:wikidata": "Q3310113",
      "brand:wikipedia": "en:JB Hi-Fi",
      "name": "JB Hi-Fi",
      "shop": "electronics"
    }
  },
  {
    "v": "Jaycar",
    "lbl": {"en": "Jaycar"},
    "countryCodes": ["au", "nz"],
    "tags": {
      "brand": "Jaycar",
      "brand:wikidata": "Q6167713",
      "brand:wikipedia": "en:Jaycar",
      "name": "Jaycar",
      "shop": "electronics"
    }
  },
  {
    "v": "Kjell & Company",
    "lbl": {"en": "Kjell & Company"},
    "countryCodes": ["no", "se"],
    "matchNames": ["kjell och company"],
    "tags": {
      "brand": "Kjell & Company",
      "brand:wikidata": "Q6419332",
      "brand:wikipedia": "en:Kjell & Company",
      "name": "Kjell & Company",
      "shop": "electronics"
    }
  },
  {
    "v": "Komputronik",
    "lbl": {"en": "Komputronik"},
    "countryCodes": ["pl"],
    "tags": {
      "brand": "Komputronik",
      "brand:wikidata": "Q11742085",
      "brand:wikipedia": "pl:Komputronik",
      "name": "Komputronik",
      "shop": "electronics"
    }
  },
  {
    "v": "LG",
    "lbl": {"en": "LG"},
    "matchNames": ["lg electronics"],
    "tags": {
      "brand": "LG",
      "brand:wikidata": "Q162345",
      "brand:wikipedia": "en:LG Electronics",
      "name": "LG",
      "shop": "electronics"
    }
  },
  {
    "v": "La Curacao",
    "lbl": {"en": "La Curacao"},
    "tags": {
      "brand": "La Curacao",
      "brand:wikidata": "Q5194599",
      "brand:wikipedia": "en:Curacao (retail store)",
      "name": "La Curacao",
      "shop": "electronics"
    }
  },
  {
    "v": "MDA",
    "lbl": {"en": "MDA"},
    "countryCodes": ["fr"],
    "tags": {"brand": "MDA", "name": "MDA", "shop": "electronics"}
  },
  {
    "v": "Maplin",
    "lbl": {"en": "Maplin"},
    "countryCodes": ["gb"],
    "tags": {
      "brand": "Maplin",
      "brand:wikidata": "Q6754124",
      "brand:wikipedia": "en:Maplin (retailer)",
      "name": "Maplin",
      "shop": "electronics"
    }
  },
  {
    "v": "Media Expert",
    "lbl": {"en": "Media Expert"},
    "countryCodes": ["pl"],
    "tags": {
      "brand": "Media Expert",
      "brand:wikidata": "Q11776794",
      "brand:wikipedia": "pl:Media Expert",
      "name": "Media Expert",
      "shop": "electronics"
    }
  },
  {
    "v": "Media Markt",
    "lbl": {"en": "Media Markt"},
    "tags": {
      "brand": "Media Markt",
      "brand:wikidata": "Q2381223",
      "brand:wikipedia": "en:Media Markt",
      "name": "Media Markt",
      "shop": "electronics"
    }
  },
  {
    "v": "Medimax",
    "lbl": {"en": "Medimax"},
    "countryCodes": ["de"],
    "tags": {
      "brand": "Medimax",
      "brand:wikidata": "Q62872450",
      "name": "Medimax",
      "shop": "electronics"
    }
  },
  {
    "v": "Microsoft Store",
    "lbl": {"en": "Microsoft Store"},
    "tags": {
      "brand": "Microsoft Store",
      "brand:wikidata": "Q1688786",
      "brand:wikipedia": "en:Microsoft Store",
      "name": "Microsoft Store",
      "shop": "electronics",
      "short_name": "Microsoft"
    }
  },
  {
    "v": "Musimundo",
    "lbl": {"en": "Musimundo"},
    "countryCodes": ["ar"],
    "tags": {
      "brand": "Musimundo",
      "brand:wikidata": "Q6034719",
      "brand:wikipedia": "es:Musimundo",
      "name": "Musimundo",
      "shop": "electronics"
    }
  },
  {
    "v": "Neonet",
    "lbl": {"en": "Neonet"},
    "countryCodes": ["pl"],
    "tags": {
      "brand": "Neonet",
      "brand:wikidata": "Q11790622",
      "brand:wikipedia": "pl:Neonet",
      "name": "Neonet",
      "shop": "electronics"
    }
  },
  {
    "v": "Power",
    "lbl": {"en": "Power"},
    "countryCodes": ["dk", "fi", "no", "se"],
    "tags": {
      "brand": "Power",
      "brand:wikidata": "Q20857751",
      "brand:wikipedia": "fi:Power",
      "name": "Power",
      "shop": "electronics"
    }
  },
  {
    "v": "RTV Euro AGD",
    "lbl": {"en": "RTV Euro AGD"},
    "countryCodes": ["pl"],
    "tags": {
      "brand": "RTV Euro AGD",
      "brand:wikidata": "Q7277895",
      "brand:wikipedia": "pl:RTV Euro AGD",
      "name": "RTV Euro AGD",
      "shop": "electronics"
    }
  },
  {
    "v": "RadioShack",
    "lbl": {"en": "RadioShack"},
    "tags": {
      "brand": "RadioShack",
      "brand:wikidata": "Q1195490",
      "brand:wikipedia": "en:RadioShack",
      "name": "RadioShack",
      "shop": "electronics"
    }
  },
  {
    "v": "Samsung",
    "lbl": {"en": "Samsung"},
    "tags": {
      "brand": "Samsung",
      "brand:wikidata": "Q20718",
      "brand:wikipedia": "en:Samsung Electronics",
      "name": "Samsung",
      "shop": "electronics"
    }
  },
  {
    "v": "Saturn",
    "lbl": {"en": "Saturn"},
    "countryCodes": ["at", "de", "lu", "pl"],
    "tags": {
      "brand": "Saturn",
      "brand:wikidata": "Q2543504",
      "brand:wikipedia": "en:Saturn (retailer)",
      "name": "Saturn",
      "shop": "electronics"
    }
  },
  {
    "v": "Sony",
    "lbl": {"en": "Sony"},
    "tags": {
      "brand": "Sony",
      "brand:wikidata": "Q41187",
      "brand:wikipedia": "en:Sony",
      "name": "Sony",
      "shop": "electronics"
    }
  },
  {
    "v": "Teknikmagasinet",
    "lbl": {"en": "Teknikmagasinet"},
    "countryCodes": ["fi", "no", "se"],
    "tags": {
      "brand": "Teknikmagasinet",
      "brand:wikidata": "Q3357520",
      "brand:wikipedia": "en:Teknikmagasinet",
      "name": "Teknikmagasinet",
      "shop": "electronics"
    }
  },
  {
    "v": "The Good Guys",
    "lbl": {"en": "The Good Guys"},
    "countryCodes": ["au"],
    "tags": {
      "brand": "The Good Guys",
      "brand:wikidata": "Q7737217",
      "brand:wikipedia": "en:The Good Guys (Australian company)",
      "name": "The Good Guys",
      "shop": "electronics"
    }
  },
  {
    "v": "The Source",
    "lbl": {"en": "The Source"},
    "countryCodes": ["ca"],
    "tags": {
      "brand": "The Source",
      "brand:wikidata": "Q3212934",
      "brand:wikipedia": "en:The Source (retailer)",
      "name": "The Source",
      "shop": "electronics"
    }
  },
  {
    "v": "Trony",
    "lbl": {"en": "Trony"},
    "countryCodes": ["it"],
    "tags": {
      "brand": "Trony",
      "brand:wikidata": "Q3999692",
      "brand:wikipedia": "it:Trony",
      "name": "Trony",
      "shop": "electronics"
    }
  },
  {
    "v": "Unieuro",
    "lbl": {"en": "Unieuro"},
    "countryCodes": ["it"],
    "tags": {
      "brand": "Unieuro",
      "brand:wikidata": "Q4004687",
      "brand:wikipedia": "en:Unieuro",
      "name": "Unieuro",
      "shop": "electronics"
    }
  },
  {
    "v": "Worten",
    "lbl": {"en": "Worten"},
    "countryCodes": ["es", "pt"],
    "tags": {
      "brand": "Worten",
      "brand:wikidata": "Q10394039",
      "brand:wikipedia": "pt:Worten",
      "name": "Worten",
      "shop": "electronics"
    }
  },
  {
    "v": "b8ta",
    "lbl": {"en": "b8ta"},
    "countryCodes": ["us"],
    "tags": {
      "brand": "b8ta",
      "brand:wikidata": "Q55604609",
      "brand:wikipedia": "en:B8ta",
      "name": "b8ta",
      "shop": "electronics"
    }
  },
  {
    "v": "М.Видео",
    "lbl": {"en": "М.Видео"},
    "countryCodes": ["ru"],
    "tags": {
      "brand": "М.Видео",
      "brand:en": "M.video",
      "brand:wikidata": "Q6558800",
      "brand:wikipedia": "en:M.video",
      "name": "М.Видео",
      "name:en": "M.video",
      "shop": "electronics"
    }
  },
  {
    "v": "Фокстрот",
    "lbl": {"en": "Фокстрот"},
    "countryCodes": ["ua"],
    "tags": {
      "brand": "Фокстрот",
      "brand:wikidata": "Q16721578",
      "brand:wikipedia": "uk:Фокстрот (торгова мережа)",
      "name": "Фокстрот",
      "shop": "electronics"
    }
  },
  {
    "v": "Эксперт",
    "lbl": {"en": "Эксперт"},
    "countryCodes": ["ru"],
    "tags": {
      "brand": "Эксперт",
      "brand:en": "Expert",
      "brand:ru": "Эксперт",
      "brand:wikidata": "Q4530590",
      "brand:wikipedia": "ru:Эксперт (сеть магазинов)",
      "name": "Эксперт",
      "name:en": "Expert",
      "name:ru": "Эксперт",
      "shop": "electronics"
    }
  },
  {
    "v": "Эльдорадо",
    "lbl": {"en": "Эльдорадо"},
    "countryCodes": ["ru", "ua"],
    "tags": {
      "brand": "Эльдорадо",
      "brand:wikidata": "Q4531492",
      "brand:wikipedia": "ru:Эльдорадо (сеть магазинов)",
      "name": "Эльдорадо",
      "shop": "electronics"
    }
  },
  {
    "v": "エディオン",
    "lbl": {"en": "エディオン"},
    "countryCodes": ["jp"],
    "tags": {
      "brand": "エディオン",
      "brand:en": "EDION",
      "brand:ja": "エディオン",
      "brand:wikidata": "Q11290252",
      "brand:wikipedia": "ja:エディオン",
      "name": "エディオン",
      "name:en": "EDION",
      "name:ja": "エディオン",
      "shop": "electronics"
    }
  },
  {
    "v": "ケーズデンキ",
    "lbl": {"en": "ケーズデンキ"},
    "countryCodes": ["jp"],
    "matchTags": ["shop/appliance"],
    "tags": {
      "brand": "ケーズデンキ",
      "brand:en": "K's Denki",
      "brand:ja": "ケーズデンキ",
      "brand:wikidata": "Q6322472",
      "brand:wikipedia": "ja:ケーズホールディングス",
      "name": "ケーズデンキ",
      "name:en": "K's Denki",
      "name:ja": "ケーズデンキ",
      "shop": "electronics"
    }
  },
  {
    "v": "コジマ",
    "lbl": {"en": "コジマ"},
    "countryCodes": ["jp"],
    "tags": {
      "brand": "コジマ",
      "brand:en": "Kojima",
      "brand:ja": "コジマ",
      "brand:wikidata": "Q11302052",
      "brand:wikipedia": "ja:コジマ",
      "name": "コジマ",
      "name:en": "Kojima",
      "name:ja": "コジマ",
      "shop": "electronics"
    }
  },
  {
    "v": "ソフマップ",
    "lbl": {"en": "ソフマップ"},
    "countryCodes": ["jp"],
    "tags": {
      "brand": "ソフマップ",
      "brand:en": "Sofmap",
      "brand:ja": "ソフマップ",
      "brand:wikidata": "Q7553789",
      "brand:wikipedia": "ja:ソフマップ",
      "name": "ソフマップ",
      "name:en": "Sofmap",
      "name:ja": "ソフマップ",
      "shop": "electronics"
    }
  },
  {
    "v": "ノジマ",
    "lbl": {"en": "ノジマ"},
    "countryCodes": ["jp"],
    "tags": {
      "brand": "ノジマ",
      "brand:en": "Nojima",
      "brand:ja": "ノジマ",
      "brand:wikidata": "Q11325660",
      "brand:wikipedia": "ja:ノジマ",
      "name": "ノジマ",
      "name:en": "Nojima",
      "name:ja": "ノジマ",
      "shop": "electronics"
    }
  },
  {
    "v": "ビックカメラ",
    "lbl": {"en": "ビックカメラ"},
    "countryCodes": ["jp"],
    "tags": {
      "brand": "ビックカメラ",
      "brand:en": "Bic Camera",
      "brand:ja": "ビックカメラ",
      "brand:wikidata": "Q4903531",
      "brand:wikipedia": "ja:ビックカメラ",
      "name": "ビックカメラ",
      "name:en": "Bic Camera",
      "name:ja": "ビックカメラ",
      "shop": "electronics"
    }
  },
  {
    "v": "ヤマダ電機",
    "lbl": {"en": "ヤマダ電機"},
    "countryCodes": ["jp"],
    "tags": {
      "brand": "ヤマダ電機",
      "brand:en": "Yamada Denki",
      "brand:ja": "ヤマダ電機",
      "brand:wikidata": "Q1096390",
      "brand:wikipedia": "en:Yamada Denki",
      "name": "ヤマダ電機",
      "name:en": "Yamada Denki",
      "name:ja": "ヤマダ電機",
      "shop": "electronics"
    }
  },
  {
    "v": "ヨドバシカメラ",
    "lbl": {"en": "ヨドバシカメラ"},
    "countryCodes": ["jp"],
    "tags": {
      "brand": "ヨドバシカメラ",
      "brand:en": "Yodobashi Camera",
      "brand:ja": "ヨドバシカメラ",
      "brand:wikidata": "Q168467",
      "brand:wikipedia": "ja:ヨドバシカメラ",
      "name": "ヨドバシカメラ",
      "name:en": "Yodobashi Camera",
      "name:ja": "ヨドバシカメラ",
      "shop": "electronics"
    }
  },
  {
    "v": "全國電子",
    "lbl": {"en": "全國電子"},
    "countryCodes": ["tw"],
    "tags": {
      "brand": "全國電子",
      "brand:en": "E-life Mall",
      "brand:wikidata": "Q10891540",
      "brand:wikipedia": "zh:全國電子",
      "name": "全國電子",
      "name:en": "E-life Mall",
      "shop": "electronics"
    }
  },
  {
    "v": "燦坤3C",
    "lbl": {"en": "燦坤3C"},
    "countryCodes": ["tw"],
    "tags": {
      "brand": "燦坤3C",
      "brand:en": "Tsannkuen 3C",
      "brand:wikidata": "Q11569285",
      "brand:wikipedia": "zh:燦坤",
      "name": "燦坤3C",
      "name:en": "Tsannkuen 3C",
      "shop": "electronics"
    }
  }
]