[
  {
    "v": "99 Cents Only Stores",
    "lbl": {"en": "99 Cents Only Stores"},
    "countryCodes": ["us"],
    "matchNames": ["99 cent only stores", "99 cents only"],
    "tags": {
      "brand": "99 Cents Only Stores",
      "brand:wikidata": "Q4646294",
      "brand:wikipedia": "en:99 Cents Only Stores",
      "name": "99 Cents Only Stores",
      "shop": "variety_store"
    }
  },
  {
    "v": "Action",
    "lbl": {"en": "Action"},
    "countryCodes": ["at", "be", "de", "fr", "lu", "nl", "pl"],
    "tags": {
      "brand": "Action",
      "brand:wikidata": "Q2634111",
      "brand:wikipedia": "nl:Action (winkel)",
      "name": "Action",
      "shop": "variety_store"
    }
  },
  {
    "v": "B&M",
    "lbl": {"en": "B&M"},
    "tags": {"brand": "B&M", "name": "B&M", "shop": "variety_store"}
  },
  {
    "v": "B&M Bargains",
    "lbl": {"en": "B&M Bargains"},
    "countryCodes": ["gb"],
    "tags": {
      "brand": "B&M Bargains",
      "brand:wikidata": "Q4836931",
      "brand:wikipedia": "en:B & M",
      "name": "B&M Bargains",
      "shop": "variety_store"
    }
  },
  {
    "v": "Big Bazar",
    "lbl": {"en": "Big Bazar"},
    "countryCodes": ["be", "nl"],
    "tags": {
      "brand": "Big Bazar",
      "brand:wikidata": "Q15873104",
      "brand:wikipedia": "nl:Big Bazar",
      "name": "Big Bazar",
      "shop": "variety_store"
    }
  },
  {
    "v": "D9150",
    "lbl": {"en": "D9150"},
    "tags": {"brand": "D9150", "name": "D9150", "shop": "variety_store"}
  },
  {
    "v": "D9300",
    "lbl": {"en": "D9300"},
    "tags": {"brand": "D9300", "name": "D9300", "shop": "variety_store"}
  },
  {
    "v": "Daiso",
    "lbl": {"en": "Daiso Japan"},
    "countryCodes": ["au", "us"],
    "tags": {
      "brand": "Daiso",
      "brand:wikidata": "Q866991",
      "brand:wikipedia": "en:Daiso",
      "name": "Daiso Japan",
      "shop": "variety_store",
      "short_name": "Daiso"
    }
  },
  {
    "v": "Dealz",
    "lbl": {"en": "Dealz"},
    "tags": {
      "brand": "Dealz",
      "brand:wikidata": "Q16942585",
      "brand:wikipedia": "en:Dealz",
      "name": "Dealz",
      "shop": "variety_store"
    }
  },
  {
    "v": "Dollar General",
    "lbl": {"en": "Dollar General"},
    "countryCodes": ["us"],
    "nomatch": [
      "amenity/bank|Dollar Bank",
      "amenity/car_rental|Dollar",
      "shop/supermarket|Dollar General Market",
      "shop/variety_store|Dollar Tree",
      "shop/variety_store|Dollarama",
      "shop/variety_store|Family Dollar"
    ],
    "tags": {
      "brand": "Dollar General",
      "brand:wikidata": "Q145168",
      "brand:wikipedia": "en:Dollar General",
      "name": "Dollar General",
      "shop": "variety_store"
    }
  },
  {
    "v": "Dollar Tree",
    "lbl": {"en": "Dollar Tree"},
    "countryCodes": ["ca", "us"],
    "nomatch": [
      "amenity/bank|Dollar Bank",
      "amenity/car_rental|Dollar",
      "shop/variety_store|Dollar General",
      "shop/variety_store|Dollarama",
      "shop/variety_store|Family Dollar"
    ],
    "tags": {
      "brand": "Dollar Tree",
      "brand:wikidata": "Q5289230",
      "brand:wikipedia": "en:Dollar Tree",
      "name": "Dollar Tree",
      "shop": "variety_store"
    }
  },
  {
    "v": "Dollarama",
    "lbl": {"en": "Dollarama"},
    "countryCodes": ["ca"],
    "nomatch": [
      "amenity/bank|Dollar Bank",
      "amenity/car_rental|Dollar",
      "shop/variety_store|Dollar General",
      "shop/variety_store|Dollar Tree",
      "shop/variety_store|Family Dollar"
    ],
    "tags": {
      "brand": "Dollarama",
      "brand:wikidata": "Q3033947",
      "brand:wikipedia": "en:Dollarama",
      "name": "Dollarama",
      "shop": "variety_store"
    }
  },
  {
    "v": "EuroShop",
    "lbl": {"en": "EuroShop"},
    "countryCodes": ["de"],
    "tags": {
      "brand": "EuroShop",
      "brand:wikidata": "Q15846763",
      "brand:wikipedia": "de:Schum EuroShop",
      "name": "EuroShop",
      "shop": "variety_store"
    }
  },
  {
    "v": "Family Dollar",
    "lbl": {"en": "Family Dollar"},
    "countryCodes": ["us"],
    "nomatch": [
      "amenity/bank|Dollar Bank",
      "amenity/car_rental|Dollar",
      "shop/variety_store|Dollar General",
      "shop/variety_store|Dollar Tree",
      "shop/variety_store|Dollarama"
    ],
    "tags": {
      "brand": "Family Dollar",
      "brand:wikidata": "Q5433101",
      "brand:wikipedia": "en:Family Dollar",
      "name": "Family Dollar",
      "shop": "variety_store"
    }
  },
  {
    "v": "Five Below",
    "lbl": {"en": "Five Below"},
    "countryCodes": ["us"],
    "tags": {
      "brand": "Five Below",
      "brand:wikidata": "Q5455836",
      "brand:wikipedia": "en:Five Below",
      "name": "Five Below",
      "shop": "variety_store"
    }
  },
  {
    "v": "Fix Price",
    "lbl": {"en": "Fix Price"},
    "countryCodes": ["by", "ru"],
    "tags": {
      "brand": "Fix Price",
      "brand:wikidata": "Q4038791",
      "brand:wikipedia": "ru:Fix Price (сеть магазинов)",
      "name": "Fix Price",
      "shop": "variety_store"
    }
  },
  {
    "v": "Flying Tiger Copenhagen",
    "lbl": {"en": "Flying Tiger Copenhagen"},
    "matchNames": ["tgr", "tiger"],
    "tags": {
      "brand": "Flying Tiger Copenhagen",
      "brand:wikidata": "Q2786319",
      "brand:wikipedia": "en:Flying Tiger Copenhagen",
      "name": "Flying Tiger Copenhagen",
      "shop": "variety_store",
      "short_name": "Flying Tiger"
    }
  },
  {
    "v": "GiFi",
    "lbl": {"en": "GiFi"},
    "countryCodes": ["fr"],
    "tags": {
      "brand": "GiFi",
      "brand:wikidata": "Q3105439",
      "brand:wikipedia": "fr:Gifi",
      "name": "GiFi",
      "shop": "variety_store"
    }
  },
  {
    "v": "Home Bargains",
    "lbl": {"en": "Home Bargains"},
    "countryCodes": ["gb"],
    "tags": {
      "brand": "Home Bargains",
      "brand:wikidata": "Q5888229",
      "brand:wikipedia": "en:Home Bargains",
      "name": "Home Bargains",
      "shop": "variety_store"
    }
  },
  {
    "v": "M9",
    "lbl": {"en": "M9"},
    "tags": {"brand": "M9", "name": "M9", "shop": "variety_store"}
  },
  {
    "v": "Miniso",
    "lbl": {"en": "Miniso"},
    "tags": {
      "brand": "Miniso",
      "brand:wikidata": "Q20732498",
      "brand:wikipedia": "en:Miniso",
      "name": "Miniso",
      "shop": "variety_store"
    }
  },
  {
    "v": "Mäc-Geiz",
    "lbl": {"en": "Mäc-Geiz"},
    "countryCodes": ["de"],
    "tags": {
      "brand": "Mäc-Geiz",
      "brand:wikidata": "Q1957126",
      "brand:wikipedia": "de:Mäc-Geiz",
      "name": "Mäc-Geiz",
      "shop": "variety_store"
    }
  },
  {
    "v": "NOZ",
    "lbl": {"en": "NOZ"},
    "countryCodes": ["fr"],
    "tags": {
      "brand": "NOZ",
      "brand:wikidata": "Q3345688",
      "brand:wikipedia": "fr:Noz",
      "name": "NOZ",
      "shop": "variety_store"
    }
  },
  {
    "v": "Ocean State Job Lot",
    "lbl": {"en": "Ocean State Job Lot"},
    "countryCodes": ["us"],
    "tags": {
      "brand": "Ocean State Job Lot",
      "brand:wikidata": "Q7076076",
      "brand:wikipedia": "en:Ocean State Job Lot",
      "name": "Ocean State Job Lot",
      "shop": "variety_store",
      "short_name": "Job Lot"
    }
  },
  {
    "v": "Ollie's Bargain Outlet",
    "lbl": {"en": "Ollie's Bargain Outlet"},
    "countryCodes": ["us"],
    "tags": {
      "brand": "Ollie's Bargain Outlet",
      "brand:wikidata": "Q7088304",
      "brand:wikipedia": "en:Ollie's Bargain Outlet",
      "name": "Ollie's Bargain Outlet",
      "shop": "variety_store",
      "short_name": "Ollie's"
    }
  },
  {
    "v": "Poundland",
    "lbl": {"en": "Poundland"},
    "countryCodes": ["gb"],
    "tags": {
      "brand": "Poundland",
      "brand:wikidata": "Q1434528",
      "brand:wikipedia": "en:Poundland",
      "name": "Poundland",
      "shop": "variety_store"
    }
  },
  {
    "v": "Poundstretcher",
    "lbl": {"en": "Poundstretcher"},
    "countryCodes": ["gb"],
    "tags": {
      "brand": "Poundstretcher",
      "brand:wikidata": "Q7235675",
      "brand:wikipedia": "en:Poundstretcher",
      "name": "Poundstretcher",
      "shop": "variety_store"
    }
  },
  {
    "v": "Poundworld",
    "lbl": {"en": "Poundworld"},
    "countryCodes": ["gb", "ie"],
    "tags": {
      "brand": "Poundworld",
      "brand:wikidata": "Q16967516",
      "brand:wikipedia": "en:Poundworld",
      "name": "Poundworld",
      "shop": "variety_store"
    }
  },
  {
    "v": "Roses",
    "lbl": {"en": "Roses"},
    "countryCodes": ["us"],
    "tags": {
      "brand": "Roses",
      "brand:wikidata": "Q7368644",
      "brand:wikipedia": "en:Roses (store)",
      "name": "Roses",
      "shop": "variety_store"
    }
  },
  {
    "v": "Savers",
    "lbl": {"en": "Savers"},
    "countryCodes": ["gb"],
    "nomatch": ["shop/chemist|Savers"],
    "tags": {
      "brand": "Savers",
      "brand:wikidata": "Q7428189",
      "brand:wikipedia": "en:Savers (UK retailer)",
      "name": "Savers",
      "shop": "variety_store"
    }
  },
  {
    "v": "TEDi",
    "lbl": {"en": "TEDi"},
    "countryCodes": ["at", "de", "es", "hr", "si", "sk"],
    "tags": {
      "brand": "TEDi",
      "brand:wikidata": "Q1364603",
      "brand:wikipedia": "de:TEDi",
      "name": "TEDi",
      "shop": "variety_store"
    }
  },
  {
    "v": "Tokmanni",
    "lbl": {"en": "Tokmanni"},
    "countryCodes": ["fi"],
    "tags": {
      "brand": "Tokmanni",
      "brand:wikidata": "Q13423470",
      "brand:wikipedia": "fi:Tokmanni",
      "name": "Tokmanni",
      "shop": "variety_store"
    }
  },
  {
    "v": "Wilko",
    "lbl": {"en": "Wilko"},
    "countryCodes": ["gb"],
    "tags": {
      "brand": "Wilko",
      "brand:wikidata": "Q8002536",
      "brand:wikipedia": "en:Wilko (retailer)",
      "name": "Wilko",
      "shop": "variety_store"
    }
  },
  {
    "v": "キャンドゥ",
    "lbl": {"en": "キャンドゥ"},
    "countryCodes": ["jp"],
    "tags": {
      "brand": "キャンドゥ",
      "brand:en": "CAN DO",
      "brand:ja": "キャンドゥ",
      "brand:wikidata": "Q11297367",
      "brand:wikipedia": "ja:キャンドゥ",
      "name": "キャンドゥ",
      "name:en": "CAN DO",
      "name:ja": "キャンドゥ",
      "shop": "variety_store"
    }
  },
  {
    "v": "セリア",
    "lbl": {"en": "セリア"},
    "countryCodes": ["jp"],
    "tags": {
      "brand": "セリア",
      "brand:en": "Seria",
      "brand:ja": "セリア",
      "brand:wikidata": "Q11314509",
      "brand:wikipedia": "ja:セリア (100円ショップ)",
      "name": "セリア",
      "name:en": "Seria",
      "name:ja": "セリア",
      "shop": "variety_store"
    }
  },
  {
    "v": "ダイソー",
    "lbl": {"en": "ダイソー"},
    "countryCodes": ["jp"],
    "matchNames": ["ザ・ダイソー"],
    "tags": {
      "brand": "ダイソー",
      "brand:en": "Daiso",
      "brand:ja": "ダイソー",
      "brand:wikidata": "Q866991",
      "brand:wikipedia": "ja:大創産業",
      "name": "ダイソー",
      "name:en": "Daiso",
      "name:ja": "ダイソー",
      "shop": "variety_store"
    }
  },
  {
    "v": "ダイレックス",
    "lbl": {"en": "ダイレックス"},
    "countryCodes": ["jp"],
    "tags": {
      "brand": "ダイレックス",
      "brand:en": "Direx",
      "brand:ja": "ダイレックス",
      "brand:wikidata": "Q11317051",
      "brand:wikipedia": "ja:ダイレックス (ディスカウントストア)",
      "name": "ダイレックス",
      "name:en": "Direx",
      "name:ja": "ダイレックス",
      "shop": "variety_store"
    }
  },
  {
    "v": "トライアル",
    "lbl": {"en": "トライアル"},
    "countryCodes": ["jp"],
    "tags": {
      "brand": "トライアル",
      "brand:en": "Trial",
      "brand:ja": "トライアル",
      "brand:wikidata": "Q11321723",
      "brand:wikipedia": "ja:トライアルカンパニー",
      "name": "トライアル",
      "name:en": "Trial",
      "name:ja": "トライアル",
      "shop": "variety_store"
    }
  },
  {
    "v": "ドン・キホーテ",
    "lbl": {"en": "ドン・キホーテ"},
    "countryCodes": ["jp"],
    "tags": {
      "brand": "ドン・キホーテ",
      "brand:en": "Don Quijote",
      "brand:ja": "ドン・キホーテ",
      "brand:wikidata": "Q1185381",
      "brand:wikipedia": "ja:ドン・キホーテ (企業)",
      "name": "ドン・キホーテ",
      "name:en": "Don Quijote",
      "name:ja": "ドン・キホーテ",
      "opening_hours": "24/7",
      "shop": "variety_store",
      "short_name": "ドンキ",
      "short_name:en": "Donki",
      "short_name:ja": "ドンキ"
    }
  }
]